Clean Name,Company ,Address,Street Address,Cities,State,Zip Code,DUNS No
Whole Foods Market Services Inc,"Whole Foods Market Group, Inc.","550 Bowie Street, Austin, TX 78703",550 Bowie Street,Austin,TX,78703,04-619-2386
LJ Cooper Capital Management LLC,"LJCooper Capital Management, LLC d/b/a LJCooper Wealth Advisors","742 N 530 E, Orem, UT 84097",742 N 530 E,Orem,UT,84097,08-038-5296
University of Maine,University of Maine,"46 University Drive, Augusta, Maine 04330",46 University Drive,Augusta,ME,04330,07-175-0426
Star Title Partners of Palm Harbor LLC,"Star Title Partners of Palm Harbor, LLC","30522 US Hwy 19 N. Ste. 101, Palm Harbor, FL 34684",30522 US Hwy 19 N. Ste. 101,Palm Harbor,FL,34684,19-137-3708
Cenera Funding Inc,"Cenera Funding, Inc.","3600 Benbrook Highway, Fort Worth, TX  76116",3600 Benbrook Highway,Fort Worth,TX,76116,
Fifth Third Bank,Fifth Third Bank,"38 Fountain Square Plaza, Cincinnati, OH  45140",38 Fountain Square Plaza,Cincinnati,OH,45140,08-159-0853
Net32 Inc,Net32,,,,,,03-926-9209
TravisMathew LLC,TravisMathew LLC,"15202 Graham Street, Huntington Beach, CA 92649",15202 Graham Street,Huntington Beach,CA,92649,07-839-0477
Heartland Hotel Corp,Heartland Hotel Corporation,"4403 First Ave., SE Suite 114; Cedar Rapids, IA  52402","4403 First Ave., SE Suite 114",Cedar Rapids,IA,52402,62-079-7944
STL International Inc,"STL International, Inc., d/b/a Teeter","9902 162nd Street, Ct. E., Puyallup, WA 98375","9902 162nd Street, Ct. E.",Puyallup,WA,98375,06-272-9769
Avis Budget Group,"Avis Budget Portugal, Sovial - Sociedade de Viatruas de Aluguer, Lda., R. Prof. Fernando da Fonseca","Edificio Visconde De Alvalade, 6  piso, Lisboa, Portugal 01600-616","Edificio Visconde De Alvalade, 6  piso",Lisboa,Portugal,01600-616,06-250-6134
GS1 US Inc,"GSI US, Inc., 1009 Lenox Drive, Suite 202, Lawrenceville, NJ 08648",,"1009 Lenox Drive, Suite 202",Lawrenceville,NJ,08648,
Tengointernet Inc,"Tengointernet, Inc.","3300 North Interstate Highway 35, Suite 600, Austin, TX 78705","3300 North Interstate Highway 35, Suite 600",Austin,TX,78705,55-643-2990
Aptos Inc,Aptos Inc,,,,,,06-760-5154
British Airways PLC,British Airways,,,,,,22-531-1612
City Lights Collectibles,City Lights Collectibles,,,,,,86-435-9444
Richard Owen Nursery Inc,Dutch Gardens,,,,,,13-248-8607
Marian Helpers Corp,Marian Helpers Corporation,,,,,,08-045-7195
Reliable Respiratory,Reliable Respiratory,"1504 Boston Providence Highway, #11a, Norwood, MA  02062","1504 Boston Providence Highway, #11a",Norwood,MA,02062,60-745-8267
ShopStyle Inc,ShopStyle Inc.,"800 Concar Drive, Suite 175, San Mateo, CA 94402","800 Concar Drive, Suite 175",San Mateo,CA,94402,08-052-8868
TIO Networks USA Inc,Tio Networks (re: Alliance Data & Florida Power & Light Company),"2211 N 1st Street, San Jose, CA 95131",2211 N 1st Street,San Jose,CA,95131,07-758-1187
TransUnion LLC,TransUnion LLC,"555 W Adams Street, Chicago, IL 60661",555 W Adams Street,Chicago,IL,60661,08-090-6800
Village People LLC,"Village People, LLC","2206 21st Avenue South, Nashville, TN 37212",2206 21st Avenue South,Nashville,TN,37212,00-354-5191
Dr Amy Woodruff,Dr. Amy Woodruff,,,,,,02-289-8206
Zoetop Business Co Ltd,Shein,,,,,,
Renaissance Philanthropic Solutions Group,"Renaissance Pilanthropic Solutions Group (""RenPSG"")","8910 Purdue Road, Suite 500, Indianapolis, IN  46268","8910 Purdue Road, Suite 500",Indianapolis,IN,46268,06-606-7611
Challenger Sports Inc,"Challenger Sports, Inc.","8263 Flint Street, Lenexa, KS  66214",8263 Flint Street,Lenexa,KS,66214,01-715-3151
Scrapbook.com LLC,Scrapbook.com LLC,"1495 E. Baseline Road, Suite 102, Gilbert, Arizona, 85233","1495 E. Baseline Road, Suite 102",Gilbert,AZ,85233,09-240-8363
Tallahassee Memorial Healthcare Inc,Tallahassee Memorial Healthcare Inc.,"1300 Miccosukee Road, Tallahassee, FL 32308",1300 Miccosukee Road,Tallahassee,FL,32308,07-919-8594
Liquidity Services Inc,"Liquidity Services, Inc.","6931 Arlington, Road, Suite 200, Bethesda, MD 20814","6931 Arlington Road, Suite 200",Bethesda,MD,20814,93-335-1611
Goody Tickets,Goody Tickets,,,,,,06-884-7765
Commerce Bank,Commerce Bank,"320 Eagle Crest Drive, Ste. E, Evansville, Indiana 47715","320 Eagle Crest Drive, Ste. E",Evansville,IN,47715,62-737-4544
Envision Healthcare Corp,Envision Healthcare Corporation,"1A Burton Hills Blvd, Nashville, TN 37215",1A Burton Hills Blvd,Nashville,TN,37215,08-045-9317
Cigna Corp,"Cigna, B6LPA","900 Cottage Grove Road, Bloomfield, CT 06002",900 Cottage Grove Road,Bloomfield,CT,06002,02-905-3964
Roadrunner Transportation Systems Inc,"RRTS (Roadrunner Transportation Systems, Inc.)","1431 Opus Place, Suite 530, Downers Grove, IL 60515","1431 Opus Place, Suite 530",Downers Grove,IL,60515,11-411-4531
Five Below Inc,"Five Below, Inc.","701 Market Street, Suite 200, Philadelphia, PA 19106","701 Market Street, Suite 200",Philadelphia,PA,19106,09-544-6659
Health Fitness Inc,Health Fitness Inc. on behalf of its clients (Amedysis and MACTEC),"400 Field Drive, Lake Forest, IL 60045",400 Field Drive,Lake Forest,IL,60045,18-319-6138
North American Risk Services Inc,"North American Risk Services, Inc.","PO Box 166002, Altamonte Springs, FL 32716-6002 ",PO Box 166002,Altamonte Springs,FL,32716-6002,82-516-8235
California State University East Bay,California State University East Bay,"25800 Carlos Bee Boulevard SA 4401, Hayward, CA  94542",25800 Carlos Bee Boulevard SA 4401,Hayward,CA,94542,60-268-4552
LeafFilter North LLC,"LeafFilter North, LLC","1595 Georgetown Road, Hudson, OH 44236",1595 Georgetown Road,Hudson,OH,44236,79-196-9640
Shoe Station Inc,"Shoe Station, Inc.","720 Executive Park Drive, Mobile, AL 36606",720 Executive Park Drive,Mobile,AL,36606,11-854-3867
Professional Publications Inc,"Professional Publications, Inc.","1250 Fifth Avenue, Belmont, CA 94002",1250 Fifth Avenue,Belmont,CA,94002,09-308-5546
Lion Equity Partners,Lion Equity Partners,,,,,,96-200-3997
J Crew Inc,J Crew,"224 Liberty St, 17th Fl, New York, NY 10281","224 Liberty St, 17th Fl",New York,NY,10281,11-600-4417
Toyota Industries North America Inc,"Toyota Industries North America, Inc.","3030 Barker Drive, Columbus, IN  47201",3030 Barker Drive,Columbus,IN,47201,13-589-3746
Another Planet Entertainment,Another Planet Entertainment,"1815 4th Street, Suite C, Berkeley, CA 94710","1815 4th Street, Suite C",Berkeley,CA,94710,14-357-0526
Coca-Cola Co,The Coca-Cola Bottling Co. of Northern New England,"1 Executive Park Drive, Bedford, NH 03110-6913",1 Executive Park Drive,Bedford,NH,03110-6913,13-510-1004
AEI Fund Management Inc,"AEI Fund Management, Inc.","1300 Wells Fargo Place, 30 East Seventh Street, St. Paul, MN 55101","1300 Wells Fargo Place, 30 East Seventh Street",St. Paul,MN,55101,61-278-1054
Wintrust Financial Corp,Wintrust Financial Corporation,"9700 W. Higgins Road, Rosemont, IL 60018",9700 W. Higgins Road,Rosemont,IL,60018,96-052-0278
Chegg Inc,"Chegg, Inc.","3990 Freedom Circle, Santa Clara, CA  95054",3990 Freedom Circle,Santa Clara,CA,95054,79-178-0294
Protravel International LLC,Protravel International LLC,"515 Madison Avenue, 10 Floor, New York, NY","515 Madison Avenue, 10 Floor",New York,NY,,10-330-1636
Plant Therapy,Plant Therapy,"Twin Falls, Idaho",,Twin Falls,ID,,08-012-8261
The Affiliated Group,The Affiliated Group,"7381 Airport View Drive SW, Rochester, MN 55902",7381 Airport View Drive SW,Rochester,MN,55902,02-099-3268
Performance Food Group Inc,"Performance Food Group, Inc.",,,,,,01-743-1466
YRCWorldwide Inc,YRC Worldwide Inc.,"10990 Roe Ave, Overland, Park, KS 66211",10990 Roe Ave,Overland,KS,66211,10-710-1248
Tauck Inc,"Tauck, Inc.","10 Westport Road, Wilton, CT 06897",10 Westport Road,Wilton,CT,06897,04-768-1069
Tech Rabbit LLC,Tech Rabbit LLC,"601 Lehigh Ave, Union, NJ 07083",601 Lehigh Ave,Union,NJ,07083,07-969-1336
Arby's Restaurant Group Inc,Arby's ,,,,,,79-577-2743
Automated Pet Care Products Inc,Automated Pet Care Products,,,,,,19-272-8389
Braintree PSP,Braintree PSP,,,,,,07-980-9888
Rainbow Resource Center,Rainbow Resource Center,,,,,,78-797-0458
Garvey Schubert Barer PC,"Garvey Schubert Barer, P.C.","1191 Second Avenue, Suite 1800, Seattle, WA 98101-2939","1191 Second Avenue, Suite 1800",Seattle,WA,98101-2939,10-858-0415
Air Canada,Air Canada,"ZIP 1276, 730 boul, Cote Vertu West, Dorval, QC H4S 1Y9","730 boul, Cote Vertu West",Dorval,QC,,20-209-5022
Peaceful Valley Farm Supply Inc,Peaceful Valley Farm Supply,"125 Clydesdale Ct, Grass Valley, CA 95945",125 Clydesdale Ct,Grass Valley,CA,95945,09-589-0018
Roadrunner Transportation Systems Inc,"Roadrunner Transportation Systems, Inc.","1431 Opus Place, Suite 530; Downers Grove, IL 60515","1431 Opus Place, Suite 530",Downers Grove,IL,60515,11-411-4531
Nardella & Taylor LLP,"Nardella & Taylor, LLP",,,,,,19-581-4777
Stein Mart Inc,"Stein Mart, Inc.","1200 Riverplace Blvd., Jacksonville, Florida 32207",1200 Riverplace Blvd.,Jacksonville,FL,32207,00-704-1346
Title Nine Sports Inc,Title Nine,"6201 Doyle Street, Emeryville, California, 94608",6201 Doyle Street,Emeryville,CA,94608,96-075-3486
Sanibel Captiva Trust Company,Sanibel Captiva Trust Company,"2460 Palm Ridge Road, Sanibel, FL 33957",2460 Palm Ridge Road,Sanibel,FL,33957,19-360-6972
ECS Tuning Inc,ECS Tuning,"1000 Seville Road, Wadsworth, OH  44281",1000 Seville Road,Wadsworth,OH,44281,00-805-9820
Kyocera Document Solutions New England Inc,"Kyocera Document Solutions New England, Inc.","One Jewel Drive, Wilmington, MA 018878",One Jewel Drive,Wilmington,MA,18878,11-524-7751
North American Risk Services Inc,"North American Risk Services, Inc.","PO Box 166002, Altamonte Springs, FL 32716-6002",PO Box 166002,Altamonte Springs,FL,32716-6002,82-516-8235
Movement Mortgage LLC,"Movement Mortgage, LLC","8024 Calvin Hall Road, Indian Land, SC 29707",8024 Calvin Hall Road,Indian Land,SC,29707,80-862-6092
Bombas LLC,Bombas LLC,"37 E 18th St. 4th Floor, New York, NY 10003",37 E 18th St. 4th Floor,New York,NY,10003,05-557-9000
Richard Owen Nursery Inc,"Richard Owen Nursery, Inc.","P.O. Box 2999, Bloomington, IL 61702",P.O. Box 2999,Bloomington,IL,61702,94-420-6929
Garretson Resolution Group Inc,"Garretson Resolution Group, Inc.","6281 Tri-Ridge Boulevard, Suite 300, Cincinnati, Ohio 45140","6281 Tri-Ridge Boulevard, Suite 300",Cincinnati,OH,45140,07-914-5894
SureFire LLC,Surefire,,,,,,09-757-5849
Sierra Nevada Brewing Co,Sierra Nevada Brewing Co.,,,,,,03-827-8578
LILLEbaby LLC,LILLEbaby,"700 12th Street, Suite 220, Golden, CO 80401","700 12th Street, Suite 220",Golden,CO,80401,07-854-5572
NorthStar Anesthesia,NorthStar Anesthesia,"6225 State Highway 161, #200, Irving, TX 75038","6225 State Highway 161, #200",Irving,TX,75038,07-968-3385
Orrstown Bank,Orrstown Bank,"77 East King Street, Shippensburg, PA 17257",77 East King Street,Shippensburg,PA,17257,01-517-0038
Humana Inc,Humana Inc,"500 W Main Street, Louisville, KY 40202",500 W Main Street,Louisville,KY,40202,04-994-4143
Ameriprise Financial Inc,Ameriprise Financial Inc.,"707 2nd Ave S, Minneapolis, MN 55474",707 2nd Ave S,Minneapolis,MN,55474,00-696-1957
Maine Savings Federal Credit Union,Maine Savings Federal Credit Union,"P.O. Box 347, Hampden, ME 04444",P.O. Box 347,Hampden,ME,04444,60-571-0730
Dorian Business Systems LLC,"Dorian Business Systems, LLC",,,,,,11-720-3536
REEB Millwork Corp,REEB Millwork Corporation,"1000 Maloney Circle, Bethlehem, PA 18015",1000 Maloney Circle,Bethlehem,PA,18015,01-169-5533
Health Management Concepts Inc,Health Management Concepts Inc.,"181 Commodore Drive, Jupiter, FL 33477",181 Commodore Drive,Jupiter,FL,33477,19-706-2982
Cheddar's Casual Cafe Inc,Cheddars Scratch Kitchen (Cheddar's),,,,,,09-544-6670
Munro and Company Inc,Munro & Company,"3770 Malvern Road, Hot Springs, AR  71901",3770 Malvern Road,Hot Springs,AR,71901,06-213-9076
Eastern Maine Community College,Eastern Maine Community College   (Notice of Possible Breach),"354 Hogan Road, Bangor, ME",354 Hogan Road,Bangor,ME,,96-790-4058
Animoto Inc,Animoto Inc.,"333 Kearny Street, 6th Floor, San Francisco, CA 94108","333 Kearny Street, 6th Floor",San Francisco,CA,94108,79-183-0354
Tommie Copper Inc,Tommie Copper Mount Kisco,,,,,,08-117-6569
www.tommiecopper.com,wwwtommiecoppercomMt.Kisco,,,,,,08-117-6569
Thomas Chandler Thomas & Hinshaw LLP,Thomas Chandler Thomas & Hinshaw LLP,,,,,,02-733-9764
Concept Title Services Inc,"Concept Title Services, Inc.","2950 SW 27th Avenue, Suite 210, Miami, Florida 33133","2950 SW 27th Avenue, Suite 210",Miami,FL,33133,01-653-3367
Bank of America,Bank of America,,,,,,05-516-9452
Hasbro Inc,"Hasbro, Inc.","1027 Newport Ave, Pawtucket, RI 02861",1027 Newport Ave,Pawtucket,RI,02861,00-120-0443
Gridiron Inc,Gridiron Inc,"1567 Lisbon Street, Lewiston, Maine 04240",1567 Lisbon Street,Lewiston,ME,04240,62-394-4340
North Amercian Power & Gas LLC,"North Amercian Power & Gas, LLC","20 Glover Ave., Norwak, CT  06580",20 Glover Ave.,Norwak,CT,06580,83-246-1086
American Express Travel Related Services Co Inc,"American Express Travel Related Services, Company","General Counsel's Office, 200 Vesey Street, NY, NY 10285","General Counsel's Office, 200 Vesey Street",New York,NY,10285,07-784-8968
Manduka,Manduka,,,,,,61-295-5364
Plant Therapy,Plant Therapy,,,,,,08-012-8261
Bank of Hope,Bank of Hope,,,,,,60-884-7919
Loyola University of Chicago,Loyola University of Chicago,"820 N. Michigan Avenue, Chicago, IL 60611",820 N. Michigan Avenue,Chicago,IL,60611,07-436-8911
MedEvolve Inc,MedEvolve,"115 W 3rd Street, Little Rock, AR 72201",115 W 3rd Street,Little Rock,AR,72201,80-296-9063
Yale University,Yale,"(Office of the VP & General Counsel) PO Box 208255, New Haven, CT 06520-8255",(Office of the VP & General Counsel) PO Box 208255,New Haven,CT,06520-8255,04-320-7562
Concannon Miller & Co PC,Concannon Miller & Co. P.C.,"1525 Valley Center Parkway, Suite 300, Bethlehem, PA 18017","1525 Valley Center Parkway, Suite 300",Bethlehem,PA,18017,07-364-8545
ABM Mechanical Inc,"ABM Mechanical, Inc. ","33 Dowd Road, Unit 1, Bangor, ME  04401","33 Dowd Road, Unit 1",Bangor,ME,04401,94-641-8316
Automated Pet Care Products Inc,"Automated Pet Care Products, Inc.","2900 Auburn Court, Auburn Hills, MI 48326",2900 Auburn Court,Auburn Hills,MI,48326,19-272-8389
Eastern Maine Healthcare Systems,Eastern Maine Healthcare Systems (EMHS),"43 Whiting Hill Road, Brewer, ME 04412",43 Whiting Hill Road,Brewer,ME,04412,10-818-0597
TradeMotion LLC,Trade Motion,"7400 Wilshire Pl. Drive, Houston, TX 77040",7400 Wilshire Pl. Drive,Houston,TX,77040,
Dane Street LLC,"Dane Street, LLC, ",,,,,,83-317-2641
Optoma Technology Inc,"Optoma Technology, Inc.","47697 Westinghouse Drive, Suite 100, Fremont, CA 94538","47697 Westinghouse Drive, Suite 100",Fremont,CA,94538,92-613-2960
Town of Surry,Town of Surry,"P.O. Box 147, 741 North Bend Road, Surry, ME 04684","P.O. Box 147, 741 North Bend Road",Surry,ME,04684,07-337-6191
NorthStar Anesthesia,NorthStar Anesthesia,"6225 State Highway 161, #200, Irving, TX 75038","6225 State Highway 161, #200",Irving,TX,75038,07-968-3385
Comply Right Inc,"ComplyRight, Inc.",,,,,,13-233-8315
Boys Town National Research Hospital,Boys Town National Research Hospital,"14100 Crawford Street, Boys Town, NE 68010",14100 Crawford Street,Boys Town,NE,68010,11-753-7110
Helly Hansen AS,Helly Hansen AS,"Munkedamsveien 35, 6 fl, N-0250, 1653 Vika, N-120 Oslo","Munkedamsveien 35, 6 fl, N-0250, 1653",Oslo,Norway,,51-506-2438
Anastazia Beverly  Hills,Anastazia Beverly  Hills,,,,,,01-615-1064
Goplae San Francisco,Goplae San Francisco,,,,,,
Manduka,Mandukacom,,,,,,61-295-5364
Strawberry Hill Povitica Co,Strawberry Hill Povitica Co.,,,,,,18-904-7269
Vistaprint USD,Vistaprint USD,,,,,,
DSCI LLC,"DSCI, LLC dba TPx Communications","515 S. Flower Street, 45th Floor, los Angeles, CA 90071","515 S. Flower Street, 45th Floor",Los Angeles,CA,90071,08-063-9876
City of Bozeman MT,"The City of Bozeman, Montana","121 N. Rojuse Ave, Bozeman, MT 59715",121 N. Rojuse Ave,Bozeman,MT,59715,08-370-5293
EBSCO Sign Group Inc,"EBSCO Sign Group, LLC","5724 Highway 280 East, Birmingham, AL  35242",5724 Highway 280 East,Birmingham,AL,35242,00-339-6256
Fruitful Yield Inc,"The Fruitful Yield, Inc.","244 Knollwood Drive, Bloomingdale, IL 60108",244 Knollwood Drive,Bloomingdale,IL,60108,60-745-8101
Appian Way Energy Partnerrs LLC,"Appian Way Energy Partners, LLC","25 Mount Auburn St., Suite 400, Cambridge, MA 02138","25 Mount Auburn St., Suite 400",Cambridge,MA,02138,09-032-4429
Tommie Copper Inc,Tommie Copper Inc.,"74 South Moger Avenue, Mount Kisco, NY 10549",74 South Moger Avenue,Mount Kisco,NY,10549,03-115-4181
Ameriprise Financial Inc,"Ameriprise Financial, Inc.","707 2nd Ave S, Minneapolis, MN 55474",707 2nd Ave S,Minneapolis,MN,55474,00-696-1957
Malcom & Baker CPAs & Associates Inc,"Malcom &Baker, CPAs & Associates, Inc.",,,,,,00-598-5365
International Mission Board,"International Mission Board ""IMB""",,,,,,06-235-1499
Village of Wellington,Village of Wellington,"12300 Forest Hill Blvd, Wellington, FL 33414",12300 Forest Hill Blvd,Wellington,FL,33414,02-602-8332
SJ Gorowitz Accounting & Tax Services PC,"S.J. Gorowitz Accounting & Tax Services, P.C.",,,,,,86-885-8119
iRemedy Healthcare Companies Inc,The Iremedy Healthcare Companies Inc.,"2862 SE Monroe St, Stuart, FL 34994",2862 SE Monroe St,Stuart,FL,34994,19-629-7761
MSK Group PC,"MSK Group, P.C. ",,,,,,18-811-2390
The Information and Referral Federation of Los Angeles County Inc,The Information and Referral Federation of Los Angeles County dba,"211 LA County, 526 West Las Tunas Drive, San Gabriel, CA 92776","211 LA County, 526 West Las Tunas Drive",San Grabriel,CA,92776,02-318-7396
Macy'c Inc,Macy's,,,,,,00-698-7135
Rochester Institute of Technology,Rochester Institute of Technology,"13 Lomb Memorial Drive, Rochester, NY 14623",13 Lomb Memorial Drive,Rochester,NY,14623,00-222-3642
Coty Inc,"Coty, Inc. ",,,,,,95-866-2223
SGS North America Inc,"SGS North America, Inc.","201 Rout 17 North, Rutherford, NJ 070707",201 Rout 17 North,Rutherford,NJ,70707,05-360-0573
PlainsCapital Bank,PlainsCapital Bank,"2911 Turtle Creek Blvd, Dallas, TX 75219",2911 Turtle Creek Blvd,Dallas,TX,75219,00-793-4151
Northwest University,Northwest University,"5520 108th Ave., N.E., Kirkland, WA 98033",5520 108th Ave. N.E.,Kirkland,WA,98033,07-573-8443
Toyo Tire Holdings of Americas Inc,Toyo Tire Holdings of Americas Inc.,,,,,,15-674-9520
Dollar Shave Club Inc,Dollar Shave Club Inc.,"13335 Maxella Avenue, Marina del Rey, CA 90292",13335 Maxella Avenue,Marina del Rey,CA,90292,00-416-4494
Humana Inc,Humana Inc,"500 W Main Street, Louisville, KY 40202",500 W Main Street,Louisville,KY,40202,04-994-4143
Thomas Chandler Thomas & Hinshaw LLP,Thomas Chandler Thomas & Hinshaw LLP,,,,,,02-733-9764
"DiCicco, Gulman & Co LLP","DiCicco, Gulman & Company, LLP","150 Presidential Way, Suite 510, Woburn, MA 01801","150 Presidential Way, Suite 510",Woburn,MA,01801,94-208-3031
L'Occitane Inc,"L'Occitane, Inc., d/b/a L'Occitane en Provence (L'Occitane)","1430 Broadway, NY, NY 10018",1430 Broadway,New York,NY,10018,87-826-8200
Dakine Inc,Dakine Inc,,,,,,07-914-3112
Makeup Geek LLC,Makeup Geek,,,,,,96-270-1384
National Stores Inc,National Stores DBA Fallas,,,,,,02-720-5932
Sporty's Catalogs,Sporty's Catalogs,,,,,,
Titan Distributors,Titan Distributors,,,,,,06-194-2418
www.artnaturals.com,www.artnaturals.com,,,,,,
Manchester Capital Management LLC,Manchester Capital Management LLC,,,,,,87-265-1872
GreatBanc Trust Co,GreatBanc Trust Company,"801 Warrenville Road, Suite 500, Lisle, IL 60532","801 Warrenville Road, Suite 500",Lisle,IL,60532,80-846-4346
My Heritage Ltd,My Heritage Ltd,"3 Ariel Sharon Street, Or Yehuda, Israel 60250",3 Ariel Sharon Street,Or Yehuda,Israel,60250,
Med Associates Inc,"Med Associates, Inc.","13 British American Blvd, Latham, NY 12110",13 British American Blvd,Latham,NY,12110,36-226-3279
Educational Employees Supplementary Retirement System of Fairfax County,The Educational Employees Supplementary Retirement System of Fairfax County,"8001 Forbes Place, Suite 300, Springfield, VA 22151","8001 Forbes Place, Suite 300",Springfield,VA,22151,
Ithica College,Ithica College,"316 Peggy Ryan Williams Center, Ithaca, NY 14850",316 Peggy Ryan Williams Center,Ithaca,NY,14850,
HealthEquity Inc,"HealthEquity, Inc.",,,,,,79-350-6390
OFD Foods LLC,"OFD Foods, LLC",,,,,,00-941-6934
Guaranteed Rate Inc,"Guaranteed Rate, Inc.","3940 N. Ravenswood, Chicago, IL 60613",3940 N. Ravenswood,Chicago,IL,60613,83-966-6919
City of Goodyear AZ,The City of Goodyear Arizona,"190 N. Litchfield road, Goodyear, AZ 85338",190 N. Litchfield road,Goodyear,AZ,85338,
shopPOPdisplays Inc,"ShopPOPdisplays, Inc.",,,,,,08-126-6214
Marion County Bank,"Marion County Bank, 800 Main Street, Pella, IA 50219","800 Main Street, Pella, IA 50219",800 Main Street,Pella,IA,50219,08-794-1183
Corporation Service Co,Corporation Service Co.,"251 Little Falls Drive, Wilmington, DE 19808",251 Little Falls Drive,Wilmington,DE,19808,80-847-5805
Weichert Co,Weichert Co.,"Morris Plains, NJ",,Morris Plains,NJ,,06-497-9016
Highgate Hotel LP,Highgate Hotel L.P.,"545 E. John Carpenter Freeway, Suite 1400, Irving, TX 75062","545 E. John Carpenter Freeway, Suite 1400",Irving,TX,75062,08-005-1974
International Management Advisors Ltd,"International Management Advisors, Ltd","1360 East 9th Street, Suite 860, Cleveland, OH 44114","1360 East 9th Street, Suite 860",Cleveland,OH,44114,07-112-7153
Total Phase Inc,"Total Phase, Inc.","2350 Mission College Blvd, Suite 1100, Santa Clara, CA 95054","2350 Mission College Blvd, Suite 1100",Santa Clara,CA,95054,18-880-5365
Elmcroft Senior Living Inc,"Elmcroft Senior Living, Inc.","2807 Allen Street, #834, Dallas, TX 75204","2807 Allen Street, #834",Dallas,TX,75204,09-974-7682
Creative Bus Sales Inc,"Creative Bus Sales, Inc.","14740 Ramona Ave., Chino, CA 91710",14740 Ramona Ave.,Chino,CA,91710,03-874-3944
Securus Technologies Inc,Securus Technologies Inc.,,,,,,19-285-8954
Weil Akman Baylin & Coleman PA,"Weil, Akman, Baylin & Coleman, P.A.","201 W. Padonia Road, Suite 600, Timonium, MD 21093","201 W. Padonia Road, Suite 600",Timonium,MD,21093,
Systeme Software Inc,"Systeme Software, Inc.","177 Sandy Hill Road, Bovertown, PA 19512",177 Sandy Hill Road,Bovertown,PA,19512,
Aimbridge Hospitality Holdings LLC,"Aimbridge Hospitality Holdings, LLC","5851 Legacy Circle Drive, Suite 400, Plano, TX 75024","5851 Legacy Circle Drive, Suite 400",Plano,TX,75024,13-047-8618
Lutz & Carr CPA LLC,"Lutz & Carr, CPAs LLP",,,,,,07-773-4937
HRB Digital,HRB Digital,"1 H&R Block Way, Kansas City, MO 64105",1 H&R Block Way,Kansas City,MO,64105,02-498-4165
Bath Housing Authority,Bath Housing Authority,"80 Congress Avenue, Bath, ME 04530",80 Congress Avenue,Bath,ME,04530,09-772-9156
PLAE INC,PLAE INC,"220 Montgomery St., Suite 860, San Francisco, CA 94104","220 Montgomery St., Suite 860",San Francisco,CA,94104,04-741-2615
Walgreens Co,Walgreen Company,,,,,,00-896-5063
Stein Eriksen Lodge Hotel,Stein Eriksen Lodge Hotel,,,,,,06-731-6471
Temecula Motorsports Inc,"Temecula Motorsports, Inc.","26860 Jefferson Ave., Murrieta, CA 92562",26860 Jefferson Ave.,Murrieta,CA,92562,62-049-9467
Rail Europe SAS,Rail Europe SAS,"Les Collines de l'Arche, Immeuble Concorde B, 76 route de la Demi-Lune, Puteaux, France 92800","Les Collines de l'Arche, Immeuble Concorde B, 76 route de la Demi-Lune",Puteaux,France,,49-272-1782
Chattanooga Clothing Co,Chattanooga Clothing Company,"1500 Chestnut St., Suite D, Chattanooga, TN 37408","1500 Chestnut St., Suite D",Chattanooga,TN,37408,
St Mary's Health Inc,"St. Mary's Health, Inc., dba St. Vincent Evansville","3700 Washington Ave., Evansville, IN 47714",3700 Washington Ave.,Evansville,IN,47714,05-681-9501
Uno Alla Volta LLC Inc,"Uno Alla Volta, LLC","242 Branford Road, North Branford, CT 06471",242 Branford Road,North Branford,CT,06471,12-801-5448
PrintingCenterUSA.com,PrintingCenterUSA.com,"117 9th Street, N., Great Falls, MT 59401","117 9th Street, N.",Great Falls,MT,59401,84-117-7277
SEIU Local 32BJ,SEIULocal 32BJ,,,,,,07-712-7767
Member Business Services LLC,"Member Business Services, LLC dba Commercial Alliance","1607 E. Big Beaver, Suite 201, Troy, MI 48084","1607 E. Big Beaver, Suite 201",Troy,MI,48084,16-766-3579
Pendleton Square Trust Company,Pendleton Square Trust Company,"3803 Bedford Ave., Suite 105, Nashville, TN 37215","3803 Bedford Ave., Suite 105",Nashville,TN,37215,08-600-4922
Jarrett & Luitjens PLC,"Jarrett & Luitjens, PLC","1795 Williston Road, Suite 125, South Burlington, VT 05403","1795 Williston Road, Suite 125",South Burlington,VT,05403,92-833-7182
Luxury Retreats,Luxury Retreats,"5530 St. Patrick Street, Suite 2210, Montreal, Quebec, Canada H4E1A8","5530 St. Patrick Street, Suite 2210",Montreal,Canada,,20-370-2451
National Railroad Passenger Corp,National Railroad Passenger Corporation (Amtrak),"1 Massachusetts Avenue, N.W., Suitge 635, Washington, DC 20001","1 Massachusetts Avenue, N.W., Suite 635",Washington,DC,20001,11-738-8847
Employee Benefits Corp,Employee Benefits Corporation o/b/o InterVarsity Christian Fellowship/USA,"1350 Deming Way, Suite 300, Middleton, WI 53562","1350 Deming Way, Suite 300",Middleton,WI,53562,06-348-8522
Pinnacle Advisory Group Inc,Pinnacle Advisory Group Inc.,"6345 Woodside Court, Suite 100, Columbia, MD 21046","6345 Woodside Court, Suite 100",Columbia,MD,21046,86-789-7456
Stephen J Flood CPA PLLC,"Stephen J Flood CPA, PLLC","950 New Loudon Road #107, Latham, NY 12110",950 New Loudon Road #107,Latham,NY,12110,12-971-5678
Brinker International Inc,Brinker International,,,,,,83-167-8607
Intuit Inc,Intuit Inc,"2535 Garcia Avenue, Mountain View, CA 94043",2535 Garcia Avenue,Mountain View,CA,94043,11-329-0969
Rainbow Resource Center,Rainbow Resource Center,,,,,,78-797-0458
Pizzahut.com,Pizzahut.com,,,,,,09-770-4928
LILLEbaby LLC,Ladder 15,,,,,,02-451-1210
The Beauty Place Inc,The Beauty Place Inc,,,,,,07-973-3303
Cable Hill Partners LLC ,Cable Hill Partners LLC,"806 SW Broadway, Suite 1000, Portland, OR 97205","806 SW Broadway, Suite 1000",Portland,OR,97205,07-939-5251
Task Rabbit Inc,Task Rabbit Inc.,"425 Second Street, 5th Floor, San Francisco, CA 94107","425 Second Street, 5th Floor",San Francisco,CA,94107,96-800-1078
SP Industries Inc,SP Industries Inc,"935 Mearns Road, Warminster, PA 18974",935 Mearns Road,Warminster,PA,18974,
Global University,Global University,"1211 S. Glenstone Ave., Springfield, MO 65804",1211 S. Glenstone Ave.,Springfield,MO,65804,17-998-2905
Sears Holding Corp,Sears Holdings Management Corporation,"3333 Beverly Road, Hoffman Estates, IL 60179",3333 Beverly Road,Hoffman Estates,IL,60179,78-734-9815
Integrated Practice Solutions Inc,"Integrated Practice Solutions, Inc.","9265 Sky Park CT STE 200, San Diego, CA 92123",9265 Sky Park CT STE 200,San Diego,CA,92123,94-964-6108
DigiPen Institute of Technology,DigiPen Institute of Technology,"9931 Willows Road NE, Redmond, WA 98052",9931 Willows Road NE,Redmond,WA,98052,03-358-9687
Rx Valet LLC,"Rx Valet, LLC","1580 Atkinson Road, Lawrenceville, Geoargia 30043",1580 Atkinson Road,Lawrenceville,GA,30043,08-048-2480
Ramy Brook LLC,Ramy Brook LLC,"231 W. 39th Street, Suite 720, NY, NY 10018","231 W. 39th Street, Suite 720",New York,NY,10018,03-089-3153
Bennet Thrasher LLP,Bennett & Thrasher,,,,,,15-694-4753
SunTrust Bank Inc,"SunTrust Banks, Inc.",,,,,,14-443-7795
National Restaurant Association,The National Restaurant Association,"2055 L Street, NW, Suite 700, Washington, DC 20036","2055 L Street, NW, Suite 700",Washington,DC,20036,07-313-3969
Malley's Chocolates PLC,Malley's Chocolates,,,,,,02-604-7599
McMahan Thomson & Associates,McMahon Thompson & Associates,,,,,,
MedWatch LLC,"MedWatch, LLC","120 International Parkway, Suite 216, Lake Mary, FL 32746","120 International Parkway, Suite 216",Lake Mary,FL,32746,05-086-3605
CPT Group Inc,CPT Group Inc.,"50 Corporate Drive, Irvine, CA 92606",50 Corporate Drive,Irvine,CA,92606,13-960-5786
Rail Europe North America Inc,"Rail Europe North America, Inc.","333 Westchester Ave., 2nd Floor, West Building, Suite W2200, White Plains, NY 10604","333 Westchester Ave., 2nd Floor, West Building, Suite W2200",White Plains,NY,10604,05-435-4936
Cetera Advisors LLC,"Cetera Advisors, LLC","4600 South Syracuse Street, Suite 600, Denver, CO 80237","4600 South Syracuse Street, Suite 600",Denver,CO,80237,15-467-0442
"Carolina Digestive Health Associates, PA","Carolina Digestive Health Associates, PA","11301 Carmel Commons Boulevard, Suite 302, Charlotte, NC 28226","11301 Carmel Commons Boulevard, Suite 302",Charlotte,NC,28226,60-193-3187
Intuit Inc,"Intuit, Inc.","2535 Garcia Avenue, Mountain View, CA 94043",2535 Garcia Avenue,Mountain View,CA,94043,11-329-0969
Capital Digestive Care LLC,"Capital Digestive Care (""CDC"")","Silver Spring, Maryland",,Silver Spring,MD,,02-563-5747
CNU of Maine LLC,"CNU of Maine, LLC and its affiliates, collectively d/b/a CashNetUSA","175 W. Jackson Blvd., Suite 1000, Chicago, IL  60604","175 W. Jackson Blvd., Suite 1000",Chicago,IL,60604,84-492-0293
Southwest Airlines Co,Southwest Airlines Co.,"2702 Love Field Drive, Dallas, Texas 75235",2702 Love Field Drive,Dallas,TX,75235,05-532-9262
WW Grainger Inc,"W.W. Grainger, Inc.","100 Grainger Parkway, Lake Forest, IL 60045",100 Grainger Parkway,Lake Forest,IL,60045,00-510-3494
American Esoteric Laboratories,American Esoteric Laboratories,"1701 Century Center Cove, Memphis, TN 38134",1701 Century Center Cove,Memphis,TN,38134,15-251-8713
Strategic Analysis Inc,"Strategic Analysis, Inc.","4075 Wilson Blvd, Suite 200, Arlington, VA 22203","4075 Wilson Blvd, Suite 200",Arlington,VA,22203,15-387-8996
Tech Needs North Inc,"Tech Needs North, Inc.",,,,,,
Eastern Bank,Eastern Bank,"265 Franklin Street, Boston, MA 02110",265 Franklin Street,Boston,MA,02110,00-695-5009
Bank of America,Bank of America,,,,,,05-516-9452
Bank of America,Bank of America (Dunn & Bradstreet breach),,,,,,05-516-9452
Temp-Tations Home LLC,"Temp-Tations Home LLC d/b/a ""Tara at Home""","180 Gordon Drive, Suite 103, Exton, PA 19341","180 Gordon Drive, Suite 103",Exton,PA,19341,06-051-0813
World Travel Holdings Inc,"World Travel Holdings, Inc.",,,,,,79-824-7453
City Winery,City Winery Boston-Ecommerce,,,,,,04-130-2120
Construct Playthings.com,Construct Playthings.com,,,,,,19-940-3411
Directvapor.com,Directvapor.com,,,,,,03-650-0804
Spark Pay Online Store,Spark Pay Online,,,,,,
Sporty's Catalogs,Sporty's Catalogs,,,,,,
Terren Corp,Terren Corp,,,,,,84-949-3585
USToy.com,USToy.com,,,,,,
Vaporfi.com-New,Vaporfi.com-New,,,,,,08-110-8252
Delta Air Lines Inc,"Delta Air Lines, Inc.","1030 Delta Boulevard, Atlanta, GA 30354",1030 Delta Boulevard,Atlanta,GA,30354,11-235-9310
Best Buy Co Inc,"Best Buy Co., Inc.",,,,,,02-305-8159
Inogen Inc,"Inogen, Inc.","326 Bollay Drive, Goleta, CA 93117",326 Bollay Drive,Goleta,CA,93117,13-672-9634
PF@-Com Inc,"PF@-Com, Inc.","8 Campus Drive, 2nd Floor, Parsippany, NJ 07054","8 Campus Drive, 2nd Floor",Parsippany,NJ,07054,
Mise En Place Restaurant Services Inc,"Mise En Place Restaurant Services, Inc","1639 11th Street, Suite 107, Santa Monica, CA 90404","1639 11th Street, Suite 107",Santa Monica,CA,90404,07-051-2834
BTCE Inc,"BTCE, Inc. d/b/a HomeBrewIt.com",,,,,,95-734-5101
Delta Air Lines Inc,Delta Air Lines,,,,,,11-235-9310
IIS Financial Services,IIS Financial Services,"707 Sable Oaks Drive, Suite 203, South Portland, Maine 04106","707 Sable Oaks Drive, Suite 203",South Portland,ME,04106,06-803-1075
Bank of America,Bank of America (Orbitz data breach 3/2018),,,,,,05-516-9452
Blue Beacon International,Blue Beacon International,"500 Graves Blvd., Salina, Kansas 67401",500 Graves Blvd.,Salina,KS,67401,07-090-0105
Bearing Distributors Inc,"Bearing Distributors, Inc.","8000 Hub Parkway, Cleveland, OH 44125",8000 Hub Parkway,Cleveland,OH,44125,00-397-8277
Interval International Inc,Interval International Inc,"6262 Sunset Drive, Miami, FL 33143",6262 Sunset Drive,Miami,FL,33143,08-359-9936
John Y Trent & Associates LLC,John Y. Trent & Associates LLC,"814 Fulton Street, Farmingdale, NY 11735",814 Fulton Street,Farmingdale,NY,11735,94-596-3940
US GreenFiber LLC,US GreenFiber LLC,"5500 77 Center Drive, Suite 100, Charlotte, NC  28217","5500 77 Center Drive, Suite 100",Charlotte,NC,28217,80-215-8365
The Lincoln National Life Insurance Company,The Lincoln National Life Insurance Company,"1300 S. Clinton Street, Fort Wayne, IN 46802",1300 S. Clinton Street,Fort Wayne,IN,46802,00-699-6763
Thermo Fisher Scientific Inc,Thermo Fisher Scientific Inc.,"168 Third Avenue, Waltham, MA 02451",168 Third Avenue,Waltham,MA,02451,00-140-8673
The Alabama Ballet,The Alabama Ballet,"2726 1st Avenue South, Birmingham, AL 35233",2726 1st Avenue South,Birmingham,AL,35233,12-091-2852
Milligan Chiropractic Group Inc,"Milligan Chiropractic Group, Inc., d/b/a Del Mar Chiropractic Sports Group",,,,,,10-729-0096
Under Armour Inc,"Under Armour, Inc.",,,,,,11-157-8985
Applied Plan Administrators,"Applied Plan Administrators. A dovosopm pf the Retirement Advantage, Inc.","101 East Grand Ave., Suite 16, Port Washington, WI 53074","101 East Grand Ave., Suite 16",Port Washington,WI,53074,01-346-7522
Fred Usinger Inc,"Fred Usinger, Inc. ",,,,,,00-607-7127
JC Penney Corp Inc,"JC Penney Corp., Inc.",,,,,,18-759-7646
Boys & Girls Club,Boys & Girls Club,"701 N. Raleigh Blvd, Raleigh, NC 27610",701 N. Raleigh Blvd,Raleigh,NC,27610,07-523-6133
Bigfoot Gun Belts,"Bigfoot Gun Belts, ",,,,,,11-734-6477
"Friedman, Leavitt and Associates Inc","Friedman, Leavitt & Associates, Inc.",,,,,,02-115-0511
Manduka,Manduka,"2121 Park Place, Suite 250, El Segundo, CA 90245","2121 Park Place, Suite 250",El Segundo,CA,90245,61-295-5364
Pro World Inc,"Pro World, Inc.","961 Bethel Ave., Pennsauken, NJ 08110",961 Bethel Ave.,Pennsauken,NJ,08110,
MS Thornton CPA,"MS Thornton, CPA","PO Box 1059, Cardiff, CA 92007",PO Box 1059,Cardiff,CA,92007,
Funding Circle USA Inc,Funding Circle ,,,,,,00-562-2699
Teal Becker & Chiaramonte CPAs PC,"Teal Becker & Chiaramonte, CPAs, PC","7 Washington Square, Albany, NY 12205",7 Washington Square,Albany,NY,12205,07-994-3924
Clinical Pathology Laboratories Southeast Inc,"Clinical Pathology Laboratories Southeast, Inc. (""CPLSE"")",,,,,,07-851-4642
Orbitz LLC,Orbitz,"500 W. Madison Street, 7th Floor, Chicago, IL 60661","500 W. Madison Street, 7th Floor",Chicago,IL,60661,80-701-6568
OnePlus Technology Co Ltd,"OnePlus Technology (Shenzhen) Co., Ltd.","18/F, Block C, Tairan Building, No. 8 Tairan Rd., Futian District, Shenzhen, Guangdong, China 518000 (China)","18/F, Block C, Tairan Building, No. 8 Tairan Rd., Futian District, Shenzhen",Guangdong,China,51800,42-134-0094
Bronson Nutritionals LLC,Bronson Nutritionals LLC,,,,,,13-039-3494
Clarfeld Financial Advisors,Clarfeld Financial Advisors,"520 White Plains Road, Tarrytown, NY 10591",520 White Plains Road,Tarrytown,NY,10591,07-911-9698
Island Outdoor LLC,"Island Outdoor, LLC","47 Mall Drive, Suite 4, Commack, NY 11725","47 Mall Drive, Suite 4",Commack,NY,11725,04-068-2105
ABM Industries Inc,ABM Industries Incorporated,"One Liberty Plaza, 7th Floor, New York, NY 10006","One Liberty Plaza, 7th Floor",New York,NY,10006,00-691-1622
Buffalo Jackson Trading Co. LLC,"Buffalo Jackson Trading Co., LLC",,,,,,06-352-3156
Chipolte FOS Only,Chipolte FOS Only,,,,,,
CiCi's Pizza,CiCi's Pizza,,,,,,01-923-8489
North 40 Outfitters,North 40 Outfitters,,,,,,07-505-0671
Tennis Express,Tennis Express,,,,,,82-778-2756
CNU Online Holdings LLC,"CNU Online Holdings LLC, d/b/a NetCredit","175 W. Jackson Blvd., Suite 1000, Chicago, IL 60604","175 W. Jackson Blvd., Suite 1000",Chicago,IL,60604,80-032-8283
Rotary International,Rotary International,"One Rotary Center, 1560 Sherman Avenue, Evanston, IL 60201","One Rotary Center, 1560 Sherman Avenue",Evanston,IL,60201,07-440-1712
Quanta Technology LLC,"Quanta Technology, LLC","4020 Westchase Blvd, Suite 300, Raleigh, NC 27607","4020 Westchase Blvd, Suite 300",Raleigh,NC,27607,80-960-3132
Nova Southeastern University,Nova Southeastern University,"3301 College Ave., Fort Lauderdale, FL 33314",3301 College Ave.,Fort Lauderdale,FL,33314,00-297-1240
Chopra Enterprises LLC,"Chopra Enterprises, LLC","2013 Costa Del Mar Road, Carlsbad, CA 92009",2013 Costa Del Mar Road,Carlsbad,CA,92009,93-794-4205
California State University,California  State University,"5241 N. Maple Ave., Fresno, CA 93740",5241 N. Maple Ave.,Fresno,CA,93740,79-375-1087
Interstate Plastics Inc,"Interstate Plastics, Inc.","330 Commerce Circle, Sacramento, CA 95815",330 Commerce Circle,Sacramento,CA,95815,15-689-7878
Citizens Financial Group Inc,Citizens Financial Group,"100 Sockanosset Crossroad, Cranston, RI 02920 (email)",100 Sockanosset Crossroad,Cranston,RI,02920,13-175-8724
Intuit Inc,"Intuit, Inc.","2535 Garcia Avenue, Mountain View, CA 94043  ",2535 Garcia Avenue,Mountain View,CA,94043,11-329-0969
Fairchild Maddox & Leonidas Ltd,"Fairchild Maddox & Leonidas, Ltd",,,,,,61-341-8404
Preferred Hotel & Resorts,Preferred Hotels & Resorts,,,,,,79-093-9610
ICF International Inc,ICF,"9300 Lee Highway, Fairax, VA 22031",9300 Lee Highway,Fairax,VA,22031,13-900-1544
Centris FCU,Centris FCU ,,,,,,06-867-3441
Beachbody LLC,"Beachbody, LLC",,,,,,05-373-9905
Ventiv Technology Inc,"Ventiv Technology, Inc.","3350 Riverwood Parkway, 20th Floor, Atlanta, GA 30339","3350 Riverwood Parkway, 20th Floor",Atlanta,GA,30339,94-715-6824
ASI Constructors Inc,"ASI Constructors, Inc.","280 East 20th Avenue, Denver, CO 80205",280 East 20th Avenue,Denver,CO,80205,60-183-8209
FastHealth Corp,FastHealth Corporation,"1001 23rd Ave., Suite C, Tuscaloosa, AL 35401","1001 23rd Ave., Suite C",Tuscaloosa,AL,35401,12-791-8139
Makeup Geek LLC,"Makeup Geek, LLC",,,,,,96-270-1384
Boulder Running Co.,Boulder Running Co.,,,,,,00-809-6849
Direct Sports Inc,"Direct Sports, Inc.",,,,,,00-501-1259
Makeup Certifications,Makeup Certifications,,,,,,
Market@work 2067379149,Market@work 2067379149,,,,,,
The reThink Group Inc,The Re-Think Group,,,,,,00-730-7059
Wet N Wild Beauty,Wet N Wild Beauty,,,,,,11-331-3969
California College of the Arts,California College of the Arts,"1111 Eighth Street, San Francisco, CA 94107",1111 Eighth Street,San Francisco,CA,94107,07-395-1170
Bed Bath & Beyond Inc,"Bed Bath & Beyond, Inc.","650 Liberty Avenue, Union, NJ 07083",650 Liberty Avenue,Union,NJ,07083,79-731-1875
Cruzstar LLC,Cruzstar LLC,"453 Lincoln Street, Suite 102, Carlisle, PA 17013","453 Lincoln Street, Suite 102",Carlisle,PA,17013,79-303-8709
Active Network LLC,Active Network,"717 North Harwood Street, Suite 2500, Dallas, TX 75201","717 North Harwood Street, Suite 2500",Dallas,TX,75201,05-617-3364
Santa Cruz Biotechnology Inc,"Santa Cruz Biotechnology, Inc.","10410 Finnell Street, Dallas, TX 75220",10410 Finnell Street,Dallas,TX,75220,78-265-5427
LendKey Technologies Inc,"LendKey Technologies, Inc.","104 W 27th Street, Floor 4, NY, NY 10001","104 W 27th Street, Floor 4",New York,NY,10001,00-949-6859
Engle Martin & Associates,Engle Martin & Associates,,,,,,00-394-3342
Norwich Commercial Group Inc,"Norwich Commercial Group, Inc., d/b/a Norcom Mortgage (""Norcom"")","38 Security Drive, Avon, CT 06001",38 Security Drive,Avon,CT,06001,19-906-3629
OneMain Financial Group LLC,OneMain Financial,,,,,,06-467-2519
Kinetics Systems Inc,"Kinetics Systems, Inc.","3083 Independence Drive, Livermore, CA 94511",3083 Independence Drive,Livermore,CA,94511,04-591-1385
Corporate Employment Resources Inc,"Corporate Employment Resources, Inc.","27777 Franklin Road, Suite 600, Southfield, MI 48034","27777 Franklin Road, Suite 600",Southfield,MI,48034,03-067-3102
Ameriprise Financial Inc,"Ameriprise Financial, Inc.","707 2nd Ave. S., Minneapolis, MN 55474",707 2nd Ave. S.,Minneapolis,MN,55474,00-696-1957
TrueNet Communications Inc,"TrueNet Communications, Inc.","7666 Blanding Blvd, Jacksonville, FL 32244",7666 Blanding Blvd,Jacksonville,FL,32244,07-832-1426
Investment Professionals Inc,"Investment Professionals, Inc.","16414 San Pedro Ave., Suite 300, San Antonio TX 78232","16414 San Pedro Ave., Suite 300",San Antonio,TX,78232,85-845-0760
County of Waldo,County of Waldo Commissioner's Office,"39B Spring Street, Belfast, Maine 04915",39B Spring Street,Belfast,ME,04915,
Blink Health Inc,"Blink Health, LLC","375 W. Broadway, 2nd Floor, New York, NY 10012","375 W. Broadway, 2nd Floor",New York,NY,10012,07-974-8538
1st Mariner Bank,1st Mariner Bank,"3301 Boston Street, Baltimore, MD 21224",3301 Boston Street,Baltimore,MD,21224,02-009-1809
PAR Electrical Contractors Inc,"PAR Electrical Contractors, Inc.","4770 N. Belleview Ave., Ste 300; Kansas City, MO 64116","4770 N. Belleview Ave., Ste 300",Kansas City,MO,64116,00-785-7451
TIO Networks USA Inc,"TIO Networks USA, Inc. on behelf of Bank of America, PageOnce, Southern Management Corporation",,,,,,96-391-8441
Advanced Graphic Products Inc,"Advanced Graphic Products, Inc. d/b/a Advanced-Online","750 Gateway Blvd, Coppell, TX 75019",750 Gateway Blvd,Coppell,TX,75019,15-053-7215
Make-up Designory,Make-up Designory,"25311 Avenue Stanford, Valencia, CA 91355",25311 Avenue Stanford,Valencia,CA,91355,06-298-1589
The Valerie Fund,The Valerie Fund,"2101 Millburn Avenue, Maplewood, NJ 07040",2101 Millburn Avenue,Maplewood,NJ,07040,62-069-4505
TIO Networks USA Inc,"Tio Networks, (with Bank of America, PageOnce & Southern Management Corporation)","2211 N 1st St, San Jose, CA 95131",2211 N 1st St,San Jose,CA,95131,96-391-8441
Eastern Salt Company Inc,"Eastern Salt Company, Inc.","134 Middle Street, Suite 210; Lowell, MA 01852","134 Middle Street, Suite 210",Lowell,MA,01852,87-317-0815
Belmont Savings Bank,Belmont Savings Bank,"2 Leonard Street, Belmont, MA 02478",2 Leonard Street,Belmont,MA,02478,07-830-4295
Saginaw Valley State University,Saginaw Valley State University,,,,,,08-093-0946
Rogin Nassau LLC,Rogin Nassau LLC,,,,,,07-840-2284
Pentair Aquatic Eco Systems Inc,"Pentair Aquatic Eco Systems, Inc.","2395 Apopka Blvd, Apopka, FL 32703",2395 Apopka Blvd,Apopka,FL,32703,03-802-8759
Southern National Bancorp of Virginia Inc,"Southern National Bancorp of Virginia, Inc., d/b/a Sonabank","10900 Nuckols Road, Suite 325, Glen Allen, VA 23060","10900 Nuckols Road, Suite 325",Glen Allen,VA,23060,79-452-4699
Goldleaf Partners Services Inc,"Goldleaf Partners Services, Inc.","8009 34th Avenue S. Suite 320, Bloomington, MN 55425",8009 34th Avenue S. Suite 320,Bloomington,MN,55425,06-983-9567
Gourmesso,Gourmesso ,,,,,,04-337-0380
Rosewood Hotel Group,Rosewood Hotel Group,,,,,,08-039-7779
Westminster Ingleside King Farm Presbyterian Retirement Communities Inc,"Westminster Ingleside King Farm Presbyterian Retirement Communities, Inc.","Rockville, MD",,Rockville,MD,,07-982-2048
PharMerica Corp,PharMerica Corporation,,,,,,80-040-6709
Mindlance Inc,"Mindlance, Inc.","1095 Morris Ave., Suite 101A, Union, NJ 07083","1095 Morris Ave., Suite 101A",Union,NJ,07083,17-241-8605
Employer Leasing Co,Employer Leasing Company,"12375 Kerran Street, Poway, CA 92064",12375 Kerran Street,Poway,CA,92064,06-093-5512
Pension Fund of the Christian Church,Pension  Fund of the Christian Church,"1099 N. Meridian St., Ste 700, Indianapolis, IN 46204","1099 N. Meridian St., Ste 700",Indianapolis,IN,46204,00-605-1783
Monticellow Central School District,Monticellow Central School District,"237 Forestburgh Road, Monticellow, NY 12701",237 Forestburgh Road,Monticellow,NY,12701,
PetSmart Inc,"PetSmart, Inc.","19601 N. 27th Avenue, Phoenix, AZ 85027",19601 N. 27th Avenue,Phoenix,AZ,85027,17-380-8684
Broward College,Broward College,"111 East Las Olas Boulevard, Fort Lauderdale, FL 33301",111 East Las Olas Boulevard,Fort Lauderdale,FL,33301,07-602-3225
Cetera Advisors LLC,"Cetera Advisors, LLC","4600 South Syracuse Street, Suite 600, Denver, CO 80237",4600 South Syracuse Street,,CO,80237,15-467-0442
Northeast Arc Inc,Northeast Arc,"1 Southside Road, Danvers, MA 01923",1 Southside Road,Danvers,MA,01923,07-658-0760
Mid-Atlantic Carpenters Training Center,Mid-Atlantic Carpenters' Training Center,"8510 Pennsylvania Ave, Upper Marlboro, MD 20772",8510 Pennsylvania Ave,Upper Marlboro,MD,20772,07-484-2923
James Rinaldi CPA,"James Rinaldi, CPA",,,,,,00-551-3779
Sunshine Lady Humanitarian Grants Program Inc,"Sunshine Lady Humanitarian Grants Program Inc., dba Letters Foundation","292 Newbury Street, Suite 503, Boston, MA 02115","292 Newbury Street, Suite 503",Boston,MA,02115,08-067-5348
TIO Networks USA Inc,"Tio Networks, Return Mail Processing","P.O.Box 51484, Livonia, MI 48151-5484",P.O.Box 51484,Livonia,MI,48151-5484,96-391-8441
Retina-X Studios LLC,"Retina-X Studios, LLC","731 Duval Station Road, Suite 107203, Jacksonville, FL 32218","731 Duval Station Road, Suite 107203",Jacksonville,FL,32218,00-563-3600
Dun & Bradstreet Corp,"Dun & Bradstreet, Inc.","103 JFK Parkway, Short Hills, NJ 07078",103 JFK Parkway,Short Hills,NJ,07078,88-411-4609
STP Nuclear Operating Co,STP Nuclear Operating Company,"PO Box ?, Wadsworth, TX 77483",PO Box ?,Wadsworth,TX,77483,01-460-6839
Connecticut Players Foundation Inc,"Connecticut Players Foundation, Inc., d/b/a Long Wharf Theatre","222 Sargent Drive, New Haven, CT 06511",222 Sargent Drive,New Haven,CT,06511,01-013-5598
HK Parts,HK Parts,,,,,,68-848-9290
Eastwood Co,The Eastwood Company,,,,,,08-507-3856
Houghton Mifflin Harcourt Publishing Co,Houghton Mifflin Harcourt Publishing Company,"125 High Street, Boston, MA 02110",125 High Street,Boston,MA,02110,08-507-3856
New Penn Financial LLC,New Penn Financial LLC,"4000 Chemical Road, Suite 200, Plymouth Meeting, PA 19462","4000 Chemical Road, Suite 200",Pymouth Meeting,PA,19462,05-527-7893
Arcadis U.S. Inc,Arcadis U.S. Inc,"630 Plaza Drive, Suite 100, Highlands Ranch, CO 80129","630 Plaza Drive, Suite 100",Highlands Ranch,CO,80129,08-150-9838
WEI Mortgage LLC,"WEI Mortgage, LLC","4000 Midlantic Drive, Suite 102, Mount Laurel, NJ 08054","4000 Midlantic Drive, Suite 102",Mount Laurel,NJ,08054,06-597-3897
MFTstamps.com,MFTstamps.com; ,,,,,,
Bennington-Rutland Supervisory Union,Bennington-Rutland Supervisory Union,"6378 Vermont Route 7A, Sunderland, VT 05250",6378 Vermont Route 7A,Sunderland,VT,05250,19-350-5567
"Hayden, Narey & Persich","Hayden, Narey & Persich","2340 S El Camino Real, #15, San Clemente, CA 92672","2340 S El Camino Real, #15",San Clemente,CA,92672,07-498-0293
JAM Paper & Envelope,JAM Paper & Envelope,"185 Legrand Avenue, Northvale, NJ 07647",185 Legrand Avenue,Northvale,NJ,07647,80-241-0691
Uber Technologies Inc,"Uber Technologies, Inc.","1455 Market Street, San Francisco, CA 94103",1455 Market Street,San Francisco,CA,94103,01-389-5459
IH Mississippi Valley Credit Union,"IH Mississippi Valley Credit Union (""IHMVCU"")","2121 47th St., Moline, IL 61265",2121 47th St.,Moline,IL,61265,05-896-6809
Grass Advantage LLC,"Grass Advantage, LLC (d/b/a Amazing Grass)","230 Newport Center Drive, Ste 300, Newport Beach, CA 92260","230 Newport Center Drive, Ste 300",Newport Beach,CA,92260,
Nutrex Hawaii Inc,"Nutrex Hawaii, Inc.",,,,,,
Combat Brands LLC,"Combat Brands, LLC","15850 West 108th Street, Lenexa, KS 66219",15850 West 108th Street,Lenexa,KS,66219,07-851-8162
Lincoln National Life Insurance Co,Lincoln National Life Insurance Company,"1300 S. Clinton Street, Fort Wayne, IN 46802",1300 S. Clinton Street,Fort Wayne,IN,46802,00-699-6763
Pulmonary Specialists of Louisville PSC,"Pulmonary Specialists of Louisville, PSC",,,,,,07-743-7371
Baylor College of Medicine,Baylor College of Medicine,"One Baylor Plaza, Houston, TX 77030",One Baylor Plaza,Houston,TX,77030,05-111-3330
Randolph Savings Bank,Randolph Savings Bank,"10 Cabot PL, Stoughton, MA 02072",10 Cabot PL,Stoughton,MA,02072,01-976-1139
JRK Hotel Group,JRK Hotel Group,"1176 Wilshire Boulevard, Ste. 1500, Los Angeles, CA 90025","1176 Wilshire Boulevard, Ste. 1500",Los Angeles,CA,90025,82-979-3194
#N/A,39DollarGlasses.com,,,,,,03-940-9741
Char-Broil LLC,Char Broil,,,,,,78-785-1166
Classic Firearms,Classic Firearms,,,,,,61-027-8459
Dailysale.com,Dailysale.com,,,,,,
ICSC,ICSC,,,,,,
Minnesotaworkwear.com,Minnesotaworkwear.com,,,,,,
Pure Prescriptions,Pure Prescriptions,,,,,,02-455-8669
Spark Pay Online Store,Spark Pay Online,,,,,,
USA Hoist Company Inc,"USA Hoist Company, Inc., Mid-American Elevator Company, Inc. and Mid-American Elevator Equipment Company, Inc.","820 North Wilcott Ave., Chicago, IL 60622",820 North Wilcott Ave.,Chicago,IL,60622,11-846-2022
GCI Communication Corp,GCI Communications Corp.,"2550 Denali Street, Suite 1000, Anchorage, AK 99503-2751","2550 Denali Street, Suite 1000",Anchorage,AK,99503-2751,62-370-4731
State of Maine Department of Health and Human Services,State of Maine Department of Health and Human Services,"11 State House Station, Augusta, Maine 04333",11 State House Station,Augusta,ME,04333,05-797-9312
City of Holly Springs,City of Holly Springs,"3237 Holly Springs Parkway, Holly Springs, GA 30115",3237 Holly Springs Parkway,Holly Springs,GA,30115,01-886-9669
SallieMae Inc,SallieMae (SmartyPig LLC d/b/a Q2 Labs),"300 Continental Drive, Newark, DE 19713",300 Continental Drive,Newark,DE,19713,
Gallagher NAC,Gallagher NAC,"16476 Wild Horse Creek Road, Chesterfield, MO 63017",16476 Wild Horse Creek Road,Chesterfield,MO,63017,
Little River Healthcare-Central Texas LLC,"Little River Healthcare - Central Texas, LLC d/b/a Little River Waco Ear Nose and Throat",,,,,,08-034-1653
Memory4Less,Memory4Less,"1504 W. Commonwealth Ave., Fullerton, CA 92833",1504 W. Commonwealth Ave.,Fullerton,CA,92833,
North American Tile Co,North American Title Company,"760 Northwest 107th Avenue, Suite 400, Miami, FL 33172","760 Northwest 107th Avenue, Suite 400",Miami,FL,33172,61-340-0720
Tween Brands Inc,"Tween Brands, Inc.","8323 Walton Parkway, New Albany, OH 43054",8323 Walton Parkway,New Albany,OH,43054,96-575-8188
Wilbraham Lawler & Buba PC,"Wilbraham, Lawler & Buba, ",,,,,,80-123-9252
Rain Bird Corp,Rain Bird Corporation,"970 West Sierra Madre Ave., Azusa, CA 91702",970 West Sierra Madre Ave.,Azusa,CA,91702,00-848-9197
Home Box Office Inc,"Home Box Office, Inc.","1100 Avenue of the Americas, New York, NY 10036",1100 Avenue of the Americas,New York,NY,10036,13-824-4731
Interstate Plastics Inc,"Interstate Plastics, Inc.","3299 Ramos Circle, Sacramento, CA 95827",3299 Ramos Circle,Sacramento,CA,95827,
Advisory Research Inc,Advisory Research,"180 North Stentson Avenue, Suite 5500, Chicago, IL 60601","180 North Stentson Avenue, Suite 5500",Chicago,IL,60601,01-027-5089
US Cellular Corp,US Cellular Corp,"8410 W Bryn Mawr, Chicago, IL 60631",8410 W Bryn Mawr,Chicago,IL,60631,11-823-9292
Lighthouse Management Services LLC,"LightHouse Management Services, LLC d/b/a Home Properties","300 Clinton Square, Rochester, NY 14606",300 Clinton Square,Rochester,NY,14606,03-730-1527
Whole Foods Market Services Inc,"Whole Foods Market Services, Inc.","550 Bowie Street, Austin, TX 78703",550 Bowie Street,Austin,TX,78703,09-373-5686
College of the Holy Cross,College of theHoly Cross,"1 College Street, Worcester, MA 01610",1 College Street,Worcester,MA,01610,04-150-9506
,C&K Properties d/b/a Corsetti's,"125 Bridgton Road, Westbrook, ME 04092",125 Bridgton Road,Westbrook,ME,04092,00-245-2084
Atlantis Paradise Island,Atlantis Paradise Island,,,,,,00-593-0692
Innoas Inc,Innoas Inc.,,,,,,05-710-6636
Villa JTM 10 Internet Sales,Villa JTM 10 Internet Sales,,,,,,
Walk in the Word-E Com,Walk in the Word-E Com,,,,,,
Way.com,Way.com,,,,,,07-920-1269
CCI Holdings Inc,"CCI Holdings, Inc. d/b/a Coin Cafe","240 Kent Ave, Brooklyn, NY 11249",240 Kent Ave,Brooklyn,NY,11249,08-853-2319
International Council of Shopping Centers,"International Council of Shopping Centers (""ICSC"") - Update",,,,,,06-825-8326
BMT Designers & Planners Inc,"BMT Designers & Planners, Inc","4401 Ford Avenue, Suite 1000, Alexandria, VA 22302","4401 Ford Avenue, Suite 1000",Alexandria,VA,22302,01-853-9619
Pizza Hut LLC,"Pizza Hut, LLC","7100 Corporate Drive, Plano, TX 75024",7100 Corporate Drive,Plano,TX,75024,09-770-4928
Spark Pay Online Store,Spark Pay Online (firner subsidiary of Capital One),,,,,,
West Music Inc,"West Music Company, Inc.","1212 5th Street, Coralville, IA 52241",1212 5th Street,Coralville,IA,52241,02-220-4960
International Council of Shopping Centers,"International Council of Shopping Centers (""ICSC"")",,,,,,06-825-8326
PressureParts Inc,"PressureParts, Inc.","7820 L. Street, Omaha, NE 68127",7820 L. Street,Omaha,NE,68127,04-087-2195
Provo Craft & Novelty Inc,"Provo Craft & Novelty, Inc., d/b/a Cricut","10855 South River Front Parkway #400, South Jordan, Utah 84095",10855 South River Front Parkway #400,South Jordan,UT,84095,01-345-0232
Hyatt Hotel Corp,Hyatt Hotels Corp,"71 South Wacker Drive, 12th Floor, Chicago, IL 60606","71 South Wacker Drive, 12th Floor",Chicago,IL,60606,11-416-4197
Equifax Mortgage Services,"Equifax, Inc.","1550 Peachtree Street, N.E., Atlanta,GA 30309","1550 Peachtree Street, N.E.",Atlanta,GA,30309,04-581-2369
Universal Nutrition,Universal Nutrition,"3 Terminal Road, New Brunswick, NJ, 08901",3 Terminal Road,New Brunswick,NJ,08901,
Droege Computing Services,Droege Computing Services,"20 West Colony Place, Durham, NC 27705",20 West Colony Place,Durham,NC,27705,19-971-5152
Atlantic Cigar Company LLC,"Atlantic Cigar Company, LLC","3 Horne Drive, Suite 102, Folcroft, PA 19032","3 Horne Drive, Suite 102",Folcroft,PA,19032,80-099-8812
Phillips & Temro Industries Inc,"Phillips & Temro Industries, Inc.","9700 West 74th Street, Eden Prairie, MN 55344",9700 West 74th Street,Eden Prairie,MN,55344,06-652-5213
#N/A,ABC Carpet & Home,,,,,,10-214-7006
Kayser-Roth Corp,Kayser-Roth Corporation,"102 Corporate Center Blvd, Greensboro, NC 27408",102 Corporate Center Blvd,Greensboro,NC,27408,00-148-2033
Catholic United Financial,Catholic United Financial,,,,,,07-649-9961
Tommie Copper Inc,"Tommie Copper, Inc.","74 South Moger Avenue, Mount Kisco, NY 10549",74 South Moger Avenue,Mount Kisco,NY,10549,08-117-6569
Navy Federal Credit Union,Navy Federal Credit Union,,,,,,06-926-9975
Avanti Markets Inc,Avanti Markets Inc. (Update),,,,,,05-472-3888
Cabrillo Community College,Cabrillo Community College District,"6500 Soquel Drive, Aptos, CA 95003",6500 Soquel Drive,Aptos,CA,95003,96-472-4277
McNair & Company Inc,"McNair & Company, Inc.","1313 Dolley Madison Blvd, Suite 309, McLean, VA 22101","1313 Dolley Madison Blvd, Suite 309",McLean,VA,22101,
Neue Galerie,Neue Galerie,"1048 5th Avenue, New York, NY 10028",1048 5th Avenue,New York,NY,10028,02-503-9376
Lake Champlain Chocolates,Lake Champlain Chocolates,"750 Pine Street, Burlington, VT 05401",750 Pine Street,Burlington,VT,05401,13-627-1561
Sonic Corp,SONIC Corp,"300 Johnny Bench Drive, Oklahoma City, OK 73104",300 Johnny Bench Drive,Oklahoma City,OK,73104,60-945-6033
FlexShopper LLC,FlexShopper,,,,,,83-278-8132
Yahoo! Inc,"Yahoo, Inc. (update)",,,,,,82-982-7877
Alpha Industries Inc,"Alpha Industries, Inc","14200 Park Meadow Drive, Ste 110S, Chantilly, VA 20151","14200 Park Meadow Drive, Ste 110S",Chantilly,VA,20151,00-337-7694
The Online Traffic School Inc,The Online Traffic School,"225 East Robinson Street, Suite 570, Orlando, FL 32801",225 East Robinson Street,Orlando,FL,32801,13-964-4939
Briggs & Stratton Corp,Briggs & Stratton Corp,"12301 West Wirth Street, Wauwatosa, WI 53222",12301 West Wirth Street,Wauwatosa,WI,53222,00-608-2531
Cheddar's Casual Cafe Inc,Cheddar's Cashual Cafe Inc.,"2900 Ranch Trail, Irving, TX 75063",2900 Ranch Trail,Irving,TX,75063,05-275-1740
Lendio Inc,"Lendio, Inc.","10235 South Jordan Parkway, Suite 410, South Jordan, Utah 84095","10235 South Jordan Parkway, Suite 410",South Jordan,UT,84095,04-409-7220
Century LLC,Century LLC,"1000 Century Blvd, Oklahoma City, Oklahoma 73110",1000 Century Blvd,Oklahoma City,OK,73110,80-011-5891
, ,,,,,,
Plow & Hearth LLC,"Plow & Hearth, LLC","7021 Wolftown-Hood Road, Madison, VA 22727: 540-948-2272",7021 Wolftown-Hood Road,Madison,VA,22727,96-230-6218
NCI Group Inc,"NCI Group, Inc.","10943 North Sam Houston Parkway West, Houston, TX 77064",10943 North Sam Houston Parkway West,Houston,TX,77064,06-071-3047
Sprint Corporation,Sprint Corporation,"12512 Sunrise Valley Dr. Reston, VA 20191",12512 Sunrise Valley Dr.,Reston,VA,,60-662-4653
AM2 Enterprises LLC,"AM2 Enterprises, LLC",,,,,,04-760-5173
TRUEbenefits LLC,TRUEbenefits LLC,"1215 4th Ave, Suite 2200; Seattle, WA 98161","1215 4th Ave, Suite 2200",Seattle,WA,98161,01-118-2547
Bulletproof 360 Inc,"Bulletproof 360, Inc.","1750 112th Avenue NE Suite C-242, Bellevue, WA 98004 (email)",1750 112th Avenue NE Suite C-242,Bellevue,WA,98004,07-968-2045
International Council of Shopping Centers,The International Council of Shopping Centers,"1221 Avenue of the Americas, 41st floor, New York, NY 10020","1221 Avenue of the Americas, 41st floor",New York,NY,10020,06-825-8326
Brambles USA Inc,Brambles USA Inc.,"180 Technology Parkway, Suite 600, Norcross, GA 30092","180 Technology Parkway, Suite 600",Norcross,GA,30092,60-532-2817
American Quilters Society,AMERICAN QUILTERS SOCIETY,,,,,,82-860-0254
Chipolte,Chipolte,,,,,,04-615-0962
Commercial Industrial Supply,Commercial Industrial Supply,,,,,,02-533-5405
Fairfield Mint LLC,"Fairfield Mint, LLC",,,,,,83-797-7826
Frames By Mail,Framesbymail,,,,,,04-174-9586
Halocigs,Halocigs,,,,,,04-564-0788
Insect lore,Insect lore,,,,,,06-383-0137
Magills GV Glockstore,Magills GV Glockstore,,,,,,
MSG - Concessions,MSG - Concessions,,,,,,
Shannon Restaurant LLC,Shannon Restaurant LLC,,,,,,10-027-3953
Sole Society,Sole Society,,,,,,04-370-3232
Tieks by Gavrieli,Tieks by Gavrieli,,,,,,07-918-7686
Trump Hotel Collection,Trump Hotels,,,,,,12-261-3792
AT&T,"AT&T Services, Inc.","208 S. Akard Street, Dallas, TX 75202",208 S. Akard Street,Dallas,TX,75202,02-502-7256
#N/A,"ABB, Inc.","305 Gregson Drive, Cary, NC 27511",305 Gregson Drive,Cary,NC,27511,80-822-9041
Frontier Natural Products Co-op,Frontier Natural Products Co-Op breach notice,,,,,,01-591-4496
SRI International,SRI International,"333 Ravenswood Avenue, Menlo Park, CA 94025",333 Ravenswood Avenue,Menlo Park,CA,94025,00-923-2752
Major League Lacrosse,Major League Lacrosse,"20 Guest Street, Suite 125, Boston, MA 02135","20 Guest Street, Suite 125",Boston,MA,02135,01-056-2556
Fiduciary Management Inc,"Fiduciary Management, Inc.","100 E. Wisconsin Ave, #2200, Milwaukee, WI 53202","100 E. Wisconsin Ave, #2200",Milwaukee,WI,53202,79-403-3824
The reThink Group Inc,"The reThink Group, Inc.","5870 Charlotte Lane, Suite 300, Cumming, GA 30040","5870 Charlotte Lane, Suite 300",Cumming,GA,30040,00-730-7059
Sixty Hotels,Sixty Hotels,"206 Spring Street, 4th Floor, New York, NY 02108","206 Spring Street, 4th Floor",New York,NY,02108,07-991-6522
Hand & Upper Extremity Centers,Hand & Upper Extremity Centers d/b/a Hand Rehabilitation Specialists,"101 Hodencamp Road, Suite 100, Thousand Oaks, CA 91360","101 Hodencamp Road, Suite 100",Thousand Oaks,CA,91360,14-063-1875
Aptos Inc,"Aptos, Inc. (Re: Mrs. Prindables)","945 East Paces Ferry Road, Suite 2500, Atlanta, GA 30326","945 East Paces Ferry Road, Suite 2500",Atlanta,GA,30326,06-760-5154
WRJ Holdings LLC,"WRJ Holdings LLC, d/b/a Classic Firearms","3305 Westwood Industrial Drive, Monroe, NC 28110",3305 Westwood Industrial Drive,Monroe,NC,28110,06-590-7006
Med-Cert Inc,"Med-Cert, Inc.","3853 Northdale Blvd, #344, Tampa, Florida 33624","3853 Northdale Blvd, #344",Tampa,FL,33624,03-342-6898
Evans Hotels,Evans Hotels,,,,,,01-789-9795
Akira,Akira,"200 N. Fairfield Ave., Chicago, IL 60612",200 N. Fairfield Ave.,Chicago,IL,60612,
Advanced Financial Services Inc,"Gregory Wilt, CPA, Mario Bottoni CPA, Advanced Financial Services, Inc., and Accu-Pay Payroll and Bookkeeping Svcs, Inc.","320 Fayette Street, Manlius, NY 13104",320 Fayette Street,Manlius,NY,13104,
Avanti Markets Inc,Avanti Markets Inc.,,,,,,05-472-3888
Mr Cooper,Mr. Cooper,"8950 Cypress Waters Blvd., Coppell, TX 75019",8950 Cypress Waters Blvd.,Coppell,TX,75019,87-804-6069
Orchards Inn,Orchards Inn,,,,,,
Red Roof Inns Inc,Red Roof Inns,,,,,,06-599-2794
The Domain Hotel,"The Domain Hotel, Sunnyvale, California",,,Sunnyvale,CA,,
The Bicycle Hotel & Casino,"The Bicycle Hotel & Casino, Bell Gardens, California",,,Bell Gardens,CA,,
Sabre Hospitality,The Gallivant Times Square,"NY, NY",,NY,NY,,
The Nathan Hale Inn & Conference Center,The Nathan Hale Inn & Conference Center,,,,,,
The Roosevelt Hotel New York,The Roosevelt Hotel,"NY, NY",,NY,NY,,
CoreLogic Credco LLC,CoreLogic Credco ,,,,,,01-019-9297
CBS Consolidated Inc,"CBS Consolidated, Inc., dba Cornerstone Bus Management Solutions","206 S. 13th Street, Suite 600, Lincoln, NE 68508","206 S. 13th Street, Suite 600",Lincoln,NE,68508,06-204-2673
Fidelity Investments,Fidelity,,,,,,60-452-5241
Mark F. Andrews CPA LLC,"Mark Andrews, CPA, LLC",,,,,,06-114-7103
Aptos Inc,Aptos,"945 East Paces Ferry Road, Sutie 2500, Atlanta, Georgia 30326","945 East Paces Ferry Road, Suite 2500",Atlanta,GA,30326,06-760-5154
GT Distributors Inc,"GT Distributors, Inc.","2545 Brockton Dr., #100, Austin, TX 78758","2545 Brockton Dr., #100",Austin,TX,78758,
Crescent Mortgage Co,Crescent Mortgage Company,"Atlanta, Georgia",,Atlanta,GA,,
Rutherford MacDonald & Olsen PC,"Rutherford, MacDonald & Olson, P.C.",,,,,,
Taylor University,Taylor University,"236 W. Reade Ave, Upland, IN 46989",236 W. Reade Ave,Upland,IN,46989,
Zymo Research Corp,"Zymo Research Corp (""Zymo"")",,,,,,
American Friends Service Committee,American Friends Service Committee,"1502 Cherry Street, Philadelphia, PA 19102",1502 Cherry Street,Philadelphia,PA,19102,
Dutch LLC,"Dutch, LLC","5301 South Santa Fe, Vernon, CA 90058",5301 South Santa Fe,Vernon,CA,90058,
Tax-On-Time LLC,"Tax-On-Time, LLC","55 Park Avenue, Rutherford, NJ 07070",55 Park Avenue,Rutherford,NJ,07070,
All States AG Parts Inc,All States AG Parts Inc,,,,,,
American Blue Ribbon Holdings,American Blue Ribbon Holdings,,,,,,
Catholic Answers,Catholic Answers,,,,,,
Combex D2C,Combex D2C,,,,,,
Comfort Inn Stephens City,Comfort Inn Stephens City,,,,,,
Freshproduceclothes.com,Freshproduceclothes.com,,,,,,
IHG,IHG,,,,,,
Joes Downtown Brewery and Rest,Joes Downtown Brewery and Rest,,,,,,
Read-a-thon Fundraising,Read-a-thon Fundraising,,,,,,
Sportsmemorabilia.com,Sportsmemorabilia.com,,,,,,
Sunstar Americas.com,Sunstar Americas.com,,,,,,
University of Maine System,University of Maine System,,,,,,
#N/A,1 Hotel,,,,,,
Chiznar & Company CPA's LLC,Chiznar & Company CPA's LLC,"98 Cutter Mill Road, Great Neck, NY 11021",98 Cutter Mill Road,Great Neck,NY,11021,
Native Canada Footwear Ltd,Native Canada Footwear Ltd,,,,,,
Denihan Hospitality,"Denihan Hospitality (""Denihan"")",,,,,,
Salina Family Healthcare Center,Salina Family Healthcare Center,,,,,,
Pacifica Hotel Management LLC,Pacifica Hotel Management LLC,,,,,,
Marine Corps Association & Foundation,"Marine Corps Association &Foundation (""MCA"") ",,,,,,
Performant Financial Corporation,Performant Financial Corporation,"333 North Canyons Parkway Livermore, CA 94551",333 North Canyons Parkway,Livermore,CA,94551,
Wooster-Ashland Regional Council of Government,Wooster-Ashland Regional Council of Governments,"538 N. Market Street, Wooster, OH 44691",538 N. Market Street,Wooster,OH,44691,
New Hampshire Retirement System,New Hampshire Retirement System,,,,,,
Shoe Station Inc,"Shoe Station, Inc.","720 Executive Park Drive, Mobile, AL 36606",720 Executive Park Drive,Mobile,AL,36606,11-854-3867
Integrated Clark Monroe LLC,Hyatt Centric The Loop,"Chicago, Illinois",,Chicago,IL,,
Saddle Ridge Partners LLC,"Saddle Ridge Partners, LLC, dba Wizard Labs","927 Fern Street Suite 1000, Altamonte Springs, FL 32701",927 Fern Street Suite 1000,Altamonte Springs,FL,32701,
WNET,WNET,"825 Eighth Ave, New York, NY 10019",825 Eighth Ave,New York,NY,10019,
State Industrial Products Corp,State Industrial Products,"5915 Landerbnrook Drive, Suite 300, Mayfield, OH 44124","5915 Landerbnrook Drive, Suite 300",Mayfield,OH,44124,
Botwinick & Co. LLC,"Botwinick & Co., LLC",,,,,,
Juliska,Juliska,,,,,,
US Residential Group LLC,"US Residential Group, LLC","5001 Spring Valley Road, Suite 1000E, Dallas, TX 75244","5001 Spring Valley Road, Suite 1000E",Dallas,TX,75244,
Northwest Rheumatology,Northwest Rheumatology,,,,,,
Paris Las Vegas Operating Company LLC,"Paris Las Vegas Operating Company, LLC d/b/a ","Paris Las Vegas, NV 89109",Paris,Las Vegas,NV,89109,
Bryan Cave LLP,Bryan Cave LLP,"1155 F Street, N.W. Washington, DC 20004","1155 F Street, N.W.",Washington,DC,20004,
#N/A,21c Museum Hotels LLC,"710 West Main Street, Third Floor, Louisville, Kentucky 40202","710 West Main Street, Third Floor",Louisville,KY,40202,
Salt Hotels LLC,"Salt Hotels, LLC","210 5th Avenue, Ashbury, NJ 07712",210 5th Avenue,Ashbury,NJ,07712,
Westgate Resorts Ltd,Westgate Resorts Ltd,"5601 Windhover Drive, Orlando, FL 32819",5601 Windhover Drive,Orlando,FL,32819,
Stout Street Hospitality,Stout Street Hospitality,"818 17th Street, Denver, CO 80202",818 17th Street,Denver,CO,80202,
Noble House Hotels & Resorts,Noble House Hotels and Resorts,"600 6th Street, South, Kirkland, WA 98033","600 6th Street, South",Kirkland,WA,98033,
Steel Technologies LLC,"Steel Technology LLC, d/b/a Hydro Flask","525 NW York Drive, Bend, OR 97703",525 NW York Drive,Bend,OR,97703,
Directron,Directron,"10402 Harwin Drive, Houston, TX 77036",10402 Harwin Drive,Houston,TX,77036,
Cole Sport,Cole Sport,"1615 Park Ave, P.O. Box 3509, Park City, Utah 84060","1615 Park Ave, P.O. Box 3509",Park City,UT,84060,
Virgin America Inc,Virgin America,"555 Airport Boulevard, Suite 400, Burlingame, CA 94010","555 Airport Boulevard, Suite 400",Burlingame,CA,94010,
#N/A,A1 J. Schneider Company,"140 N. 4th Street, Louisville, KY 40202",140 N. 4th Street,Louisville,KY,40202,
Delek US Holdings Inc,"Delek US Holdings, Inc.","7102 Commerce Way, Brentwood, TN 37027",7102 Commerce Way,Brentwood,TN,37027,
Woodside Hotels and Resorts,Woodside Hotels and Resorts,,,,,,
Hartz Hotel Services Inc,"Hartz Hotel Services, Inc.","400 Plaza Drive, Secaucus, NJ 07094",400 Plaza Drive,Secaucus,NJ,07094,
Island Hotel Company Ltd,Island Hotel Company Limited,"One Casino Drive, Paradise Island, Bahamas",One Casino Drive,Paradise Island,Bahamas,,
Intuit Inc,Intuit Inc.,"2535 Garcia Avenue, Mountain View, CA 94043",2535 Garcia Avenue,Mountain View,CA,94043,
Standard International Management LLC,"Standard International Management, LLC","23 East 4th Street, NY, NY 10003",23 East 4th Street,NY,NY,10003,
TALX Corp,"TALX Corporation, a wholly owned subsidiary of Equifax, Inc.","1550 Peachtree Street, NW, Atlanta, GA 30309",1550 Peachtree Street,NW,GA,30309,
Sabre GLBL Inc,"Sabre GLBL, Inc.","3150 Sabre Drive, Southlake, TX 76092",3150 Sabre Drive,Southlake,TX,76092,
Republic Bank & Trust Co,Republic Bank & Trust Co.,"601 W. Market St., Louisville, KY 40202",601 W. Market St.,Louisville,KY,40202,
Remington Lodging & Hospitality LLC,"Remington, Lodging & Hospitality, LLC & Associates",,,,,,
Whitinger & Company LLC,Whitinger & Company LLC,"1100 W. White River Blvd, Muncie, IN 47303",1100 W. White River Blvd,Muncie,IN,47303,
SportsMem Inc,"SportsMem, Inc.","251 International Parkway, Sunrise, Florida 33325",251 International Parkway,Sunrise,FL,33325,
TALX Corp,"TALX Corporation, a wholly owned subsidiary of Equifax, Inc.","1550 Peachtree Street, NW, Atlanta, GA 30309","1550 Peachtree Street, NW",Atlanta,GA,30309,
SB ENT Holdings LLC,"SB ENT Holdings, LLC","475 10th Ave., 11th Floor, New York, NY 10018","475 10th Ave., 11th Floor",New York,NY,10018,
Ameriprise Financial Inc,"Ameriprise Financial, Inc.","707 2nd Ave A, Minneapolis, MN 55474",707 2nd Ave A,Minneapolis,MN,55474,00-696-1957
Brigham Young University,Brigham Young University,"Office of the General Counsel, A-357 ASB, Provo, Utah 84602","Office of the General Counsel, A-357 ASB",Provo,UT,84602,
Club Quarter Hotels,Club Quarters Hotels,"One Atlantic Street, 5th Floor, Stamford, CT 06901","One Atlantic Street, 5th Floor",Stamford,CT,06901,
CBRE Inc,CBRE,"400 South Hope Street, 25th Floor, Los Angeles, CA 90071","400 South Hope Street, 25th Floor",Los Angeles,CA,90071,
Peachtree Neurological Clinic PC,Peachtree Neurological Clinic PC,"95 Collier Road NW, Suite 4045, Atlanta, GA 30309","95 Collier Road NW, Suite 4045",Atlanta,GA,30309,
Movement Mortgage LLC,Movement Mortgage,"8024 Calvin Hall Road, Indian Land, SC 29707",8024 Calvin Hall Road,Indian Land,SC,29707,
Golf & Ski Warehouse Inc,"Golf & Ski Warehouse, Inc.","290 Plainfield Road, West Lebanon, NH 03784",290 Plainfield Road,West Lebanon,NH,03784,
Hard Rock Cafe International Inc,Hard Rock International,"6100 Old Park Lane, Orlando, FL 32835",6100 Old Park Lane,Orlando,FL,32835,
Signature Hardware Inc,"Signature Hardware, Inc","2700 Crescent Springs Pike, Erlanger KY 41017",2700 Crescent Springs Pike,Erlanger,KY,41017,
Halekulani Corp,Halekulani Corp (thru Sabre Hospitality Solutions),,,,,,
Open Text Corp,Open Text Corporation,"105 Adelaide St. West, Suite 1200, Toronto, Ontario M5H 1P9 Canada","105 Adelaide St. West, Suite 1200",Toronto,Canada,,
Four Seasons Hotels Ltd,Four Seasons Hotels Limited (incident actually occurred at Sabre Hospitality Solutions),,,,,,
Ensign-Bickford Industries Inc,"Ensign-Bickford Industries, Inc.","125 Powder Forest Drive, Simsbury, CT 06070",125 Powder Forest Drive,Simsbury,CT,06070,
Preferred Hotel Group Inc,"Preferred Hotel Group, Inc.","311 South Wacker Drive, Chicago, IL 60606",311 South Wacker Drive,Chicago,IL,60606,
Sabre Hospitality,"Trump Hotels, Sabre Hospitality Solutions is service provider",,,,,,
PVHS-ICM Employee Health and Wellness LLC,PVHS-ICM Employee Health and Wellness LLC,,,,,,
Reverse Mortgage Funding LLC,"Reverse Mortgage Funding, LLC",,,,,,
Paul Stuart Inc,"Paul Stuart, Inc.","NY, NY",,New York,NY,,
Aqua-Aston Hospitality LLC,"Aqua-Aston Hospitality, LLC","2155 Kalakaua Avenue, 5th Floor, Honolulu, HI 96815","2155 Kalakaua Avenue, 5th Floor",Honolulu,HI,96815,
Burdette Smith & Bish LLC,Burdette Smith & Bish LLC,"4035 Ridge Top Road, Suite 550, Fairfax, VA 22030","4035 Ridge Top Road, Suite 550",Fairfax,VA,22030,
Southern Illinois Hospital Services,Southern Illinois Hospital Services,,,,,,
Arby's Restaurant Group Inc,Arby's,,,,,,
Brooks Brothers,Brooks Brothers,,,,,,
Easy Breathe Inc,Easy Breath Inc.,,,,,,
Fun Eats and Drinks,Fun Eats and Drinks,,,,,,
Gold Country Casino & Hotel,Gold Country Casino & Hotel,,,,,,
Horchow Collection CTG,Horchow Collection CTG,,,,,,
Richline Group Inc,Jewelry.com,,,,,,
KURU Footwear,Kuru Footwear,,,,,,
Prana Living,Prana Living ,,,,,,
Rand McNally,Rand McNally,,,,,,
Roberts Hawaii Tours Inc,"Roberts Hawaii Tours Inc.,",,,,,,
Socksaddict.com,Socksaddict.com,,,,,,
Thomas Strauss Inc,"Thomas Strauss, Inc.",,,,,,
Verifone,Verifone,,,,,,
www.therafitshow.com,www.therafitshow.com,,,,,,
Toronto-Dominion Bank,"TD Bank, N.A.","1 Portland Square, Portland, Maine 04101",1 Portland Square,Portland,ME,04101,
David Turrentine & Associates Inc,"David Turrentine & Associates, Inc.","2610 West Eastwood Avenue, Chicago, IL 60625",2610 West Eastwood Avenue,Chicago,IL,60625,
Aetna Inc,Aetna,"151 Farmington Avenue, RE6A, Hartford, CT 06156","151 Farmington Avenue, RE6A",Hartford,CT,06156,
Atlantic Digestive Specialists PLLC,Atlantic Digestive Specialists,"21 Clark Way, Route 108, Somersworth, NH 03878 (email)","21 Clark Way, Route 108",Somersworth,NH,03878,
Torrance Memorial Medical Center,Torrance Memorial Medical Center,"3330 Lomita Blvd, Torrance, CA 90505",3330 Lomita Blvd,Torrance,CA,90505,
Occidental College,Occidental College,"1600 Campus Road, Los Angeles, CA 90041",1600 Campus Road,Los Angeles,CA,90041,
Dallas County Community College District,Dallas County Community College District,"1601 S Lamar Street, Dallas, TX 75215",1601 S Lamar Street,Dallas,TX,75215,
Nielsen Co,The Nielsen Company ,,,,,,
Southern Tide Inc,Southern Tide,,,,,,
Pinto Mucenski Hooper VanHouse & Co,Pinto Mucenski Hooper VanHouse & Co.,,,,,,
Yeo & Yeo,Yeo & Yeo,"3023 Davenport Ave., Saginaw, MI 48602",3023 Davenport Ave.,Saginaw,MI,48602,
SMH Enterprises LLC,SMH Enterprises,"839 St. Charles Ave #200, New Orleans, LA 70130",839 St. Charles Ave #200,New Orleans,LA,70130,
The Forum for Youth Investment,The Forum for Youth Investment,"7064 Eastern Ave, NW, Washington, DC 20012","7064 Eastern Ave, NW",Washington,DC,20012,
Leader Bank NA,"Leader Bank, N.A.","180 Massachusetts Avenue, Arlington, MA 02474",180 Massachusetts Avenue,Arlington,MA,02474,
Richline Group Inc,"Jewelry.com (division of Richline Group, Inc.)","6701 Nob Hill Road, Tamarac, Florida 33321",6701 Nob Hill Road,Tamarac,FL,33321,
Washington State University,Washington State University,"P.O. Box 641048, Pullman, WA",P.O. Box 641048,Pullman,WA,,
Townsends,Townsends,"P.O. Box 415, 133 North First Street, Pierceton, IN 46562","P.O. Box 415, 133 North First Street",Pierceton,IN,46562,
GameStop Inc,"GameStop, Inc.","625 Westport Parkway, Grapevine, TX 76051",625 Westport Parkway,Grapevine,TX,76051,
TALX Corp,"TALX Corporation, a wholly owned subsidiary of Equifax, Inc.","1550 Peachtree Street, NW, Atlanta, GA 30309",1550 Peachtree Street,Atlanta,GA,30309,
Township of Springfield NJ,Township of Springfield,"100 Mountain Avenue, Springfield, NJ 07081",100 Mountain Avenue,Springfield,NJ,07081,
Campbell Union High School District,Campbell Union High School District,"3235 Union Ave., San Jose, CA  94124",3235 Union Ave.,San Jose,CA,94124,
O'Brien Riley & Ryan PC,"O'Brien Riley & Ryan, P.C.",,,,,,
Overseas Shipholding Group Inc,"Overseas Shipholding Group, Inc.","302 Knights Run Ave, Tampa, FL 33602",302 Knights Run Ave,Tampa,FL,33602,
O'Brien Riley & Ryan PC,"O'Brien Riley & Ryan P.C.,",,,,,,
Sears Holding Corp,Sears Holdings/Kmart,,,,,,
Crimson Trace Corp,Crimson Trace Corporation,"9780 SW Freeman Drive, Wilsonville, Oregon 97070",9780 SW Freeman Drive,Wilsonville,OR,97070,
Funding Circle USA Inc,"Funding Circle USA, Inc.","747 Front Street, Floor 4, San Francisco, CA 94111","747 Front Street, Floor 4",San Francisco,CA,94111,
Angliss & Colohan PC,"Angliss & Colohan, P.C.","21 New Britain Ave., Suite 106, Rocky Hill, CT 06067","21 New Britain Ave., Suite 106",Rocky Hill,CT,06067,
Airway Oxygen Inc,"Airway Oxygen, Inc.","P.O. Box 9410, Wyoming, MI 49509",P.O. Box 9410,Wyoming,MI,49509,
Chipotle Mexican Grill Inc,"Chipolte Mexican Grill, Inc.","1401 Wynkoop Street, Denver, CO 80202",1401 Wynkoop Street,Denver,CO,80202,
Char-Broil LLC,"Char-Broil, LLC","1442 Belfast Ave., Columbus, GA 31904",1442 Belfast Ave.,Columbus,GA,31904,
optionsXpress Inc,"OptionsXpress, Inc. (Charles Schwab & Co.)","211 Main Street, San Francisco, CA 94105",211 Main Street,San Francisco,CA,94105,
Incipio LLC ,"Incipio, LLC","6001 Oak Canyon, Irvine, CA 92618",6001 Oak Canyon,Irvine,CA,92618,
HSX.com,HSX.com,"1925 Century Park East, Los Angeles, CA 90067",1925 Century Park East,Los Angeles,CA,90067,
Maddaloni Nydick & Keenan PC,"Maddaloni Nydick & Keenan, PC","30 Columbia Turnpike, Suite 204, Florham Park, NJ 07932","30 Columbia Turnpike, Suite 204",Florham Park,NJ,07932,
Frontier Airlines,Frontier Airlines,,,,,,
Neeley-Nemeth LLP,"Neeley-Nemeth LLP, d/b/a Barton Oaks Dental Group",,,,,,
Rite Aid Online Store Inc,"Rite Aid Online Store, Inc.","30 Hunter Lane, Camp Hill, PA 17011",30 Hunter Lane,Camp Hill,PA,17011,
#N/A,24X7,,,,,,
#N/A,A&M LLC,,,,,,
CZ Custom 2,CZ Custom 2,,,,,,
DRB Systems,DRB Systems,,,,,,
Essick Air Products,Essick Air Products,,,,,,
Evereve #99,Evereve #99,,,,,,
Fatquartershop.com,Fatquartershop.com,,,,,,
HDIS Inc,HDIS,,,,,,
Indigo Wild LLC,Indigo Wild,,,,,,
Jerrys Artarama Web,Jerrys Artarama Web,,,,,,
KontrolFreek LLC,Kontrolfreek,,,,,,
Lang.com,Lang.com,,,,,,
Opentip.com,Opentip.com,,,,,,
Piketopeak.com,Piketopeak.com,,,,,,
Rough Country,Rough Country,,,,,,
Rubber Stamp End Button Champ,Rubber Stamp End Button Champ,,,,,,
Nicopure Labs LLC,Nicopure Labs LLC,"7916 Evolutions Way, Suite 200, Trinity, FL 34655","7916 Evolutions Way, Suite 200",Trinity,FL,34655,
KURU Footwear,KURU Footwear,"4416 S Century Drive, Salt Lake City, UT 84123",4416 S Century Drive,Salt Lake City,UT,84123,
University of New Mexico Foundation,University of New Mexico Foundation,"2 Woodward Center, Albuquerque, NM 87102",2 Woodward Center,Albuquerque,NM,87102,
Indigo Wild LLC,"Indigo Wild, LLC","3125 Wyandotte St, Kansas City, MO 64111",3125 Wyandotte St,Kansas City,MO,64111,
Brooks Brothers,Brooks Brothers ,,,,,,
"Bechtel Oil, Gas & Chemicals Construction Services","Bechtel Oil, Gas & Chemicals Construction Services, Inc.","3000 Post Oak Blvd, Houston, TX 77056",3000 Post Oak Blvd,Houston,TX,77056,
Tatcha LLC,"Tatcha, LLC","350 Rhode Island Street, Suite 110, San Francisco, CA 94103 (email)","350 Rhode Island Street, Suite 110",San Francisco,CA,94103,
RM Acquisition LLC,"RM Acquisition, LLC d/b/a Rand McNally","9855 Woods Drive, Skokie, IL 60077 (Email)",9855 Woods Drive,Skokie,IL,60077,
Genpact International Inc,"Genpact International, Inc.","1155 Avenue of the Americas, 4th floor, New York, NY 10036 (email)","1155 Avenue of the Americas, 4th floor",New York,NY,10036,
Wesleyan College,Wesleyan College,"4760 Forsyth Road, Macon, GA 31210 (email)",4760 Forsyth Road,Macon,GA,31210,
Agri Beef Co,Agri Beef Co.,"1555 Shoreline Drive, Suite 320, Boise, ID 83702 (Email)","1555 Shoreline Drive, Suite 320",Boise,ID,83702,
McDavid Inc,"McDavid, Inc.","11488 Slater Ave, Fountain Valley, CA 92708 (paper)",11488 Slater Ave,Fountain Valley,CA,92708,
Nathan Sports,Nathan Sports,"11488 Slater Avenue, Fountain Valley, CA 92708 (paper)",11488 Slater Avenue,Fountain Valley,CA,92708,
Pratt Industries Inc,"Pratt Industries, Inc.","1800-C Sarasota Pkwy, Conyers, GA 30013 (paper)",1800-C Sarasota Pkwy,Conyers,GA,30013,
Jackson Hewitt Tax Service Inc,Jackson Hewitt Tax Service Inc. (paper),,,,,,
Diamond Institute for Infertility and Menopause,Diamond Institute for Infertility and Menopause (paper),,,,,,
Marbles LLC,"Marbles, LLC","1918 N. Mendell, #400, Chicago, IL 60642  via Aptos (paper)","1918 N. Mendell, #400",Chicago,IL,60642,
Extreme Reach Inc,"Extreme Reach, Inc.","75 2nd Avenue, Suite 720, Needham, MA 02494 (email)","75 2nd Avenue, Suite 720",Needham,MA,02494,
Gannett Co Inc,"Gannett Company, Inc.","7950 Jones Branch Dr., McLean, VA 22107 (email)",7950 Jones Branch Dr.,McLean,VA,22107,
Greenwood School District 50,Greenwood School District 50,"1855 Calhoun Road, P.O. Box 248, Greenwood, SC 29648 (email)","1855 Calhoun Road, P.O. Box 248",Greenwood,SC,29648,
Pacific Quest,Pacific Quest,"15 Kanoa Street, Hilo, Hawaii 96720 (email)",15 Kanoa Street,Hilo,HI,96720,
Hill Country Memorial Hospital,Hill Country Memorial Hospital (paper),,,,,,
KeraLink International,KeraLink International,"5520 Research Park Drive, Suite 400, Baltimore, MD 21228 (email)","5520 Research Park Drive, Suite 400",Baltimore,MD,21228,
Seattle Housing Authority,Seattle Housing Authority (paper),,,,,,
Brace Industrial Group/Platinum Scaffolding Services,Brace Industrial Group/Platinum Scaffolding Services,"14950 Heathrow Forest Pkwy, Suite 150, Houston, TX 77032 (email)","14950 Heathrow Forest Pkwy, Suite 150",Houston,TX,77032,
Atlantic Digestive Specialists PLLC,"Atlantic Digestive Specialists, PLLC","21 Clark Way, Route 108, Somersworth, NH 03878 (email)","21 Clark Way, Route 108",Somersworth,NH,03878,
Behavioral Health Center,Behavioral Health Center,"77 Court Street, Bangor, ME 04401 (email)",77 Court Street,Bangor,ME,04401,
#N/A,24X7 (Payment Ingegrator (paper),,,,,,
#N/A,39DOLLARGLASSES.COM (paper),,,,,,
#N/A,ACADEMY OF MODEL AERONAUT (paper),,,,,,
BRILLIANT BOOK HOUSE LLC,BRILLIANT BOOK HOUSE LLC (paper),,,,,,
Hard Rock Hotel & Casino in Las Vegas,HARD ROCK HOTEL & CASINO (paper),,,,,,
Intex Recreation Corp,INTEX RECREATION CORP (paper),,,,,,
Love Book LLC,LOVE BOOK LLC (paper),,,,,,
Silencer Shop,SILENCER SHOP (paper),,,,,,
SwimOutlet.com,SWIMOUTLET.COM (paper),,,,,,
Eastwood Co,THE EASTWOOD COMPANY (paper),,,,,,
Central Michigan University,Central Michigan University,,,,,,
One World Distribution Inc,"One World Distribution, Inc., d/b/a One World Direct","10 First Avenue East, Mobridge, SD 57601 (email)",10 First Avenue East,Mobridge,SD,57601,
Tempur-Pedic,Tempur-Pedic,"1000 Tempur Way, Lexington, KY 40511 (paper)",1000 Tempur Way,Lexington,KY,40511,
GlassWasherParts.com,GlassWasherParts.com,"2950 NW 22nd Terrace, Pompano Beach, FL 33069 thru Aptos (paper)",2950 NW 22nd Terrace,Pompano Beach,FL,33069,
Children's Place Inc/The,"The Children's Place Inc., (paper)",,,,,,
Elbit Systems of America,Elbit Systems of America,"220 Daniel Webster Highway, Merrimack, NH 03054 (paper)",220 Daniel Webster Highway,Merrimack,NH,03054,
Commonwealth Health Corp,Commonwealth Health Corp,"800 Park Street, Bowling Green, KY 42101 (email)",800 Park Street,Bowling Green,KY,42101,
Intuit Inc,"Intuit, Inc.","2535 Garcia Avenue, Mountain View, CA 94043 (email & paper)",2535 Garcia Avenue,Mountain View,CA,94043,11-329-0969
William E Howe & Co CPAs,William E. Howe & Co. CPAs,"105 Chesley Drive, Yorktown Building, 1st Floor, Media, PA 19063 (email)",105 Chesley Drive,Yorktown Building,PA,,
TriTech Software Systems,TriTech Software Systems,"9477 Walples Street, Suite 100, San Diego, CA 92121 (email)",9477 Walples Street,San Diego,CA,92121,
Nathan Associates Inc,"Nathan Associates, Inc.","1777 North Kent Street, Suite 1400, Arlington, VA 22209 (email)",1777 North Kent Street,Arlington,VA,22209,
Daytona State College,Daytona State College,"1200 W. International Speedway Blvd, Daytona Beach, FL 32114 (email)",1200 W. International Speedway Blvd,Daytona Beach,FL,32114,
Haixia Zhang,Hajek & Hajek CPAs P.A. (paper),,,,,,
Maloney & Kennedy PLLC,"Maloney & Kennedy, PLLC (paper)",,,,,,
Ohnward Bancshares Inc,Oilandgasjobsearch.com (paper),,,,,,
ShowTix4U,ShowTix4U (paper),,,,,,
Penserv Plan Services Inc,"PenServ Plan Services, Inc. (paper)",,,,,,
Language Services Associates Inc,"Language Services Associates, Inc., 455 Business Center Drive, Horsham, PA 19044 (email)",,455 Business Center Drive,Horsham,PA,19044,
Easy Breathe Inc,"Easy  Breathe, Inc., Los Angeles, CA (paper)",,,,,,
Virginia Gift Brands,"Virginia Gift Brands - parent company to Woodwick, 1000 Dillard ave., Forest, VA 24551 (email)",,1000 Dillard ave.,Forest,VA,24551,
Christie's Inc,Christie's Inc (paper),,,,,,
IntelePeer Holdings Inc,"IntelePeer Holdings, Inc., (paper)",,,,,,
Veolia North America,Veolia North America (email and paper),,,,,,
American Express Travel Related Services,America's JobLink (email),,,,,,
Urology Austin,"Urology Austin, Austin, TX (paper)",,,,,,
Atwood Distributing LLP,Atwood Distributors LP,"500 So Garland Road, Enid, Oklahoma 73703; 580-233-3702 (paper)",500 So Garland Road,Enid,OK,73703,
Mass General Hospital,Massachusetts General Hospital,"55 Fruit Street, Boston, MA  02129 (paper)",55 Fruit Street,Boston,MA,02129,
Groton Public Schools,Groton Public Schools  (paper),,,,,,
Sarnova Inc,"Sarnova, Inc.","5000 Tuttle Crossing Blvd, Dublin, Ohio 43016 (email)",5000 Tuttle Crossing Blvd,Dublin,OH,43016,
Great Falls Holdings Inc,"Great Falls Holdings, Inc.","121 Mill Street, Auburn, ME 04210 (email)",121 Mill Street,Auburn,ME,04210,
Schurman Fine Papers,Schurman Fine Papers d/b/a Schurman Retail Group,"500 Chadbourne Road, Fairfield, CA 94533 (email)",500 Chadbourne Road,Fairfield,CA,94533,
Rand McNally,Rand McNally,"9855 Woods Drive, Stokie, IL 60077 (email)",9855 Woods Drive,Stokie,IL,60077,
Arapahoe Mental Health Center,Arapahoe Mental Health Center (d/b/a All Health Network),"155 Inverness Drive West, Sutie 200, Englewood, CO 80112 (paper & email)","155 Inverness Drive West, Suite 200",Englewood,CO,80112,
Hertzbach & Company PA,"Hertzbach & Company, P.A.","800 Red Brook Blvd, Suite 300, Owings Mills, ME 21117","800 Red Brook Blvd, Suite 300",Owings Mills,ME,21117,
Berg LLC,Berg LLC,"500 Old Connecticut Path, Framingham, MA  01701 (email)",500 Old Connecticut Path,Framingham,MA,01701,
American Tire Distributors Holdings Inc,"American Tire Distributors Holdings Inc., (paper)",,,,,,
The JN Phillips Company Inc,"The J.N. Phillips Company, Inc.","11 Wheeling Avenue, Woburn, MA  01801 (email)",11 Wheeling Avenue,Woburn,MA,01801,
Comfort Technology,"Comfort Technology, d/b/a Therafit Shoes, Miami Gardens,  Florida (paper)",,,,,,
Bacon & Co. CPA's LLC,Bacon & Co. CPA's LLC,"875 Centerville Road, Bldg 3-10, Warwick, RI 02886 (email)","875 Centerville Road, Bldg 3-10",Warwick,RI,02886,
Blast from the past too (paper),Blast from the past too (paper),,,,,,
Dressing your truth,Dressing your truth (paper),,,,,,
Honeyville Grain Online,Honeyville Grain Online (paper),,,,,,
Vertex Wireless,Vertex Wireless (Vertex) (paper),,,,,,
Ameriprise Financial Inc,"Ameriprise Financial, Inc.","707 Second Avenue S, Minneapolis, MN 55474 (email)",707 Second Avenue S,Minneapolis,MN,55474,00-696-1957
Paint Nite LLC,Paint Nite LLC,"230 Somerville Avenue, Somerville, MA 02143 (paper)",230 Somerville Avenue,Somerville,MA,02143,
Zest Dental Solutions,Zest Dental Solutions,"2875 Loker Avenue East, Carlsbad, CA 92010 (email)",2875 Loker Avenue East,Carlsbad,CA,92010,
Bambeco Inc,Bambeco Inc.,"621 East Pratt St., Suite 300, Baltimore, MD 21202 thru Aptos (paper)","621 East Pratt St., Suite 300",Baltimore,MD,21202,
Intuit Inc,"Intuit, Inc.","2535 Garcia Avenue, Mountain View, CA  94043 (email & paper)",2535 Garcia Avenue,Mountain View,CA,94043,11-329-0969
Mrs Prindables,M.R.S.. Prindables,"6300 Gross Point Road, Niles, IL 60714 (email)",6300 Gross Point Road,Niles,IL,60714,
#N/A,Affy Tapple,"6300 Gross Point Road, Niles, IL 60714 (email)",6300 Gross Point Road,Niles,IL,60714,
Hutchinson and Bloodgood LLP,Hutchinson and Bloodgood LLP,"550 N. Brand Blvd, 14th Floor, Glendale, CA 91203 (email)","550 N. Brand Blvd, 14th Floor",Glendale,CA,91203,
"Kahr Arms, Auto-Ordnance, Magnum Research","Kahr Arms, Auto-Ordnance, Magnum research - thru Aptos (paper)",,,,,,
Aptos Inc,Atlantic Cigar through Aptos (paper),,,,,,
Frost & Sullivan,Frost & Sullivan,"7550 IH 10 West, Suite 400, San Antonio, TX 78229 (paper)","7550 IH 10 West, Suite 400",San Antonio,TX,78229,
Tarleton Medical,Tarleton Medical,"39000 Bob Hope Drive, Suite K406, Rancho Mirage, CA 92270 (paper)","39000 Bob Hope Drive, Suite K406",Rancho Mirage,CA,92270,
Elkay Plastics Co Inc,"Elkay Plastics Co., Inc.","6000 Sheila Street, Commerce, CA 90040 (paper)",6000 Sheila Street,Commerce,CA,90040,
Viacom Inc,Viacom Inc.,"1515 Broadway, New York, NY 10036 (paper)",1515 Broadway,New York,NY,10036,
prAna,prAna,"3209 Lionshead Ave., Carlsbad, CA 92010 (email)",3209 Lionshead Ave.,Carlsbad,CA,92010,
VT Group,VT Group,"14111 Park Meadow Drive, Suite 130, Chantilly, VA 20151 (paper)","14111 Park Meadow Drive, Suite 130",Chantilly,VA,20151,
Crotched Mountain Foundation Inc,"Crotched Mountain Foundation, Inc. (paper)",,,,,,
Friedman & Perry CPAs,"Friedman & Perry, CPAs","39560 Stevenson Place, Suite 112, Fremont, CA 94539 (email)","39560 Stevenson Place, Suite 112",Fremont,CA,94539,
University of Idaho,University of Idaho,"875 Perimeter Drive, MS 3151, Moscow, ID 83844","875 Perimeter Drive, MS 3151",Moscow,ID,83844,
Toscano Clements Taylor LLC,"Toscano Clements Taylor, LLC","16 Oakwood Road, Huntington, NY 11743",16 Oakwood Road,Huntington,NY,11743,
Theisen's Supply Inc,"Theisen's Supply, Inc.","6201 Chavanelle Road, Dubuque, IA 52002",6201 Chavanelle Road,Dubuque,IA,52002,
Lexington County Health Service District Inc,"Lexington County Health Services District, Inc. (paper)",,,,,,
"Lanier, Westerfield, Deal & Proctor CPA's","Lanier, Westerfield, Deal & Proctor, CPA's (""LWDP"")",,,,,,
Aptos Inc,"Aptos (for Atwood Distributing, L.P.","500 S Garland Road, Enid, OK 73703)",500 S Garland Road,Enid,OK,73703,
Cayan LLC,Cayan LLC,"1 Federal Street, Second Floor, Boston, MA 02110","1 Federal Street, Second Floor",Boston,MA,02110,
Ulteig Engineers Inc,"Ulteig Engineers, Inc.","3350 38th Ave S, Fargo, ND 58102",3350 38th Ave S,Fargo,ND,58102,
Palm Bay International,Palm Bay Int'l,"48 Harbor Park Drive, Port Washington, NY 11050 (paper)",48 Harbor Park Drive,Port Washington,NY,11050,
Ambassador Title Service,"Ambassador Title Service, RTS Title & Escrow & DTI Title & Escrow",,,,,,
Chimes Gourmet-Roxy Trading Inc,"Chimes Gourmet-Roxy Trading, Inc.","389 N. Humane Way, Pomona, CA 91768",389 N. Humane Way,Pomona,CA,91768,
Equian LLC,Equian LLC,"5975 Castle Creek Parkway N. Dr. #100, Indianapolis, IN 46250",5975 Castle Creek Parkway N. Dr. #100,Indianapolis,IN,46250,
Ameriprise Financial Inc,"Ameriprise Financial, Inc.","707 Second Avenue S, Minneapolis, MN 55474",707 Second Avenue S,Minneapolis,MN,55474,00-696-1957
Aptos Inc,"Aptos, Inc. (3rd party provider of digital commerce platform services for Mrs Prindables)","945 East Paces Ferry Road, Suite 2500, Atlanta, GA 30326","945 East Paces Ferry Road, Suite 2500",Atlanta,GA,30326,
Aptos Inc,"Aptos, Inc. (3rd party provider of digital commerce platform services for Affy Tapple)","945 East Paces Ferry Road, Suite 2500, Atlanta, GA 30326","945 East Paces Ferry Road, Suite 2500",Atlanta,GA,30326,
Roberts Hawaii Tours Inc,"Roberts Hawaii, Inc.","680 Iwilei Road #700, Honolulu, HI 96817",680 Iwilei Road #700,Honolulu,HI,96817,
Rod's Western Palace,"Rod's Western Palace (""Rod's"")",,,,,,
Benchmark A Global Hospitality Company,Benchmark - A Global Hospitality Company,"4 Waterway Square Place, Suite 300, The Woodlands, TX 77380","4 Waterway Square Place, Suite 300",The Woodlands,TX,77380,
Allied Minds LLC,"Allied Minds, LLC","100 High Street, 28th Floor, Boston, MA 02110","100 High Street, 28th Floor",Boston,MA,02110,
John Deere Financial,John Deere Financial,"6400 NW 86th St, Johnston, IA 50131",6400 NW 86th St,Johnston,IA,50131,
#N/A,Abbott Nutrition,"3300 Stelzer Road, Columbus, OH 43219",3300 Stelzer Road,Columbus,OH,43219,
CenturyLink Inc,CenturyLink,"100 CenturyLink Dr., Monroe, LA 71203",100 CenturyLink Dr.,Monroe,LA,71203,
JoFit LLC,JoFit,"995 Mearns Road, Warminster, PA 18974",995 Mearns Road,Warminster,PA,18974,
Arabella Advisors LLC,Arabella Advisors LLC,"1201 Connecticut Ave., NW, Ste 300, Washington, DC 20036","1201 Connecticut Ave., NW",Washington,DC,20036,
SunTrust Bank Inc,SunTrust Bank,"P.O. Box 4418, Atlanta, GA 30302",P.O. Box 4418,Atlanta,GA,30302,
State Bank of Lincoln,State Bank of Lincoln,"508 Broadway, Lincoln, IL 62656",508 Broadway,Lincoln,IL,62656,
Intuit Inc,"Intuit, Inc.","2535 Garcia Avenue, Mountain View, CA  94043",2535 Garcia Avenue,Mountain View,CA,94043,11-329-0969
Bentley University,Bentley University,"175 Forest Street, Waltham, MA 02452",175 Forest Street,Waltham,MA,02452,
Dumac Business Systems Inc,"Dumac Business Systems, Inc.",,,,,,
Eddie Bauer LLC,Eddie Bauer ,,,,,,
Independent Owners Cooperative LLC,Ground Round - Bangor,,,,,,
Honig's Whistle Stop Inc,"Honig's Whistle Stop, Inc.",,,,,,
Kimpton Hotels & Restaurant Group LLC,Kimpton Hotels  ,,,,,,
Omni Hotels,Omni Hotels  ,,,,,,
Pictureframes.com,Pictureframes.com,,,,,,
Springfield Armory,Springfield Armory ,,,,,,
Starwood Hotels & Resorts Worldwide Inc,Starwood Hotels,,,,,,
Wise Company Inc,Wise Company Inc.,,,,,,
Intex Recreation Corp,Intex Recreation Corp,"4001 Via Oro Ave., Ste 210, Long Beach, CA 90810","4001 Via Oro Ave., Ste 210",Long Beach,CA,90810,
Family Service Rochester,Family Service Rochester,"4600 18th Ave, NW, Rochester, MN 55901","4600 18th Ave, NW",Rochester,MN,55901,
Amplify Education Inc,"Amplify Education, Inc.","55 Washington Street, 8th Floor, Brooklyn, NY 11201","55 Washington Street, 8th Floor",Brooklyn,NY,11201,
Yahoo! Inc,Yahoo Inc.,,,,,,
The Honest Kitchen Inc,"The Honest Kitchen, Inc.","111 14th Street, San Diego, CA 92101",111 14th Street,San Diego,CA,92101,
HealthInfoNet,HealthInfoNet,"125 Presumpscot St., Box 8, Portland, ME 04103","125 Presumpscot St., Box 8",Portland,ME,04103,
San Diego Christian College,San Diego Christian College,,,,,,
Plymouth Harbor on Sarasota Bay,Plymouth Harbor on Sarasota Bay,"700 John Ringling Blvd, Sarasota, FL 34236",700 John Ringling Blvd,Sarasota,FL,34236,
TransPerfect Global Inc,"TransPerfect Global, Inc.","3 Park Avenue, 39th Floor, NY, NY 10016","3 Park Avenue, 39th Floor",New York,NY,10016,
Epic Technologies LLC,Epic Technologies LLC (subsidiary of NEO Tech),"9340 Owensmouth Ave., Chatsworth, CA 91311",9340 Owensmouth Ave.,Chatsworth,CA,91311,
Maxor National Pharmacy Services LLC,"Maxor National Pharmacy Services, LLC",,,,,,
OmniGuide Inc,"OmniGuide, Inc.","4 Maquire Road, Lexington, MA 02421",4 Maquire Road,Lexington,MA,02421,
Equifax Consumer Services LLC,Equifax Consumer Services LLC,,,,,,
Boeing Co,The Boeing Company,"100 North Riverside, Chicago, IL 60606",100 North Riverside,Chicago,IL,60606,
College of Southern Idaho,College of Southern Idaho,,,,,,
Land Title Guarantee Co,Land Title Guarantee Co.,"5975 Greenwood Plaza Blvd, Ste 220, Greenwood Village, CO 80111","5975 Greenwood Plaza Blvd, Ste 220",Greenwood Village,CO,80111,
Sweeney Drywall Finishes Corp,Sweeney Drywall Finishes Corp,"330 Codman Hill Road, Boxborough, MA 01719",330 Codman Hill Road,Boxborough,MA,01719,
AmTote International Inc,AmTote International Inc.,,,,,,
Berkeley College,Berkeley College,"44 Rifle Camp Road, Woodland Park, NJ 07424",44 Rifle Camp Road,Woodland Park,NJ,07424,
MDF Instruments,MDF Instruments,"31416 Agoura Road, Suite 180, Westlake Village, CA 91361","31416 Agoura Road, Suite 180",Westlake Village,CA,91361,
King McNamara Moriarty LLP,"King, McNamara, Moriarty, LLP","473 Washington Street, Norwood, MA 02062",473 Washington Street,Norwood,MA,02062,
Sunrun Inc,Sunrun Inc.,"595 Market Street, 29th Floor, San Francisco, CA 94105","595 Market Street, 29th Floor",San Francisco,CA,94105,
M Stanley Metz & Company Inc,"M. Stanley Metz & Company, Inc.","1 Washington Street, Melrose, MA 02176",1 Washington Street,Melrose,MA,02176,
DBM Global Inc,"DBM Global, Inc.","3020 E. Camelback Road, Suite 100, Phoenix, AZ 85016","3020 E. Camelback Road, Suite 100",Phoenix,AZ,85016,
ScholarChip Card LLC,"ScholarChip Card, LLC","6 Commercial Street, Hicksville, NY 11801",6 Commercial Street,Hicksville,NY,11801,
Kuhana Associates LLC,"Kuhana Associates, LLC","3375 Koapaka Street, Suite B-256, Honolulu, HI 96819","3375 Koapaka Street, Suite B-256",Honolulu,HI,96819,
Communications Engineering Co,Communications Engineering Co.,"405 Boyson Road, Hiawatha, IA 52233",405 Boyson Road,Hiawatha,IA,52233,
International Code Council Inc,International Code Council,,,,,,
Charles Komar & Sons Inc,"Charles Komar & Sons, Inc.","135 Madison Avenue, NY, NY 10013",135 Madison Avenue,New York,NY,10013,
Honor Flight New England,Honor Flight New England,"1193 Hooksett Road #2, Hooksett, NH 03106",1193 Hooksett Road #2,Hooksett,NH,03106,
Wells Fargo & Co,Wells Fargo,,,,,,
#N/A,"Accolade, Inc.","660 W. Germantown Pike, Suite 500, Plymouth Meeting, PA 19462","660 W. Germantown Pike, Suite 500",Plymouth Meeting,PA,19462,
Summit Reinsurance Services Inc,"Summit Reinsurance Services, Inc.","7030 Pointe Inverness Way, Ste 350, Fort Wayne, IN 46804","7030 Pointe Inverness Way, Ste 350",Fort Wayne,IN,46804,
CoPilot Provider Support Services Inc,"Co-Pilot Provider Support Services, Inc.",,,,,,
Barproducts.com,"Barproducts.com, Inc 2 ",,,,,,
Hilton Worldwide Holding Inc,Hilton,,,,,,
Holabird Sports,Holabird Sports,,,,,,
Jace Bloom,Jace Bloom,,,,,,
Naturalnews Store,Naturalnews Store,,,,,,
Noodles & Co,Noodles & Company,,,,,,
Photobarn Photo Lab,Photobarn Photo Lab,,,,,,
Shannon Restaurant LLC,Shannon Restaurant LLC,,,,,,
Silencer Shop,Silencer Shop,,,,,,
Wilderness Hotel and Golf Resort,Wilderness Hotel and Resort,,,,,,
Spiraledge Inc,"Spiraledge, Inc.","1919 Bascom Ave., Ste 300, Campbell, CA 95008","1919 Bascom Ave., Ste 300",Campbell,CA,95008,
Crosman Corp,Crossman Corporation,"7629 Routes 5 & 20, Bloomfield, NY 14469",7629 Routes 5 & 20,Bloomfield,NY,14469,
R&A Design LLC,R & A Design d/b/a Unison Home,"1911 W. Division Street, Chicago, IL 60622",1911 W. Division Street,Chicago,IL,60622,
MED-PASS Inc,"MED-PASS, Inc.","One Reynolds Way, Dayton, OH 45430",One Reynolds Way,Dayton,OH,45430,
"International Association of Sheet Metal, Air, Rail & Transport Workers, Sheet Metal Workers’ Local Union No. 104","International Association of Sheet Metal, Air, Rail & Transport Workers, Sheet Metal Workers' Local Union No. 104","2610 Crow Canyon Road, San Ramon, CA 94583",2610 Crow Canyon Road,San Ramon,CA,94583,
Community Health Plan of Washington,Community Health Plan of Washington,"720 Olive Way, Suite 300, Seattle, WA 98101","720 Olive Way, Suite 300",Seattle,WA,98101,
Common Bond Inc,"CommonBond, Inc.","524 Broadway, 6th Floor, New York, NY 10012","524 Broadway, 6th Floor",New York,NY,10012,
Safe for Home Products LLC,"Safe for Home Products LLC, d/b/a Naturepedic","16925 Pakr Circle Drive, Chagrin Falls, OH 44023",16925 Pakr Circle Drive,Chagrin Falls,OH,44023,
Graphik Dimensions Ltd,"Graphik Dimensions, Ltd","2103 Brentwood Street, High Point, NC 27263",2103 Brentwood Street,High Point,NC,27263,
The Topps Company Inc,The Topps Company Inc.,"One Whitehall Street, New York, NY 10004",One Whitehall Street,New York,NY,10004,
Brandywine Pediatrics PA,"Brandywine Pediatrics, P.A.",,,,,,
Dover Federal Credit Union,Dover Federal Credit Union,"1075 Silver Lake Blvd, Dover, DE 19904",1075 Silver Lake Blvd,Dover,DE,19904,
#N/A,Acuatlanta.net,,,,,,
Banner Health Inc,Banner Health,,,,,,
Data Control Systemts Inc,"Data Control Systemts, Inc.",,,,,,
DXE Medical Inc,DXE Medical Inc.,,,,,,
Gun Mag Warehouse,Gun Mag Warehouse,,,,,,
Hairbow Center LLC,"Hairbow Center, LLC",,,,,,
HEI Hotels & Resorts,HEI Hotels & Resorts,,,,,,
Hofbrauhaus St.Petersburg,Hofbrauhaus St.Petersburg,,,,,,
Honig's Whistle Stop Inc,Honig's,,,,,,
Palms Casino Buffet,Palms Casino Buffet,,,,,,
Vitality Medical Inc,Vitality Medical Inc.,,,,,,
University of South Carolina Upstate,University of South Carolina Upstate,,,,,,
"Bomberg, Roach & Hanson PLLC","Bomberg, Roach & Hanson, PLLC","Minneapolis, MN",,Minneapolis,MN,,
BraceAbility Inc,BraceAbility Inc.,"Cedar Rapids, IA",,Cedar Rapids,IA,,
University of Maine,University of Maine,,,,,,07-175-0426
Claremont University Consortium,Claremont University Consortium,"101 South Mills Avenue, Claremont, CA 91711",101 South Mills Avenue,Claremont,CA,91711,
Western Union Financial Services Inc,"Western Union Financial Services, Inc.","12500 Belford Ave., Englewood, CO 80112",12500 Belford Ave.,Englewood,CO,80112,
State Farm Mutual Automobile Insurance Company,State Farm Mutual Automobile Ins Co,"One State Farm Plaza, Bloomington, IL 61710",One State Farm Plaza,Bloomington,IL,61710,
The Federal Savings Bank,The Federal Savings Bank,"300 North Elizabeth Street, Ste 3E, Chicago, IL 60657","300 North Elizabeth Street, Ste 3E",Chicago,IL,60657,
Breville USA Inc,"Breville USA, Inc.","19400 S. Western Ave., Torrance, CA 90501",19400 S. Western Ave.,Torrance,CA,90501,
Anchor Loans LP,Anchor Loans,"5230 Las Virgenes Road, Suite 105, Calabasas, CA 91302","5230 Las Virgenes Road, Suite 105",Calabasas,CA,91302,
Julep Beauty Inc,Julep Beauty Inc.,"111 Queen Anne Ave., North Suite 200, Seattle, WA 98122","111 Queen Anne Ave., North Suite 200",Seattle,WA,98122,
Brennan Recupero Cascione Scungio and McAllister LLP,Brennan Recupero Cascione Scungio and McAllister LLP,"362 Broadway, Providence, RI 02009",362 Broadway,Providence,RI,02009,
"Guilmartin, DiPiro & Sokolowski LLC","Guilmartin, DiPiro & Sokolowski, LLC",,,,,,
Gustafson & Wargo CPA's LLP,Gustafson & Wargo CPA's LLP,"3264 Seneca Turnpike, Canastota, NY 13032",3264 Seneca Turnpike,Canastota,NY,13032,
Dr Melissa D. Selke,Dr. Melissa Selke,"390 Amwell Road, Building 4, Suite 405, Hillsborough, NJ 08844","390 Amwell Road, Building 4, Suite 405",Hillsborough,NJ,08844,
Lang Companies Inc,"The LANG Companies, Inc.","20825 Swenson Drive, Waukesha, WI 53186",20825 Swenson Drive,Waukesha,WI,53186,
#N/A,Acer.com 2542984530,,,,,,
Dailysale.com,Dailysale.com,,,,,,
SwervePoint LLC,SwervePoint LLC,"75 Sylvan Street, Danvers, MA 01923",75 Sylvan Street,Danvers,MA,01923,
State Street Bank & Trust Co,State Street Bank & Trust Co.,"One Iron Street, State Street Channel Center, Boston, MA 02210","One Iron Street, State Street Channel Center",Boston,MA,02210,
Caesar's Entertainment,Caesars Entertainment,"One Caesars Palace Drive, Las Vegas, NV 89109",One Caesars Palace Drive,Las Vegas,NV,89109,
Backcountry Gear,Backcountry Gear,"1855 W. 2nd Ave, Eugene, Oregon 97402; (800) 953-5499",1855 W. 2nd Ave,Eugene,OR,97402,
Madison Square Garden Co,The Madison Square Garden Co.,"Madison Square Garden, 2 Pennsylvania Plaza, New York, NY 10121","Madison Square Garden, 2 Pennsylvania Plaza",New York,NY,10121,
Educents Inc,Educents Inc,"369 Sutter Street, San Francisco, CA 94108",369 Sutter Street,San Francisco,CA,94108,
Michigan State University,Michigan State University,"Hannah Administration Building, 426 Auditorium Road, Rom 494, East Lansing, MI 48824","Hannah Administration Building, 426 Auditorium Road, Rom 494",East Lansing,MI,48824,
BWTX Associates,BWTX Associates,"4408 Spricewood Springs Road, Austin, TX 78759",4408 Spricewood Springs Road,Austin,TX,78759,
State Farm Insurance Co,State Farm,"One State Farm Plaza, Bloomington, IL 61710",One State Farm Plaza,Bloomington,IL,61710,
Peachtree Neurological Clinic PC,Peachtree Orthopaedic Clinic,"2001 Peachtree Road, N.E., Suite 705, Atlanta, GA 30309","2001 Peachtree Road, N.E., Suite 705",Atlanta,GA,30309,
Springfield Armory,Springfield Armory,"420 West Main Street, Geneseo, IL 61254",420 West Main Street,Geneseo,IL,61254,
QVC Inc,"QVC, Inc.","1200 Wilson Drive, West Chester, PA 19380",1200 Wilson Drive,West Chester,PA,19380,
Times Three Clothier LLC,"Times Three Clothier, d/b/a Yummie by Heather Thomson","530 Seventh Avenue, Suite 1505, NY, NY 10018","530 Seventh Avenue, Suite 1505",New York,NY,10018,
Eye Institute of Marin,"Eye Institute of Marin/Kathryn Najafi-Tagol, MD","4000 Civic Center Drive, Suite 200A, San Rafael, CA 94903","4000 Civic Center Drive, Suite 200A",San Rafael,CA,94903,
Charles Schaw & Co Inc,Charles Schwab & Co.,"211 Main Street, San Francisco, CA 94105",211 Main Street,San Francisco,CA,94105,
Eileen Fisher Inc,"Eileen Fisher, Inc.","2 Bridge Street, Suite 230, Irvington, NY 10533","2 Bridge Street, Suite 230",Irvington,NY,10533,
Politi & Magnifico LLC,Politi & Magnifico LLC,"5 Edgewood Avenue, Greenwich, CT 06830",5 Edgewood Avenue,Greenwich,CT,06830,
UFCW Local 655,UFCW Local 655 Food Employers Joint Pension Plan,"300 Weidman Road, Ballwin, MO  63011",300 Weidman Road,Ballwin,MO,63011,
Best Health Physical Therapy LLC,Best Health Physical Therapy LLC,"772 Long Hill Road, Groton, CT 06340",772 Long Hill Road,Groton,CT,06340,
Nationstar Mortgage LLC,Nationstar Mortgage LLC,"8950 Cypress Waters Blvd, Coppell, TX 75019",8950 Cypress Waters Blvd,Coppell,TX,75019,
Emblem Health,Emblem Health,"55 Water Street, NY, NY 10041",55 Water Street,New York,NY,10041,
Rebecca Minkoff LLC,Rebecca Minkoff,"16 West 22nd Street, 7th FL, New York, NY 10010","16 West 22nd Street, 7th FL",New York,NY,10010,
Christian Louboutin LLC,Christian Louboutin LLC,"306 West 38th Street, 12th Floor, NY, NY 10018","306 West 38th Street, 12th Floor",New York,NY,10018,
National Wholesale Company Inc,National Wholesale Corporation Inc.,"400 National Blvd, Lexington, North Carolina 27292",400 National Blvd,Lexington,NC,27292,
Prime Inc,"Prime, Inc.","2740 N. Mayfair, Springfield, MO 65803",2740 N. Mayfair,Springfield,MO,65803,
Thirty Three Threads Inc,"Thirty Three Threads, Inc.",,,,,,
International E-Z UP Inc,"International E-Z UP, Inc.","1900 Second Street, Norco, CA 92860",1900 Second Street,Norco,CA,92860,
Harbortouch,Harbortouch,,,,,,
Landry's Inc,Landry's Inc.,,,,,,
Lulus.com,Lulus.com,,,,,,
Sally Beauty Holdings Inc,Sally Beauty 005,,,,,,
"City of Middletown, New York",City of Middletown,"16 James Street, Middletown, NY 10940",16 James Street,Middletown,NY,10940,
Pacific Concepts Group Inc,"Pacific Concepts Group, Inc. d/b/a National Satellite Center (""NSC"")","Long Beach, California",,Long Beach,CA,,
Natural Life Collections Inc,"Natural Life Collections, Inc.",,,,,,
Eastwood Co,Eastwood Company,"263 Shoemaker Road, Pottstown, PA 19464",263 Shoemaker Road,Pottstown,PA,19464,
Borden Perlman Insurance,Borden Perlman Insurance,"250 Phillips Blvd, Suite 280, Ewing Township, NJ 08618","250 Phillips Blvd, Suite 280",Ewing Township,NJ,08618,
Delta Career Education Corp,Delta Career Education Corp,"99 Canal Center Plaza, Suite 501, Alexandria, VA 22314","99 Canal Center Plaza, Suite 501",Alexandria,VA,22314,
Vera Bradley Inc,"Vera Bradley, Inc.","12420 Stonebridge Road, Roanoke, IN 46783",12420 Stonebridge Road,Roanoke,IN,46783,
HD Vest Investment Services,HD Vest Investment Services,"6333 State Highway 161, Irving, TX 75038",6333 State Highway 161,Irving,TX,75038,
Toronto-Dominion Bank,TD Bank N.A.,"9000 Atrium Way, Mounty Laurel, NJ 08054",9000 Atrium Way,Mounty Laurel,NJ,08054,
Vaupell Holdings Inc,"Vaupell Holdings, Inc.","1114 N.W. 53rd Street, Seattle, WA 98107",1114 N.W. 53rd Street,Seattle,WA,98107,
Scentlok Technologies,Scentlok Technologies,"1731 Wierengo Dr, Muskegon, MI  49442",1731 Wierengo Dr,Muskegon,MI,49442,
VF Outlet Inc,"VF Outlet, Inc.",,,,,,
Santoro CPA and SimpleBooks Corp,Santoro CPA and SimpleBooks Corp,,,,,,
Novation Settlement Solutions,Novation Settlement Solutions,"1641 Worthington Road, Suite 410, West Palm Beach, FL 33409","1641 Worthington Road, Suite 410",West Palm Beach,FL,33409,
American Medical ID,American Medical ID,,,,,,
Bailey's Inc,Bailey's Inc,,,,,,
CDs,CDs,,,,,,
HK Parts,HK Parts,,,,,,
Hyatt Hotel Corp,Hyatt Hotels,,,,,,
Kalahari Resort,Kalahari Resort,,,,,,
Longfield Gardens LLC,Longfield Gardens LLC,,,,,,
Penn National Gaming,Penn National Gaming,,,,,,
SAS Shoes,SAS Shoes,,,,,,
The Clevelander Restaurant,The Clevelander Restaurant,,,,,,
Trusted Health Products,Trusted Health Products,,,,,,
Wendys Co,Wendy's ,,,,,,
Wharton Farm,Wharton Farm,,,,,,
Jive Software,Jive Software - Producteev,"501 2nd Street, Suite 202, San Francisco, CA 94107","501 2nd Street, Suite 202",San Francisco,CA,94107,
IMX Medical Management Inc,"IMX Medical Management, Inc.","1700 Paoli Pike, Malvern, PA 19355",1700 Paoli Pike,Malvern,PA,19355,
Yahoo! Inc,Yahoo,,,,,,
New Jersey Spine Center,New Jersey Spine Center,"40 Main Street, Chatham, NJ 07928",40 Main Street,Chatham,NJ,07928,
Stallcup & Associates CPAs,"Stallcap & Associates, CPAs","2595 Mission Street, Suite 300, San Francisco, CA 94110","2595 Mission Street, Suite 300",San Francisco,CA,94110,
Freddie Mac,Freddie Mac,"8200 Jones Branch Drive, McLean, VA 22102",8200 Jones Branch Drive,McLean,VA,22102,
#N/A,ACTIVEOutdoors,"171 N. Harwood, Dallas, TX 75201",171 N. Harwood,Dallas,TX,75201,
Lulu's Fashion Lounge Inc,"Lulu's Fashion Lounge, Inc.",,,,,,
Kimpton Hotels & Restaurant Group LLC,Kimpton Hotels & Restaurants,,,,,,
University Gastroenterology Inc,"University Gastroenterology (""UGI"")",,,,,,
Noble House Hotels & Resorts,Noble House Hotels & Resorts,"600 6th Street South, Kirkland, WA 98033",600 6th Street South,Kirkland,WA,98033,
QR Lending,QR Lending,"555 Zor Shine Place, Suite 100, Madison, WI 53719",555 Zor Shine Place,Madison,WI,53719,
M Holdings Securities Inc,"M Holdings Securites, Inc.",,,,,,
Gray Television Inc,"Gray Television, Inc.",,,,,,
Nourse Farms Inc,Nourse Farms,,,,,,
Athens Orthopedic Clinic,Athens Orthopedic Clinic,,,,,,
Exterran,Exterran,,,,,,
KontrolFreek LLC,"KontrolFreek, LLC",,,,,,
Toyota Motor Credit Corp,Toyota Financial Services,"19001 So. Western Ave, Privacy Compliance EF-12, Torrance, CA","19001 So. Western Ave, Privacy Compliance EF-12",Torrance,CA,,
Casino Morongo,Casino Morongo,,,,,,
EyeBuy Direct Inc,Eyebuydirect Inc,,,,,,
Noble House Hotels & Resorts,Noble House Hotels & Resorts,,,,,,
Rosen Plaza Hotel,Rosen Plaza Hotel,,,,,,
TN Marketing  LLC,TN Marketing  LLC,,,,,,
DXE Medical Inc,"DXE Medical, Inc.","1001 Flagpole Court, Brentwood, TN 37027",1001 Flagpole Court,Brentwood,TN,37027,
Eddie Bauer LLC,"Eddie Bauer, LLC","10401 NE 8th Street, Suite 500, Belevue, WA 98004","10401 NE 8th Street, Suite 500",Belevue,WA,98004,
Precision Pipeline LLC,"Precision Pipeline, LLC","3314 56th Street, Eau Claire, WI 54703",3314 56th Street,Eau Claire,WI,54703,
HEI Hotels & Resorts,HEI Hotel & Resorts,,,,,,
Pax Labs Inc,"PAX Labs, Inc.","660 Alabama Street, 2nd Fl, San Francisco, CA 94110","660 Alabama Street, 2nd Fl",San Francisco,CA,94110,
Penn State Alumni Association,Penn State Alumni Association,"Hintz Family Alumni Center, University Park, PA 16802",Hintz Family Alumni Center,University Park,PA,16802,
#N/A,"7-Eleven, Inc.","3200 Hackberry Road, Irving, TX 75063",3200 Hackberry Road,Irving,TX,75063,
EBSCO Sign Group Inc,"EBSCO Sign Group, LLC","1400 8th Street North, Clanton, AL 35045",1400 8th Street North,Clanton,AL,35045,00-339-6256
Green Valley Mountain School,Green Valley Mountain School,,,,,,
Multi-Color Corp,Multi-Color Corp.,"4053 Clough Woods Drive, Batavia, OH 54103",4053 Clough Woods Drive,Batavia,OH,54103,
Schwan's Home Service Inc,"Schwan's Home Service, Inc.","115 West College Drive, Marshall, MN 56258",115 West College Drive,Marshall,MN,56258,
#N/A,Academy of Nutrition & Dietetics,"120 S. Riverside Plaza, Chicago, IL  60606",120 S. Riverside Plaza,Chicago,IL,60606,
Travel Caddy Inc,"Travel Caddy, Inc., dba Travelon","700 Touhy Ave, Elk Grove Fillage, IL 60007",700 Touhy Ave,Elk Grove Fillage,IL,60007,
MedAltus LLC,"MedAltus, LLC",,,,,,
Banner Health Inc,Banner Health,"2901 N. Central Ave., Phoenix, AZ 83012",2901 N. Central Ave.,Phoenix,AZ,83012,
KGA Inc,"KGA, Inc.","The Meadows, 161 Worcester Road, Framingham, MA 01701","The Meadows, 161 Worcester Road",Framingham,MA,01701,
Nordic Consulting Partners Inc,"Nordic Consulting Partners, Inc.","740 Regent Street, Suite 400, Madison, WI 53715","740 Regent Street, Suite 400",Madison,WI,53715,
Pro Performance Sports LLC,"Pro Performance Sports, LLC","2081 Faraday Ave, Carlsbad, CA 92008",2081 Faraday Ave,Carlsbad,CA,92008,
inVentiv Health Inc,inVentiv Health Inc.,"1 Van de Graaff Drive, Burlington, MA 01803",1 Van de Graaff Drive,Burlington,MA,01803,
CiCi Enterprises LP,"CiCi Enterprises, LP","1080 West Bethel Road, Coppell, TX 75019",1080 West Bethel Road,Coppell,TX,75019,
Internet Chess Club Inc,"Internet Chess Club, Inc.","5820 Forbes Ave., Suite 1, Pittsburgh, PA 15217","5820 Forbes Ave., Suite 1",Pittsburgh,PA,15217,
NLU Products LLC,"NLU Products, LLC","2801 N. Thanksgiving Way, Suite 300, Lehi, UT 84043","2801 N. Thanksgiving Way, Suite 300",Lehi,UT,84043,
San Antonio Shoemakers Inc,San Antonio Shoemakers,"1717 SAS Drive, San Antonio, TX 78224",1717 SAS Drive,San Antonio,TX,78224,
Matador Recordings LLC,"Matador Recordings, LLC (d/b/a Matador Direct)","134 Grand Street, New York, NY 10013",134 Grand Street,New York,NY,10013,
USA Field Hockey,USA Field Hockey,"5540 North Academy Blvd, Suite 100, Colorado Springs, CO 80918","5540 North Academy Blvd, Suite 100",Colorado Springs,CO,80918,
American Stationery,American Stationery,,,,,,
Cstars of Maine,Cstars of Maine,,,,,,
Discount Online Parts,Discount Online Parts,,,,,,
Gadget Guard,Gadget Guard,,,,,,
Giftcollector.com,Giftcollector.com,,,,,,
Hershey Entertainment & Resorts Co,Hersheypark (:),,,,,,
Lucky Pet Inc,Lucky Pet Inc.,,,,,,
PNI Digitial Media,PNI Digitial Media,,,,,,
Quarterdeck Seafood Bar,Quarterdeck Seafood Bar,,,,,,
WWW.sealedbysanta.com,WWW.sealedbysanta.com,,,,,,
Project Management Institute,Project Management Institute,"14 Campus Blvd, Newton Square, PA 19073",14 Campus Blvd,Newton Square,PA,19073,
IAP Worldwide Services Inc,"IAP Worldwide Services, Inc.","7315 North Atlantic Avenue, Cape Canaveral, FL 32920",7315 North Atlantic Avenue,Cape Canaveral,FL,32920,
Gamesa Wind US LLC,Gamesa Wind US LLC,"1150 Northbrook Dr., Suite 150, Trevose, IN 19053","1150 Northbrook Dr., Suite 150",Trevose,IN,19053,
Career Education Corporation,Career Education Corporation,"231 N Martingale Road, Schaumberg, IL 60173",231 N Martingale Road,Schaumberg,IL,60173,
American Association for the Advancement of Science,American Association for the Advancement of Science,"1200 New York Avenue NW, Washington, DC 20005",1200 New York Avenue NW,Washington,DC,20005,
North Carolina State University,North Carolina State University,"Raleigh, NC 27695",,Raleigh,NC,27695,
Water Environment Federation,Water Environment Federation,"601, Wythe Street, Alexandria, VA 22314","601, Wythe Street",Alexandria,VA,22314,
Omni Hotels & Resorts,Omni Hotels and Resorts,,,,,,
Wendys Co,"Wendco of Maine,LLC (part of The Wendy's Company)","One Dave Thomas Blvd., Dublin, OH 43017",One Dave Thomas Blvd.,Dublin,OH,43017,
KontrolFreek LLC,KontrolFreek LLC,,,,,,
Pennsylvania Lumbermens Mutual Insurance Co,Pennsylvania Lumbermens Mutual Insurance Company,"2005 Market Street, Suite 1200, Philadelphia, PA 19103",2005 Market Street,Philadelphia,PA,19103,
Hard Rock Hotel & Casino in Las Vegas,Hard Rock Hotel and Casino Las Vegas,"455 Paradise Road, Las Vegas, NV 89169",455 Paradise Road,Las Vegas,NV,89169,
Bucknell University,Bucknell University,"701 Moore Ave., Lewisburg, PA 17837",701 Moore Ave.,Lewisburg,PA,17837,
Grand Valley State University,Grand Valley State University,"One Campus Drive, Allendale, MI 49401",One Campus Drive,Allendale,MI,49401,
Foundation of the Massachusetts Eye and Ear Infirmary Inc,"Foundation of the Massachusetts Eye and Ear Infirmary, Inc.","Massachusetts Eye and Ear Infirmary, 243 Charles Street, Boston, MA 02214","Massachusetts Eye and Ear Infirmary, 243 Charles Street",Boston,MA,02214,
Stanford University,Stanford University,"Office of Audit, Compliance and Privacy, Room 10, Encina Hall, 616 Serra Street, Stanford, CA 94305-6212","Office of Audit, Compliance and Privacy, Room 10, Encina Hall, 616 Serra Street",Stanford,CA,94305-6212,
Uber Technologies Inc,"Uber Technologies, Inc. (""Uber"")",,,,,,
Aone Touch Inc,A-One Touch Registers,,,,,,
Central Payments Cpay,Central Payments Cpay,,,,,,
Cricketers,Cricketers,,,,,,
Department of Child Services,Department56Corner.com,,,,,,
Dinatouch,Dinatouch,,,,,,
Discount Rubber Stamps,Discount Rubber Stamps,,,,,,
Dungarees LLC,Dungarees LLC,,,,,,
In Vogue Inc,In Vogue Incorporated,,,,,,
Incipio Technologies Inc,Incipio Technologies Inc.,,,,,,
KEH,KEH,,,,,,
Lighterusa.com,Lighterusa.com,,,,,,
Missing Link Network,Missing Link Network (Ecellar),,,,,,
Rollie and Helens Musky Shop,Rollie and Helens Musky Shop,,,,,,
Technology Marketing Inc,Technology Marketing Inc.,,,,,,
Tiemart Inc,"Tiemart, Inc.","525 Morris Avenue, Mundelein, IL 60060",525 Morris Avenue,Mundelein,IL,60060,
Franklin Templeton Investor Services LLC,"Franklin Templeton Investor Services, LLC (""FTIS"")","3344 Quality Drive, Rancho Cordova, CA 95670",3344 Quality Drive,Rancho Cordova,CA,95670,
Fidelity Investments,"Fidelity Investments, Corporate Compliance","200 Seaport Blvd.  Z1N, Boston, MA 02210",200 Seaport Blvd.  Z1N,Boston,MA,02210,
Wepawaug-Flagg Federal Credit Union,"Wepawaug-Flagg Federal Credit Union (""WFFCU"")","105 Sanford Street, Hamden, CT 06514",105 Sanford Street,Hamden,CT,06514,
Crane Co,Crane Co.,"100 First Stamford Place, Stamford, CT 06092",100 First Stamford Place,Stamford,CT,06092,
Empathia Inc,"Empathia, Inc.","N17 W24300 Riverwood Drive #300, Waukesha, WI 53188",N17 W24300 Riverwood Drive #300,Waukesha,WI,53188,
Pasternack Tilker Ziegler Walsh Stanton & Romano LLP,"Pasternack Tilker Ziegler Walsh Stanton & Romano, LLP","233 Broadway, New York, NY 10279",233 Broadway,New York,NY,10279,
SD Associates PC,"SD Associates P.C. (""SD"")","300 Yorktown Plaza, Elkins Park, PA 19027",300 Yorktown Plaza,Elkins Park,PA,19027,
Shoes West Distribution Inc,"Shoes West Distribution, Inc. (dba Taos Footwear)","2660 Columbia Street, Torrance, CA 90503",2660 Columbia Street,Torrance,CA,90503,
National Network of Abortion Funds,"National Network of Abortion Funds (""NNAF"")",,,,,,
LinkedIn Corp,LinkedIn,"2029 Stierlin Court, Mountain View. CA 94043",2029 Stierlin Court,Mountain View,CA,94043,
Kroger Co,"The Kroger Co. (""Kroger"")","1014 Vine Street, Cincinnati, OH  45202-1100",1014 Vine Street,Cincinnati,OH,45202-1100,
Milwaukee Bucks,Milwaukee Bucks,"1001 N. 4th Street, Milwaukee, WI  53203",1001 N. 4th Street,Milwaukee,WI,53203,
Stamford Podiatry Group PC,Stamford Podiatry Group,"1234 Summer Street, Suite 202, Stamford, CT  06905","1234 Summer Street, Suite 202",Stamford,CT,06905,
Maritz Holdings Inc,"Maritz Holdings, Inc. (""Maritz"")","P.O. Box 6336, Portland, OR  97228",P.O. Box 6336,Portland,OR,97228,
Match-Up Solutions LLC,"Match-Up Solutions (""Match-Up"")",,,,,,
Skylar quinn,Skylar quinn,"33 E. Pearl St, Nashua, NH03060",33 E. Pearl St,Nashua,NH,03060,
Single Digits,Single Digits,,,,,,
DeLong & Brower PC,"DeLong & Brower, PC","238 Hoover Blvd #10, Holland, MI  49423",238 Hoover Blvd #10,Holland,MI,49423,
Metropolitan Jewish Health System Inc,"Metropolitan Jewish Health System, Inc.","6323 7th Avenue, Brooklyn, NY  11220",6323 7th Avenue,Brooklyn,NY,11220,
MYR Group Inc,MYR Group Inc.,"1701 Golf Road, Suite 3-1012, Rolling Meadows, IL  60008","1701 Golf Road, Suite 3-1012",Rolling Meadows,IL,60008,
USI Inc,"USI, Inc.","200 Summit Lake Drive, Suite 350,Valhalla, NY  10595","200 Summit Lake Drive, Suite 350",Valhalla,NY,10595,
Curse Inc,"Curse, Inc.","100 Spectrum Center Drive, Ste. 450, Irvine, CA 92618","100 Spectrum Center Drive, Ste. 450",Irvine,CA,92618,
Batdorf & Bronson Coffee Roasters,Batdorf & Bronson Coffee Roasters,"200 Market NE, Olympia, WA  98501",200 Market NE,Olympia,WA,98501,
Kolodzey & Cox CPAs PC,"Kolodzey & Cox CPAs, PC","Gibbsboro, NJ",,Gibbsboro,NJ,,
Distinct Software Solutions,Distinct Software Solutions dba Course Trends,"9111 Jollyville Rd. Suite 108, Austin, TX  78759",9111 Jollyville Rd. Suite 108,Austin,TX,78759,
Conway Group Inc,"Conway Group, Inc.","10 Capitol Street,Nashua, NH  03063",10 Capitol Street,Nashua,NH,03063,
Sure Fit Inc,Sure Fit Inc.,,,,,,
Myadventurebooks.com,Myadventurebooks.com,,,,,,
Heartland Brewery,Heartland Brewery,,,,,,
Four Winds Casino Resort,Four Winds Casino,,,,,,
Elephant Bar,Elephant Bar,,,,,,
Kalamazoo College,Kalamazoo College,"1200 Academy Street, Kalamazoo, MI 49006",1200 Academy Street,Kalamazoo,MI,49006,
Group Benefit Services Inc,"Group Benefits Services, Inc. (""GBS"")",,,,,,
Certifikid LLC,CertifiKid LLC,"P.O. Box 60871, Potomac, MD 20854",P.O. Box 60871,Potomac,MD,20854,
NTT Data Inc,NTT Data,"P.O. Box 1122, Charlotte, NC 28201-1122; PO#122004A",P.O. Box 1122,Charlotte,NC,28201-1122,
Southern Michigan Bank & Trust,"Southern Michigan Bank & Trust (""SMBT"")","51 W. Pearl Street, Coldwater, MI 49036",51 W. Pearl Street,Coldwater,MI,49036,
Rug Doctor LLC,"Rug Doctor, LLC","4701 Old Shepard Place, Plano, TX 75093 ",4701 Old Shepard Place,Plano,TX,75093,
Intuit Inc,"Intuit, Inc.","2535 Garcia Ave., Mountain View, CA  94043",2535 Garcia Ave.,Mountain View,CA,94043,11-329-0969
Sanctuary Clothing LLC,Sanctuary Clothing LLC,"3611 N. San Fernando Blvd., Burbank, CA 91505",3611 N. San Fernando Blvd.,Burbank,CA,91505,
Leavitt Group Enterprises,Leavitt Group,"216 South 22 West, Cedar City, UT 84720",216 South 22 West,Cedar City,UT,84720,
Brunswick Corp ,"Brunswick Corporation, Illinois",,,,,,
Union League Club of Chicago,Union League Club of Chicago,"65 W. Jackson Blvd., Chicago, IL 60604",65 W. Jackson Blvd.,Chicago,IL,60604,
PhyMed Management LLC,"PhyMed Management, LLC","110 29th Avenue North, Suite 301, Nashville, TN 37203","110 29th Avenue North, Suite 301",Nashville,TN,37203,
Hill & Knowlton Strategies LLC,Hill & Knowlton Strategies,"825 Third Avenue, Suite 2400, New York, NY 10022","825 Third Avenue, Suite 2400",New York,NY,10022,
Hi-Tec Sports USA Inc,"Hi-Tec Sports USA, Inc, (and Magnum Boots)","7632 SW Durham Road, Suite 305, Tigard, OR 97224","7632 SW Durham Road, Suite 305",Tigard,OR,97224,
Rhode Island Blood Center,Rhode Island Blood Center,"405 Promenade Street, Providence, RI 02908",405 Promenade Street,Providence,RI,02908,
Heritage Oaks Bank,Heritage Oaks Bank,"1222 Vine Street, Paso Robles, CA 93446",1222 Vine Street,Paso Robles,CA,93446,
Draper James LLC,Draper James LLC,"21 West 46th Street, New York, NY 10036",21 West 46th Street,New York,NY,10036,
New Hampshire Distributors LLC,New Hampshire Distributors LLC,"65 Regional Drive, Concord, NH 03301",65 Regional Drive,Concord,NH,03301,
#N/A,Advanced International Marketing,"225 American Way, Monroe, OH 45140",225 American Way,Monroe,OH,45140,
Michels Corp,Michels Corporation,"P.O. Box 128, 817 West Main Street, Brownsville, WI  53006","P.O. Box 128, 817 West Main Street",Brownsville,WI,53006,
ProSchools,"ProSchools, 800-299-7812",,,,,,
Behavioral Science Technology Inc,"Behavioral Science Technology, Inc. (""BST"")",,,,,,
VBrick Systems Inc,"Vbrick Systems, Inc.","2121 Cooperative Way, Suite 100, Herndon, VA 20171","2121 Cooperative Way, Suite 100",Herndon,VA,20171,
Anthelio Healthcare Solutions Inc,Anthelio Healthcare Solutions Inc.,,,,,,
Fruitful Yield Inc,"The Fruitful Yield, Inc.","229 W. Roosevelt Road, Lombard, IL 60148",229 W. Roosevelt Road,Lombard,IL,60148,60-745-8101
Geltrude & Company LLC,"Geltrude & Company, LLC","513 Franklin Avenue, Nutley, NJ 07110",513 Franklin Avenue,Nutley,NJ,07110,
doTERRA International LLC,"doTERRA International, LLC",,,,,,
Lucky Pet Inc,Lucky Pet,"4301 Aurora Avenue North, Seattle, WA 98103",4301 Aurora Avenue North,Seattle,WA,98103,
TMEIC Corp,TMEIC Corporation and TMEIC International Corporation,"2060 Cook Drive, Salem, VA 24153",2060 Cook Drive,Salem,VA,24153,
Highway Toll Administration LLC,Highway Toll Administration,"P.O. Box 30, Roslyn Heights, NY 11577",P.O. Box 30,Roslyn Heights,NY,11577,
Seven Hills Foundation Inc,"Seven Hills Foundation, Inc.","81 Hope Avenue, Worcester, MA 01603",81 Hope Avenue,Worcester,MA,01603,
TTI Floor Care North America,TTI Floor Care North America,"8405 IBM Drive, Charlotte, NC 28262",8405 IBM Drive,Charlotte,NC,28262,
Discount Party Supplies,Discount Party Supplies,,,,,,
South 40 Restaurant,South 40 Restaurant,,,,,,
Tennis Express,Tennis Express,,,,,,
Tidewater Community College,Tidewater Community College,,,,,,
#N/A,Academy of Art University,"79 New Montgomery Street, San Francisco, CA 94105",79 New Montgomery Street,San Francisco,CA,94105,
OnDeck Capital Inc,"OnDeck Capital, Inc.","901 North Stuart Street, Suite 700, Arlington, VA 22203","901 North Stuart Street, Suite 700",Arlington,VA,22203,
Nations Lending Corp,Nations Lending Corporation,"4 Summit Park Drive, Suite 200, Independence, OH 44131","4 Summit Park Drive, Suite 200",Independence,OH,44131,
Schwaab Inc,"Schwaab, Inc.","12855 W. Lisbon Road, Suite 100,Brookfield, WI 53005","12855 W. Lisbon Road, Suite 100",Brookfield,WI,53005,
Staminus Communications,Staminus Communications,"4695 MacArthur Court, 11th Floor, Newport Beach, CA 92660","4695 MacArthur Court, 11th Floor",Newport Beach,CA,92660,
Wynden Stark,"Wynden Stark, dba GQR Global Markets/City Internships","360 Madison Avenue, FL24, New York, NY 10017",360 Madison Avenue,New York,NY,10017,
Midland Paper Packaging & Supplies,Midland Paper Packaging & Supplies,"101 E. Palatine Road, Wheeling, IL 60090",101 E. Palatine Road,Wheeling,IL,60090,
Asure Software,Asure Software,"110 Wild Basin Road, Suite 100, Austin, TX 78746","110 Wild Basin Road, Suite 100",Austin,TX,78746,
Lime Energy Co,Lime Energy Company,"4 Gateway Center, 4th Floor,Newark, NJ 07102","4 Gateway Center, 4th Floor",Newark,NJ,07102,
Whiting-Turner Contracting Co,"The Whiting-Turner Contracting Company (""Whiting Turner"")","300 East Joppa Road, Baltimore, MD 21286",300 East Joppa Road,Baltimore,MD,21286,
Clinton Health Access Initiative Inc,"Clinton Health Access Initiative (""CHAI"")",,,,,,
Fallon Community Health Plan Inc,"Fallon Health- Ultra Benefits (Fallon Community Health Plan, Inc.)","One Chestnut Place, 10 Chestnut Street, Worcester, MA 01608","One Chestnut Place, 10 Chestnut Street",Worcester,MA,01608,
BH Equities LLC,"BH Equities, LLC","400 Locust Street, Suite 790, Des Moines, IA 50309","400 Locust Street, Suite 790",Des Moines,IA,50309,
The Cook & Boardman Group LLC,"The Cook & Boardman Group, LLC",,,,,,
The Coast Distribution System Inc,"The Coast Distribution System, Inc.","500 W.Madison Street, Chicago, IL 60661",500 W.Madison Street,Chicago,IL,60661,
Block and Company Inc,"Block and Company, Inc.","1111 Wheeling Road, Wheeling, IL 60090",1111 Wheeling Road,Wheeling,IL,60090,
Unified Physician Management,Unified Physician Management,"1501 Yamato Road, Suite 200, Boca Raton, FL 33431","1501 Yamato Road, Suite 200",Boca Raton,FL,33431,
Universal Service Administrative Co,"Universal Service Administrative Company (""USAC"")","2000 L Street NW, Suite 200, Washington, DC 20036","2000 L Street NW, Suite 200",Washington,DC,20036,
Citizens Financial Group Inc,Citizens Financial Group,"100 Sockanosset Crossroad, Cranston, RI 02920",100 Sockanosset Crossroad,Cranston,RI,02920,
Pivotal Software Inc,"Pivotal Software, Inc.","3495 Deer Creek Road, Palo Alto, CA 94304",3495 Deer Creek Road,Palo Alto,CA,94304,
Mansueto Ventures LLC,Mansueto Ventures LLC,"250 Greenwich Street 29th Floor, New York, NY 10007",250 Greenwich Street 29th Floor,New York,NY,10007,
Traphagen & Traphagen CPAs LLC,"Traphagen & Traphagen CPAs, LLC","234 Kinderkamack Road, Oradell, NJ 07649",234 Kinderkamack Road,Oradell,NJ,07649,
Burgess Advertising & Marketing,Burgess Advertising & Marketing,"1290 Congress Street, Portland, ME 04102",1290 Congress Street,Portland,ME,04102,
IASIS Healthcare,IASIS Healthcare,,,,,,
Ithaka,ITHAKA,"2 Rector Street, 18th Floor, New York, NY 10006","2 Rector Street, 18th Floor",New York,NY,10006,
GlaxoSmithKline LLC,GlaxoSmithKline LLC,"5 Crescent Drive, NY 0300, Philadelphia, PA 19112",5 Crescent Drive,Philadelphia,PA,19112,
#N/A,Affinion Group,"6 High Ridge Park, Stamford, CT  06905",6 High Ridge Park,Stamford,CT,06905,
Armstrong Backus & Co LLP,"Armstrong Backus & Co., LLP","515 West Harris Avenue, Suite 200, San Angelo, TX 76902","515 West Harris Avenue, Suite 200",San Angelo,TX,76902,
Olympic Steel Inc,"Olympic Steel, Inc.","22901 Millcreek Boulevard, Suite 650, Highland Hills, Ohio 44122","22901 Millcreek Boulevard, Suite 650",Highland and Hills,OH,44122,
Mohawk Mountain Ski Area Inc,"Mohawk Mountain Ski Area, Inc.","46 Great Hollow Road, Cornwall, CT 06753",46 Great Hollow Road,Cornwall,CT,06753,
DSCI LLC,"DSCI, LLC","303 Wyman Street, Suite 260, Waltham, MA 02451","303 Wyman Street, Suite 260",Waltham,MA,02451,
YourEncore Inc,"YourEncore, Inc.","20 N Meridian St., Suite 800, Indianapolis, IN 46204","20 N Meridian St., Suite 800",Indianapolis,IN,46204,
Kantar Group,"The Kantar Group, HR Operations","3333 Warrenville Rd, Ste 400, Lisle, IL 60532","3333 Warrenville Rd, Ste 400",Lisle,IL,60532,
Northern State Bank,Northern State Bank,"321 Main Street W, Ashland, Wisconsin 54806",321 Main Street W,Ashland,WI,54806,
NRT LLC,NRT LLC,"175 Park Avenue, Madison, NJ 07940",175 Park Avenue,Madison,NJ,07940,
CareCentrix Inc,"CareCentrix, Inc.","20 Church Street, 12th Floor, Hartford, CT 06103","20 Church Street, 12th Floor",Madison,CT,06103,
Gryphon Technologies LC,Gryphon Technologiies LC,"80 M Street SE, Suite 600, Washington, DC 20003","80 M Street SE, Suite 600",Washington,DC,20003,
Management Health Systems Inc,"Management Health Systems, Inc, d/b/a MedPro Healthcare Staffing",,,,,,
Lanyon Solutions Inc,"Lanyon Solutions, Inc.","717 North Harwood, Suite, 2200, Dallas, TX 75201","717 North Harwood, Suite, 2200",Dallas,TX,,
Numerex Corp,Numerex Corp,"3330 Cumberland Blvd SE, Suite 700, Atlanta, GA 30339","3330 Cumberland Blvd SE, Suite 700",Atlanta,GA,30339,
Netcracker Technology Corp,Netcracker Technology Corp.,"University Office Park, III, 95 Sawyer Road, Suite 600, Waltham, MA 02453","University Office Park, III, 95 Sawyer Road, Suite 600",Waltham,MA,02453,
#N/A,Advance Auto Parts,,,,,,
Bahia Hotel Lodging,Bahia Hotel Lodging,,,,,,
Caribe Royale Resort,Caribe Royale Resort,,,,,,
MEI-GSR Holdings LLC,Grand Sierra Resort,,,,,,
KTP.com,KTP.com,,,,,,
Seekinghealth.com,Seekinghealth.com,,,,,,
Washington Duke Inn,Washington Duke Inn,,,,,,
www.reddingmedical.com,www.reddingmedical.com,,,,,,
SevOne Inc,SevOne,"800 Boylston St., Suite 500; Boston, MA 02199","800 Boylston St., Suite 500",Boston,MA,02199,
PerkinElmer Inc,"PerkinElmer, Inc.","940 Winter Street, Waltham, MA 02451",940 Winter Street,Waltham,MA,02451,
Matrix Service Co,"Matrix Service Co., Matrix Service, Matrix PDM Engineering, Matrix North American Construction, Ltd and Matrix No. American Construction, Inc. (collectively, ""Matrix"")","5100 E. Skelly Dr., Ste. 700, Tulsa, OK 74135","5100 E. Skelly Dr., Ste. 700",Tulsa,OK,74135,
ConvaTec Inc,"ConvaTec, Inc.",,,,,,
La Quinta Holdings Inc,"La Quinta Holdings, Inc.,",,,,,,
eClinical Works LLC,"eClinical Works, LLC","Westborough, MA ",,Westborough,MA,,
Converse Inc,"Converse, Inc. (affiliate of NIKE, Inc.)",,,,,,
Care.com Inc,"Care.com, Inc.","77 Fourth Avenue, 5th Floor, Waltham, MA 02451","77 Fourth Avenue, 5th Floor",Waltham,MA,02451,
Seagate US LLC,Seagate US LLC,"10200 S. De Anza Boulevard, Cupertino, CA 95014",10200 S. De Anza Boulevard,Cupertino,CA,95014,
#N/A,1-800-Flowers.com,"One Old Country Road, Suite 500, Carle Place, NY 11514","One Old Country Road, Suite 500",Carle Place,NY,11514,
GCI Communication Corp,GCI,"2550 Denali Street, 1000, Anchorage, AK 99503-2751","2550 Denali Street, 1000",Anchorage,AK,99503-2751,
Turner Construction Co,Turner Construction Company,,,,,,
ISCO Industries Inc,"ISCO Industries, Inc.","100 Witherspoon Street 2 West, Louisville, KY 40202",100 Witherspoon Street 2 West,Louisville,KY,40202,
Applied Systems Inc,"Applied Systems, Inc.","200 Applied Parkway, University Park, IL 60484",200 Applied Parkway,University Park,IL,60484,
#N/A,"Abel Womack, Inc.","1 International Way, Lawrence, MA 01843",1 International Way,Lawrence,MA,01843,
Contact Solutions LLC,"Contact Solutions, LLC",,,,,,
York Hospital,York Hospital,,,,,,
#N/A,21st Century Oncology,"2270 Colonial Boulevard, Fort Myers, FL 33907",2270 Colonial Boulevard,Fort Myers,FL,33907,
Rosen Hotels & Resorts Inc,Rosen Hotels & Resorts,"9840 International Drive, Orlando, FL 32819",9840 International Drive,Orlando,FL,32819,
Information Innovators Inc,"Information Innovators, Inc.","7400 Fullerton Road, Suite 210, Springfield, VA 22153","7400 Fullerton Road, Suite 210",Springfield,VA,22153,
"PaperWorks Industries, Inc.","PaperWorks Industries, Inc.","40 Monument Rd., Bala Cynwyd, PA 19004",40 Monument Rd.,Bala Cynwyd,PA,19004,
#N/A,"Actifio, Inc.","333 Wyman Street, Waltham, MA 02451",333 Wyman Street,Waltham,MA,02451,
TN Marketing  LLC,TN Marketing,"1903 Wayzata Blvd East, Wayzata, MN 55391",1903 Wayzata Blvd East,Wayzata,MN,55391,
Landry's Inc,"Landry's, Inc., Golden Nugget Atlantic City, LLC, Golden Nuttet Lake Charles, LLC, GNL Corp, GNLV Corp., and Riverboat Corporation of Mississippi","1510 W. Loop South, Houston, TX 77027",1510 W. Loop South,Houston,TX,77027,
Valley Hope Association,Valley Hope Association,"P.O. Box 510, Norton, KS 67654",P.O. Box 510,Norton,KS,67654,
Lynn University,Lynn University,"Boca Raton, Florida",,Boca Raton,FL,,
Applause App Quality Inc,"Applause App Quality, Inc.","100 Pennsylvania Ave., Framingham, MA 01701",100 Pennsylvania Ave.,Framingham,MA,01701,
Superior Labels,Superior Labels,"2390 Cumberland Square Dr., Bettendorf, IA 52722",2390 Cumberland Square Dr.,Bettendorf,IA,52722,
Erincondren.com,ERINCONDREN.COM,,,,,,
Calpine Corporation,Calpine Corporation,"717 Texas St., Ste 1000, Houston, TX 77002","717 Texas St., Ste 1000",Houston,TX,77002,
Estech Systems Inc,"Estech Systems, Inc.","3701 E. Plano Parkwary, Plano, Texas 75074",3701 E. Plano Parkwary,Plano,TX,75074,
Poycom Inc,"Poycom, Inc.",,,,,,
Shire Human Genetic Therapies Inc,"Shire Human Genetic Therapies, Inc.",,,,,,
JetBlue Airways Corp,Jet Blue Airways Corp,"27-01 Queens Plaza North, Long Island City, NY 11101",27-01 Queens Plaza North,Long Island City,NY,11101,
Ballet Makers Inc,"Ballet Makers, Inc., d/b/a Capezio","One Campus Road, Totowa, NJ  07512",One Campus Road,Totowa,NJ,07512,
Sheptoff Reuber & Co PC,"Sheptoff, Reuber & Co., P.C.","111 New London Turnpike, Glastonbury, CT 06033",111 New London Turnpike,Glastonbury,CT,06033,
QVC Inc,"QVC, Inc.","1200 Wilson Dr., West Chester, PA 19380",1200 Wilson Dr.,West Chester,PA,19380,
Gyft Inc,"Gyft, Inc.","150 W. Evelyn Ave., Suite 300, Mountain View, CA 94041","150 W. Evelyn Ave., Suite 300",Mountain View,CA,94041,
University of Central Florida,University of Central Florida,"4000 Central Florida Blvd, Orlando, FL  32816",4000 Central Florida Blvd,Orlando,FL,32816,
Gap Inc,"Gap, Inc.","Two Folsom Street, San Francisco, CA 94105",Two Folsom Street,San Francisco,CA,94105,
Bailey's Inc,"Bailey's, Inc.","1222 Commerce Ave, Suite D, Woodland, CA 95776","1222 Commerce Ave, Suite D",Woodland,CA,95776,
Toyota Motor Credit Corp,Toyota Motor Credit Corporation,"19001 So. Western Avenue, Privacy Compliance EF12, Torrance, CA 90501","19001 So. Western Avenue, Privacy Compliance EF12",Torrance,CA,90501,
Oiselle Running Inc,"Oiselle Running, Inc.","7109 Woodlawn Ave, NE, Suite 201, Seattle, WA 98115","7109 Woodlawn Ave, NE, Suite 201",Seattle,WA,98115,
Drager Medical Systems Inc,Drager ,,,,,,
Tax Slayer LLC,TaxSlayer,"3003 TaxSlayer Drive, Evans, GA 30809",3003 TaxSlayer Drive,Evans,GA,30809,
Richardson & Company PC,"Richardson & Company, PC","165 Village Street, Medway, MA  02053",165 Village Street,Medway,MA,02053,
Neiman Marcus Group Inc,Neiman Marcus Group,"One Marcus Square, 1618 Main Street, Dallas, TX 75201","One Marcus Square, 1618 Main Street",Dallas,TX,75201,
Hain Celestial Group Inc,"The Hain Celestial Group, Inc.","1111 Marcus Avenue, Lake Success, NY 11042",1111 Marcus Avenue,Lake Success,NY,11042,
#N/A,"Account Control Technology, Inc. (ACT)","21700 Oxnard Street, Suite 1400, Woodland Hills, California 91367","21700 Oxnard Street, Suite 1400",Woodland Hills,CA,91367,
HK Financial Services,HK Financial Services,,,,,,
Blue Dolphin Group LLC,"Blue Dolphin, LLC ",,,,,,
ID Experts,id experts,"10300 SW Greenburg Road, Ste 570, Portland, OR 97223 (o/b/o Kicky Pants)10300 SW Greenburg Road, Ste 570",10300 SW Greenburg Road,Portland,OR,97223,
John Scheepers Seeds LLC,"John Scheepers Seeds, LLC (d/b/a John Scheepers Kitchen Garden Seeds)","23 Tulip Drive, P.O. Box 638, Bantam, CT 06750",23 Tulip Drive,Bantam,CT,06750,
NCH Healthcare System Inc,NCH Healthcare System,"350 7th Street North, Naples, FL 34102",350 7th Street North,Naples,FL,34102,
Maine General Medical Center,Maine General Medical Center,"35 Medical Center Parkway, Augusta, Maine 04330",35 Medical Center Parkway,Augusta,ME,04330,
New West Health Services,"New West Health Services, d/b/a New West Medcare",,,,,,
Jacks Barbeque,Jacks Barbeque,,,,,,
NorthShore Care Supply,Northshore Care Supply,,,,,,
Palace Casino Resort,Palace Casino Resort,,,,,,
Oak Hill Citgo Gas and Convenience,Oak Hill Citgo Gas and Convenience,"230 US Rte 1, P.O. Box 606, Scarborough, ME  04074","230 US Rte 1, P.O. Box 606",Scarborough,ME,04074,
Hyatt Hotel Corp,Hyatt Hotels Corporation,"71 South Wacker, Illinois 60606",71 South Wacker,,IL,60606,
HSBC Bank USA NA,HSBC Bank USA National Association,"1800 Tysons Boulevard, McLean, VA 22101",1800 Tysons Boulevard,McLean,VA,22101,
JB Autosports Inc,"JB Autosports, Inc.","1-8 Jefferson Ave., Des Moines, Iowa 50314",1-8 Jefferson Ave.,Des Moines,IA,50314,
Phillip Capital Inc,"Phillip Capital, Inc.","141 West Jackson Boulevard, Suite 3050, Chicago, IL 60604","141 West Jackson Boulevard, Suite 3050",Chicago,IL,60604,
ShopAtHome.com,ShopAtHome.com,,,,,,
Clarks America's Inc,"Clarks Americas, Inc.","156 Oak Street, Newton Upper Falls, MA 02464",156 Oak Street,Newton Upper Falls,MA,02464,
Grunt Style LLC,"Grunt Style, LLC",,,,,,
Blucora Inc,"Blucora, Inc.","1425 60th St., NE, Ste. 300, Cedar Rapids, IA 52402","1425 60th St., NE, Ste. 300",Cedar Rapids,IA,52402,
Grunt Style LLC,Grunt Style LLC,"400 Fullerton Ave, Carol Stream, Illinois 60188",400 Fullerton Ave,Carol Stream,IL,60188,
MRO Stop LLC,MROStop LLC,"P.O. Box 7207, Charlotte, NC 28241",P.O. Box 7207,Charlotte,NC,28241,
Regional Income Tax Agency,Regional Income Tax Agency,,,,,,
Livestream LLC,Livestream LLC,"195 Morgan Avenue, Brooklyn, NY  11237",195 Morgan Avenue,Brooklyn,NY,11237,
Matson Navigation Company Inc,"Matson Navigation Company, Inc.","555 12th Street, Oakland, CA 94607",555 12th Street,Oakland,CA,94607,
#N/A,"Acclaim Technical Services, Inc., (""ATS"")","11091 Sunset Hills Rd., Suite 150, Reston, VA 20190","11091 Sunset Hills Rd., Suite 150",Reston,VA,20190,
Farm to Feet,Farm to Feet,"1546 Carter Street, Mount Airy, NC",1546 Carter Street,Mount Airy,NC,,
Dungarees LLC,"Dungarees, LLC","500 East Broadway, Columbia, MO 65201",500 East Broadway,Columbia,MO,65201,
The Home Depot Inc,"The Home Depot, Inc.",,,,,,
Thomas Nelson Community College,Thomas Nelson Community College of the Virginia Community College System,"99 Thomas Nelson Drive, Hampton, VA 23666",99 Thomas Nelson Drive,Hampton,VA,23666,
EZCONTACTS.COM,EZCONTACTS.COM,,,,,,
Wilderness at the Smokies,Wilderness at the Smokies,"1424 Old Knoxville Hwy, Sevierville, TN 37876",1424 Old Knoxville Hwy,Sevierville,TN,37876,
"Catenacci, Markowitz, Delandri, Rosner & Company","Catenacci, Markowitz, Delandri, Rosner & Company",,,,,,
Vesta Property Management,Vesta Property Services,,,,,,
Centerra Group LLC,"Centerra Group, LLC through  ADP",,,,,,
Mary Ruth Buchness MD Dermatologist PC,"Mary Ruth Buchness, MD, Dermatologist, PC","560 Broadway, Suite 406, NY, NY 10012",560 Broadway,New York,NY,10012,
Toyota Motor Credit Corp,Toyota Motor Credit Corporation,"19001 So. Western Avenue, Privacy Compliance EF12, Torrance, CA 90501",19001 So. Western Avenue,Torrance,CA,90501,
TuneCore Inc,TuneCore,"63 Pearl Street, Box #256, Brooklyn, NY 11201","63 Pearl Street, Box #256",Brooklyn,NY,11201,
Mayer-Johnson.com,Mayer-Johnson.com,,,,,,
New England Calendar and Novelty Co,New England Calendar and Novelty Company,"133 Legion Drive, Cobleskill, NY 12043",133 Legion Drive,Cobleskill,NY,12043,
Cottage Health System,Cottage Health,"400 West Pueblo Street, Santa Barbara, CA  93015",400 West Pueblo Street,Santa Barbara,CA,93015,
Muji USA Ltd,MUJI USA LIMITED,"250 W39th S., Suite 605, NY, NY 10018","250 W39th S., Suite 605",New York,NY,10018,
NorthShore Care Supply,NorthShore Care Supply,"Buffalo Grove, Illinois ",,Buffalo Grove,IL,,
Keenan & Associates,Keenan & Associates,"2355 Crenshaw Blvd, Suite 200, Torrance, CA 90501","2355 Crenshaw Blvd, Suite 200",Torrance,CA,90501,
Barproducts.com,Barproducts.com,,,,,,
CL Media,CL Media 8772145393,,,,,,
District Lines Inc,District Lines Inc.,,,,,,
In Vogue Inc,In Vogue Incorp,,,,,,
Interstitial Cystitis Network,Interstitial Cystitis Network,,,,,,
Luggage Pros,Luggage Pros,,,,,,
Mandarin Oriental,Mandarin Oriental,,,,,,
SSA Honolulu Zoo,SSA Honolulu Zoo,,,,,,
White Lodging Services Corp,White Lodging - Marriott Hotels,,,,,,
Norton Rose Fulbright US LLP,Norton Rose Fulbright US LLP,"Tabor Center, 1200 17th Street, Suite 1000, Denver, CO 80202","Tabor Center, 1200 17th Street, Suite 1000",Denver,CO,80202,
Hilton Worldwide Holding Inc,"Hilton Worldwide, Inc.","7930 Jones Branch Dr., McLean, VA 22102",7930 Jones Branch Dr.,McLean,VA,22102,
Bay Ridge Toyota,Bay Ridge Toyota,"6401 6th Ave, Brooklyn, NY  11220",6401 6th Ave,Brooklyn,NY,11220,
Wilderness Hotel and Golf Resort,Wilderness Hotel and Golf Resort,"P.O. Box 830, Wisconsin Dells, WI 53965",P.O. Box 830,Wisconsin Dells,WI,53965,
Nova Southeastern University,Nova Southeastern University,,,,,,
B Lane Inc,Fashion to Figure,,,,,,
OH Muhlenberg LLC,"OH Muhlenberg, LLC","440 Hopkinsville Street, Greeville, KY 42345",440 Hopkinsville Street,Greeville,KY,42345,
Noble House Hotels & Resorts,Nobel House Hotels & Resorts,"600 6th Street South, Kirkland, WA 98033",600 6th Street South,Kirkland,WA,98033,
Integrated Listening Systems LLC,"Integrated Listening Systems, LLC","2851 S. Parker Road, Suite 800, Aurora, CO  80014","2851 S. Parker Road, Suite 800",Aurora,CO,80014,
Byram Healthcare,C Stars of Maine (do the POS system for The Common Market),"35 Bradley Drive, Westbrook, ME 04092",35 Bradley Drive,Westbrook,ME,04092,
Boston University,Boston University,,,,,,
Santander Bank NA,Santander Bank,"75 State Street, Boston, MA 02109",75 State Street,Boston,MA,02109,
Dow Corning Corp,Dow Corning Corp.,"1 East Main Street, Bay City, Michigan 48708",1 East Main Street,Bay City,MI,48708,
Mountain Travel Sobek,Mountain Travel Sobek,,,,,,
Digital Theatre LLC,"Digital Theatre, LLC (operator of the ShowTix4U website)",,,,,,
Yellowfront Grocery,Yellowfront Grocery,"Upper Main Street, Central Market Drive, Damariscotta, ME 04543",Upper Main Street,Central Market Drive,ME,04543,
Interstitial Cystitis Network,Interstitial Cystitis Network,"5636 Del Monte Court, Santa Rosa, CA 95409",5636 Del Monte Court,Santa Rosa,CA,95409,
BMO Harris Bank N.A.,"BMO Harris Bank, N.A. (Diner's Club)","P.O. Box 6012, Carol Stream, IL 60197",P.O. Box 6012,Carol Stream,IL,60197,
CCI Construction Services LLC,"CCI Construction Services, LLC","111 West 16th Ave., Suite 400, Anchorage, AK 99501","111 West 16th Ave., Suite 400",Anchorage,AK,99501,
#N/A,"Accuform Manufacturing, Inc. and Safety Marketing Services, LLC",,,,,,
Bombassocks.com,Bombassocks.com,,,,,,
Brunswick Hotel & Tavern,Brunswick Hotel & Tavern,,,,,,
Itickets-retail,Itickets-retail,,,,,,
Mrs Fields Gifts,Mrs. Fields Gifts,,,,,,
Nextep Systems,Nextep Systems,,,,,,
Trump Hotel Collection,Trump Intl Hotel & Tow,,,,,,
Wahi Diner,Wahi Diner,,,,,,
N Stevens Inc,N. Stevens Inc.,"25 Richardson St,, Portland, ME  04103",25 Richardson St,Portland,ME,04103,
#N/A,American Bankers Association,"1120 Connecticut Ave., NW, Washington, DC 20036","1120 Connecticut Ave., NW",Washington,DC,20036,
Service Systems Associates Inc,"Service Systems Associates, Inc.","4699 Marion Street, Denver, CO 80216",4699 Marion Street,Denver,CO,80216,
EyeBuy Direct Inc,"EyeBuy Direct, Inc.","2801 South IH 35, Suite 170, Austin, TX 78741; inquiries@eyebuydirect.com",2801 South IH 35,Austin,TX,78741,
Samela Inc,"Samela, Inc., d/b/a NorthShore Care Supply",,,,,,
Dow Jones & Company Inc,Dow Jones,"1211 Avenue of the Americas, NY, NY 10038",1211 Avenue of the Americas,New York,NY,10038,
www.streetsofnewyork.com,www.streetsofnewyork.com,,,,,,
T-Mobile USA Inc,"T-Mobile USA, Inc.","12920 SE 38th Street, Bellevue, WA 98006",12920 SE 38th Street,Bellevue,WA,98006,
#N/A,"Actavis, Inc.","400 Interpace Parkway, Parsippany, NJ 07054",400 Interpace Parkway,Parsippany,NJ,07054,
Scottrade Financial Services Inc,"Scottrade, Inc.","700 Maryville Centre Drive, St. Louis, MO 63141",700 Maryville Centre Drive,St. Louis,MO,63141,
Kohl's Department Stores Inc,"Kohl's Department Stores, Inc.",,,,,,
Becker & Mayer LLC,Becker & Mayer LLC,"11120 NE 33rd place, Suite 101, Bellevue, WA 98004","11120 NE 33rd place, Suite 101",Bellevue,WA,98004,
Trump Hotel Collection,Trump Hotel Collection (Trump International Hotel & Tower Las Vegas & Trump Int'l Waikiki),"2000 Fashoin Show Dr., Las Vegas, NV 98109; 223 Saratoga Rd., Honolulu, HI 96815",2000 Fashoin Show Dr.,Las Vegas,HI,98109,
Scottrade Financial Services Inc,"Scottrade Financial Services, Inc.","P.O. Box 31759, St. Louis, MO 63131",P.O. Box 31759,St. Louis,MO,63131,
Central Maine Healthcare,Central Maine Healthcare,"300 Maine Street, Lewiston, ME 04240",300 Maine Street,Lewiston,ME,04240,
Rite Aid Corp,Rite Aid Corporation,,,,,,
Bed Bath & Beyond Inc,"Bed, Bath & Beyond, Inc.",,,,,,
www.padlocks4less.com,www.padlocks4less.com,,,,,,
Costco Wholesale Corp,Costco Photo Center,"999 Lake Drive, Issaquah, WA 98027",999 Lake Drive,Issaquah,WA,98027,
Duffy's Management Inc,"Duffy's Management, Inc.",,,,,,
Hard Rock Hotel & Casino in Las Vegas,Hard Rock Hotel,,,,,,
Just Suspension,Just Suspension,,,,,,
Lightning New York.com,Lightning New York.com,,,,,,
Miche LLC,Miche LLC,,,,,,
Monteleon Hotel,Monteleon Hotel,,,,,,
MYFREEDOMSMOKES,MYFREEDOMSMOKES,,,,,,
Newton Running Co,NEWTON RUNNING COMPANY,,,,,,
Supplementwarehouse.com,Supplementwarehouse.com,,,,,,
Wahoos Fish Tacos South,Wahoos Fish Tacos South,,,,,,
YapStone Inc,Yapstone,,,,,,
CVS Photo,CVS Photo,,,,,,
Toronto-Dominion Bank,TD Bank,,,,,,
Lifetime Healthcare Co,"The Lifetime Healthcare Companies, including its affiliates Excellus BCBS, Lifetime Health Medical Group, Lifetime Benefit Solutions, Lifetime Care, The MedAmerica Companies, and Univera Healthcare","165 Court Street, Rochester, NY 14647",165 Court Street,Rochester,NY,14647,
#N/A,"ACE Surgical Supply Co., Inc.                                                                                                                                                                                         ",,,,,,
Lando Law Firm LLC,"Lando Law Firm, LLC",,,,,,
Hawaii First Federal Credit Union,Hawaii First Federal Credit Union,,,,,,
Sunquest Information Systems Inc,"Sunquest Information Systems, Inc.","250 South Williams Blvd, Tuscon, AZ 85711",250 South Williams Blvd,Tuscon,AZ,85711,
Utah Food Bank,Utah Food Bank,,,,,,
Brunswick Hotel & Tavern,Brunswick Hotel & Tavern,"4 Noble Street, Brunswick, ME ",4 Noble Street,Brunswick,ME,,
Wm T Burnett & Co/STX,Wm. T. Burnett & Co./STX,"1500 Bush Street, Baltimore, MD 21230",1500 Bush Street,Baltimore,MD,21230,
Milk Nursingwear,Milk Nursingwear,"1801 Peachtree Street, Suite 300, Atlanta, GA 30309","1801 Peachtree Street, Suite 300",Atlanta,GA,30309,
#N/A,Aero Grow,,,,,,
Illinois Bar and Grill,Illinois Bar and Grill,,,,,,
Usbirthcertificate.com,Usbirthcertificate.com,,,,,,
Charge Anywhere LLC,Charge Anywhere,,,,,,
SterlingBackcheck,SterlingBackcheck,"1 State Street Plaza, 24th Floor, New York, NY 10004","1 State Street Plaza, 24th Floor",New York,NY,10004,
Louise Allen of Louise's Bookkeeping Services,Louise Allen of Louise's Bookkeeping Services,,,,,,
Genworth Financial Inc,"Genworth, Data Security Team","P.O. Box 320, Lynchburg, VA 24505",P.O. Box 320,Lynchburg,VA,24505,
Vewpoint Inc,"Vewpoint, Inc.","1515 SE Water Avenue, Suite 300, Portland, OR 97214","1515 SE Water Avenue, Suite 300",Portland,OR,97214,
Web.com Group Inc,"Web.com Group, Inc. (""Web.com"")","12808 Gran Bay Parkway West, Jacksonville, FL 32258",12808 Gran Bay Parkway West,Jacksonville,FL,32258,
Totally Promotional,Totally Promotional,"128 W. Market Street, Celina, Ohio 45822",128 W. Market Street,Celina,OH,45822,
Milestone Hospitality Management LLC,"Milestone Hospitality Management, LLC","717 Light Street, Baltimore, ME 21230",717 Light Street,Baltimore,ME,21230,
CoWorx Staffing Services LLC,CoWorx Staffing Services,"P.O. Box 7130, 1375 Plainfield Avenue, Watchung, NJ 07069","P.O. Box 7130, 1375 Plainfield Avenue",Watchung,NJ,07069,
Church of God International Offices,Church of God International Offices,"P.O. Box 2430, 2490 Keith Street, NW, Cleveland, TN 37311","P.O. Box 2430, 2490 Keith Street, NW",Cleveland,TN,,
Newton Running Co,Newton Running Company,"1375 Walnut Street, #100, Boulder, CO 80302","1375 Walnut Street, #100",Boulder,CO,80302,
GreenWave Scientific Inc,"Green Wave Scientific, Inc.","2720 Discovery Drive, Raleigh, NC 27616",2720 Discovery Drive,Raleigh,NC,27616,
Co Staff Services,Co Staff Services,"29100 Northwestern Highway, Suite 240, Southfield, MI 48034","29100 Northwestern Highway, Suite 240",Southfield,MI,48034,
SMS Hospitality LLC,"SMS Hospitality, LLC","7701 Universal Blvd, Orlando, FL 32819",7701 Universal Blvd,Orlando,FL,32819,
WP Technology Inc,"WP Technology Inc., d/b/a Wattpad","36 Wellington Street East, Suite 200, Toronto, Ontario, Ontario, Canada M5E 1C7","36 Wellington Street East, Suite 200",Toronto,Canada,1C7,
Quest Diagnostics Inc,Quest Diagnostics,"1290 Walll Street West, Lyndhurst, NJ 07071",1290 Walll Street West,Lyndhurst,NJ,07071,
SterlingBackcheck,SterlingBackcheck,"1 State Street Plaza, 24th Floor, New York, NY 10004.","1 State Street Plaza, 24th Floor",New York,NY,10004,
HSBC Bank USA NA,HSBC Bank USA National Association,,,,,,
Medical Informatics Engineering,Medical Informatics Engineering and NoMoreClipboard,"6302 Constitution Drive, Fort Wayne, Indiana 46804",6302 Constitution Drive,Fort Wayne,IN,46804,
YMCA of Greater Pittsburgh,YMCA of Greater Pittsburgh,,,,,,
Richard A Berger CPA,"Richard Berger, CPA","6239 College Ave., Ste 203, Oakland, CA 94618","6239 College Ave., Ste 203",Oakland,CA,94618,
York Hospital,York Hospital Imaging Services,"15 Hospital Drive, York, Maine 03909",15 Hospital Drive,York,ME,03909,
North Carolina State University,North Carolina State University (NC State),"304A Holladay Hall, Campus Box 7008, Raleigh, NC 27695","304A Holladay Hall, Campus Box 7008",Raleigh,NC,27695,
French Lick Resort,French Lick Resort ,,,,,,
Ransomed Heart Ministries,Ransomed Heart Ministries,"4965 N. 30th St., Colorado Springs, CO 80919",4965 N. 30th St.,Colorado Springs,CO,80919,
UCLA Health,UCLA Health,"757 Westwood Plaza, Los Angeles, CA 90095",757 Westwood Plaza,Los Angeles,CA,90095,
Medical Informatics Engineering,"Medical Informatics Engineering, and NoMoreClipboard (a subsidiary of Medical Informatics Engineering)","6302 Constitution Drive, Fort Wayne, Indiana 46804",6302 Constitution Drive,Fort Wayne,IN,46804,
JP Morgan Chase Bank NA,"J.P. Morgan Chase Bank, N.A.",,,,,,
Amsterdam Nursing Home Corp,Amsterdam Nursing Home Corporation,,,,,,
New Horizons Computer Learning Centers Inc,"New Horizons Computer Learning Centers, Inc.","100 4 Falls Corporate Center, Suite 408, West Conshohocken, PA 19428","100 4 Falls Corporate Center, Suite 408",West Conshohocken,PA,19428,
Hershey Entertainment & Resorts Co,Hershey Entertainment and Resorts Company,"27 W. Chocolate Avenue; Hershey, PA 17033",27 W. Chocolate Avenue,Hershey,PA,17033,
Boston University,Boston University,"1 Silber Way, Boston, MA 02215",1 Silber Way,Boston,MA,02215,
Mandarin Oriental,Mandarin Oriental ,,,,,,
Anheuser-Busch Companies LLC,"Anheuser-Busch Companies, LLC ",,,,,,
#N/A,"Aerogrow International, Inc.","6075 Longbow Drive, Boulder, CO 80301",6075 Longbow Drive,Boulder,CO,80301,
Latex Construction Company Inc,Latex Construction Company,"1353 Farmer Road NW Conyers, Georgia 30012",1353 Farmer Road NW,Conyers,GA,30012,
Fidelity Investments,Fidelity Investments,,,,,,
FireKeepers Casino Hotel,FireKeepers Casino Hotel,"Battle Creek, Michigan",,Battle Creek,MI,,
Arkema Inc,"Arkema, Inc.","900 First Avenue, King of Prussia, PA 19406",900 First Avenue,King of Prussia,PA,19406,
Automotive Recovery Services Inc,"Automotive Recovery Services, Inc., d/b/a Vehicle Donation Processing Center",,,,,,
Thompson Kessler Wiest & Borquist PC,Thompson Kessler Wiest & Borquist PC,"111 S. W. Columbia Stret, Suite 750, Portland, OR 97201","111 S. W. Columbia Stret, Suite 750",Portland,OR,97201,
Genius Central Inc,Genius Central,,,,,,
Manchester Hotel Hospitality LLC,"Manchester Hotel Hospitality, LLC","409 Montbrook Lane, Knoxville, TN 37919",409 Montbrook Lane,Knoxville,TN,37919,
Aspex Pos,Aspex Pos,,,,,,
Corkys Bbq,Corkys Bbq,,,,,,
The Home Depot Inc,Home Depot,,,,,,
Bank of Manhattan,Bank of Manhattan--Mortgage Lending,"2131 Rosecrans Ave., Suite 1100, El Segundo, CA 90245","2131 Rosecrans Ave., Suite 1100",El Segundo,CA,90245,
Trustmark Mutual Holding Co,Trustmark Mutual Holding Company,"400 field Drive, Lake Forest, Illinois 60045",400 field Drive,Lake Forest,IL,60045,
Maine School Management Association,Maine School Management Association,"49 Community Drive, Augusta, Maine 04330",49 Community Drive,Augusta,ME,04330,
Medical Informatics Engineering,Medical Informatics Engineering,"6302 Constitution Drive, Fort Wayne, Indiana 46804",6302 Constitution Drive,Fort Wayne,IN,46804,
LC Industries Inc,LC Industries,"4500 Emporer Blvd, Durham, NC 27703",4500 Emporer Blvd,Durham,NC,27703,
Flora Springs Winery and Vineyards,Flora Springs Winery & Vineyards,"1978 West Zinfandel Lane, St. Helena, CA 94574",1978 West Zinfandel Lane,St. Helena,CA,94574,
Donelan Family Wines LLC,"Donelan Family Wines, LLC","3352-D Coffey Lane, Santa Rosa, CA 95403",3352-D Coffey Lane,Santa Rosa,CA,95403,
Charles Krug Winery (C. Mondavi & Family),Charles Krug Winery (C. Mondavi & Family),"2800 Main Street, St. Helena, CA 94574",2800 Main Street,St. Helena,CA,94574,
Fisher Vineyards,Fisher Vineyard,"6200 St. Helena Road, Santa Rosa, CA 95404 ",6200 St. Helena Road,Santa Rosa,CA,95404,
Corison Winery,Corison Winery,"987 St. Helena Way, St. Helena, CA 94574",987 St. Helena Way,St. Helena,CA,94574,
Cain Vineyard and Winery,Cain Vinyard & Winery,"3800 Langtry, St. Helena, CA 94574",3800 Langtry,St. Helena,CA,94574,
Huneeus Vintners LLC,"Huneeus Vintners, LLC through Missing Link Networks, Inc.",,,,,,
Collected Intelligence LLC,Collected Intelligence LLC,"124 Halsey Street, Brooklyn, NY 11216",124 Halsey Street,Brooklyn,NY,11216,
Clif Bar Familty Winery & Farm LLC,"Clif Bar Family Winery & Farm, LLC","1312 Vidovich Ave., St. Helena, CA 94574",1312 Vidovich Ave.,St. Helena,CA,94574,
Peter Michael Winery,Peter Michael Winery,"12400 Ida Clayton Road, Calistoga, CA 94515",12400 Ida Clayton Road,Calistoga,CA,94515,
Global Care Delivery Inc,"Global Care Delivery, Inc., c/o Mark Bodnar","391 Las Colinas Blvd. East, Suite 130715; Irving, TX 75039","391 Las Colinas Blvd. East, Suite 130715",Irving,TX,75039,
Rombauer Vineyards Inc,"Rombauer Vineyards, Inc.","3522 Silverado Trail, St. Helena, CA 94574",3522 Silverado Trail,St. Helena,CA,94574,
Covanta Projects LLC,"Covanta Projects, LLC","445 South Street, Morristown, NJ 07960",445 South Street,Morristown,NJ,07960,
Kosta Browne Winery LLC,"Kosta Browne Winery, LLC",,,,,,
BAE Systems Inc,"BAE Systems Information and Electronic Systems Integration, Inc.","65 Spit Brook Road, Nashua, NH 03060",65 Spit Brook Road,Nashua,NH,03060,
#N/A,"Akorn, Inc.",,,,,,
Hartland Dental LLC,Hartland Dental LLC,"1200 Network Centre Drive., Effingham, IL 62401",1200 Network Centre Drive.,Effingham,IL,62401,
Intimacy Management Co,Intimacy Mangement Company,,,,,,
US HealthWorks Inc,U.S. HealthWorks,"1730 1 St., Sacramento, CA 95821",1730 1 St.,Sacramento,CA,95821,
Sally Beauty Holdings Inc,"Sally Beauty Holdings, Inc. (Sally Beauty)","3001 Colorado Blvd, Denton, TX 76210",3001 Colorado Blvd,Denton,TX,76210,
Copart Inc,"Copart, Inc.",,,,,,
Unity Recovery Group Inc,"Unity Recovery Group, Inc.","630 US Highway 1, Floor 4, North Palm Beach, FL 33408","630 US Highway 1, Floor 4",North Palm Beach,FL,33408,
Diman Regional Vocational Technical High School,Diman Regional Vocational Technical High School,"251 Stonehaven Road, Fall River, Maine 02723",251 Stonehaven Road,Fall River,ME,02723,
SafeandVaultStore.com LLC,SafeandVaultStore.com,,,,,,
Mid-America Apartment Communities Inc,"Mid-America Apartment Communities, Inc.","6584 Poplar Ave, Memphis, TN 38138",6584 Poplar Ave,Memphis,TN,38138,
Bank of America,Bank of America,"P.O. Box 32624, Charlotte, NC 28232",P.O. Box 32624,Charlotte,NC,28232,05-516-9452
CareFirst BlueCross Blueshield,CareFirst BlueCross BlueShield,"1501 S. Clinton Street, Baltimore, MD 21224",1501 S. Clinton Street,Baltimore,MD,21224,
Fosters Grille Cape Coral,Fosters Grille Cape Coral,,,,,,
Jimmy John's Corp,Jimmy John's Corporate,,,,,,
Kmart,Kmart,,,,,,
Park 'N Fly Inc,Park N Fly Online-Reserve,,,,,,
Hotel Beacon,Hotel Beacon,"2130 Broadway at 75th Street, NY, NY 10023",2130 Broadway at 75th Street,New York,NY,10023,
Pennsylvania State University,"The Pennsylvania State University, College of Engineering","101 Hammond Building, University Park, PA 16802-1400",101 Hammond Building,University Park,PA,16802-1400,
"Town of Brunswick, Brunswick Police Dept.","Town of Brunswick, Brunswick Police Dept.","85 Pleasant Street, Brunswick, ME  04011",85 Pleasant Street,Brunswick,ME,04011,
Medical Management LLC,Medical Management LLC,,,,,,
LCRX LLC,LCRX,"8240 East Gelding Dr., Suite 115, Scottsdale, AZ 85260","8240 East Gelding Dr., Suite 115",Scottsdale,AZ,85260,
Honig's Whistle Stop Inc,Honig's Whistle Stop,"7136 Jackson Rd., Ann Arbor, MI 48103",7136 Jackson Rd.,Ann Arbor,MI,48103,
"Cental States Southeast and Southwest Areas Health and Welfare and Pension Funds, Law Department","Cental States Southeast and Southwest Areas Health and Welfare and Pension Funds, Law Department","P.O. Box 5123, Des Plaines, IL 60017-5123",P.O. Box 5123,Des Plaines,IL,60017-5123,
Columbian Financial Group,Columbian Financial Group,"4704 Vestal Parkway East, Binghamton, NY 13902",4704 Vestal Parkway East,Binghamton,NY,13902,
Freedom Smokes Inc,"FreedomSmokes, Inc.","1039 Carrier Drive, Charlotte, NC 28216",1039 Carrier Drive,Charlotte,NC,28216,
AT&T,AT&T,"1120 20th Street, NW Ste 1000, Washington, DC 20036","1120 20th Street, NW Ste 1000",Washington,DC,20036,
Swimsuitsforall.com,Swimsuitsforall.com,,,,,,
News Café,News Cafe,,,,,,
HelloLife,Hellolife,,,,,,
Barbecue Renew Inc,Grillparts Com/barbeque renew,,,,,,
Providence Hospital,Providence Hospital,"1150 Varnum St., N.E., Washington, DC 20017","1150 Varnum St., N.E.",Washington,DC,20017,
Subaru Lung Associates SC,"Subaru Lung Associates, S.C.",,,,,,
HSBC Finance Corp,HSBC Finance Corp.,"26525 North River Woods Boulevard, Suite 100, Mettawa, IL 60045","26525 North River Woods Boulevard, Suite 100",Mettawa,IL,60045,
Austin Powder Company Inc,Austin Powder Co. ,,,,,,
OppenheimerFunds Inc,Oppenheimer Funds,"P.O. Box 5270, Denver, CO 80217-5270; 800-255-2755",P.O. Box 5270,Denver,CO,80217-5270,
Jimmy The Greek's,Jimmy The Greek's,"Maine Mall, 150 Philbrook Rd., S. Portland, Maine 04106","Maine Mall, 150 Philbrook Rd., S.",Portland,MI,04106,
Auburn University,Auburn University,,,,,,
#N/A,"Advanced Data Processing, Inc.",,,,,,
SRI Inc,"SRI, Inc.","8082 Bash St, Indianapolis, Indiana 46250",8082 Bash St,Indianapolis,IN,46250,
Franklin & Marshall College,Franklin & Marshall College,"P.O. Box 3003, Lancaster, PA 17604",P.O. Box 3003,Lancaster,PA,17604,
Weyerhaeuser Co,Weyerhaeuser (through Premera),,,,,,
Fidelity Investments,"Fidelity Investments, on behalf of Momentive Performance Materials Savings Plan",,,,,,
Essex Property Trust Inc,"Essex Property Trust, Inc.","925 East Meadow Drive, Palo Alto, CA 94303",925 East Meadow Drive,Palo Alto,CA,94303,
Retail Capita LLC,"Retail Capital, LLC","1250 Kirts Blvd #100, Troy, MI 48084",1250 Kirts Blvd #100,Troy,MI,48084,
Law Enforcement Targets Inc,Law Enforcement Targets,"8802 West 35W Service Dr. NE, Blaine, MN  55449",8802 West 35W Service Dr. NE,Blaine,MN,55449,
Health Care Service Corp,Health Care Service Corporation (Premera Blue Cross),,,,,,
Nite Ize Inc,"Nite Ize, Inc.",,,,,,
Wendys Co,Wendy's Company,,,,,,
Bank of the West,Bank of the West,,,,,,
Park 'N Fly Inc,Park 'N Fly,,,,,,
Equifax Inc,Equifax,,,,,,
Nuance Communications Inc,Nuance Communications Inc.,"One Wayside Rd., Burlington, MA 01803",One Wayside Rd.,Burlington,MA,01803,
Explosion Sportswear,Explosion Sportswear,,,,,,
Fast Growing Trees,Fast Growing Trees,,,,,,
Test Effects LLC,Test Effects/Cellularoutfitter/Wireless Emporium,,,,,,
Worldwide Wine Spirit Southington,Worldwide Wine Spirit Southington,,,,,,
United Rentals Inc,"United Rentals, Inc. Medical Plan",,,,,,
OneStopParking.com,OneStopParking,"7821 Commerce Dr., Suite 411, Florence, KY 41042","7821 Commerce Dr., Suite 411",Florence,KY,41042,
SVC-West LLC,"SVC West, LLC","6277 Sea Harbor Drive, Orlando, FL 32821",6277 Sea Harbor Drive,Orlando,FL,32821,
Premera Blue Cross,"Premera Blue Cross, including its affiliates Academe, Inc., (fka LifeWise Health Plan of Arizona), Connexion Ins Solutions, LifeWise Health Plan of Washington, LifeWise Health Plan of Oregon, LifeWise Assurance Co. and Vivacity, Inc.","7001 220th St. SW, MS 355, Mountlake Terrace, WA 98043","7001 220th St. SW, MS 355",Mountlake Terrace,WA,98043,
Betterbee,Betterbee,"8 Meader Road, Greenwich, NY 12834",8 Meader Road,Greenwich,NY,12834,
Apple America Group LLC,"Apple American Group, LLC","6200 Oak Tree Blvd, Ste 250, Independence, OH 44131","6200 Oak Tree Blvd, Ste 250",Independence,OH,44131,
Lodge Manufacturing Co,Lodge Manufacturing Company,,,,,,
Lime Crime Inc,"Lime Crime, Inc.",,,,,,
Aurora Health Care Inc,"Aurora Health Care, Inc.","750 West Virginia Street, Milwaikee, WI 53215",750 West Virginia Street,Milwaikee,WI,53215,
North American Securities Administrators Association,Office of Securities (State securities regulators as part of the North American Securities Admin's Assn.),,,,,,
State Medical Association,State Medical  Association,"322 Canal Walk, Indianapolis, IN 46202",322 Canal Walk,Indianapolis,IN,46202,
Kraft Music Ltd,Kraft Music LTD,,,,,,
Pearl Meyer & Partners LLC,"Pearl Meyer & Partners, LLC",,,,,,
#N/A,"AbsoluteCredit, LLC","175 Exchange Street, Bangor, ME 04401",175 Exchange Street,Bangor,ME,04401,
Ascensus Inc,"Ascensus, Inc.",,,,,,
#N/A,"Amedisys, Inc.","5959 S. Sherwood Forest Blvd, Baton Rouse, LA 70816",5959 S. Sherwood Forest Blvd,Baton Rouse,LA,70816,
Bulk Reef Supply Inc,"Bulk Reef Supply, Inc.","6325 Sandburg Road, Golden Valley, MN 55427",6325 Sandburg Road,Golden Valley,MN,55427,
Mark Turner MD,"Mark Turner, M.D.","Las Vegas, Nevada",Las Vegas,Nevada,NV,,
Uber Technologies Inc,"Uber Technologies, Inc.","182 Howard Street, Suite 8, San Francisco, CA  94105","182 Howard Street, Suite 8",San Francisco,CA,94105,
University of Chicago,University of Chicago Biological Sciences Division's Dept. of Medicine,"5841 So. Maryland Ave, MC 6092, Chicago, IL 60637",5841 So. Maryland Ave,Chicago,IL,60637,
Bed Bath & Beyond Inc,"Bed Bath & Beyond and/or its subsidiary, Buy Buy Baby, Inc",,,,,,
CP Franchising LLC,"CP Franchising, LLC (d/b/a Cruise Planners)",,,,,,
PNC Financial Services Group,PNC,,,,,,
Scripps Networks Interactive,"Scripps Networks Interactive (sponsored an ERISA group plan administered by Anthem, Inc.)",,,,,,
Byram Healthcare,C & K Systems / Goodwill Industries,,,,,,
Clam Case LLC,ClamCase LLC,,,,,,
ID Parts LLC,ID Parts ,,,,,,
Kessler Collection,Kessler Collection,,,,,,
Monteleone Hotel,Monteleone Hotel,,,,,,
Staples Inc,Staples,,,,,,
Sun Data Supply,Sun Data Supply,,,,,,
Kaplan University,"Kaplan University,",,,,,,
Citizens Financial Group Inc,Citizen's Financial Group,"100 Sockanosset Crossroads, Cranston, RI  02920",100 Sockanosset Crossroads,Cranston,RI,02920,
University of Maine,UMaine,,,,,,
Exponent Technologies Inc,"Exponent Technologies, Inc.","4970 Landmark Place, Dallas, TX 75254",4970 Landmark Place,Dallas,TX,75254,
Intuit Inc,Intuit Inc.,,,,,,
Frederick County Public Schools,Frederick County Public Schools,"191 South East Sreet, Frederick, MD 21701",191 South East Sreet,Frederick,MD,21701,
Big Fish Games Inc,"Big Fish Games, Inc.","333 Elliot Avenue West, Suite 200, Seattle, WA  98119","333 Elliot Avenue West, Suite 200",Seattle,WA,98119,
Anthem Inc,Anthem,,,,,,
Kohl's Department Stores Inc,"Kohl's Department Stores, Inc.",,,,,,
CICS Employment Services Inc,"CICS Employment Services, Inc.","2941 U.S. Highway 101, Lincoln City, OR 97367",2941 U.S. Highway 101,Lincoln City,OR,97367,
Sky Casino LLC,Sky Casino LLC,"8670 Indiana 56, French Lick, IN 47432",8670 Indiana 56,French Lick,IN,47432,
UMass Memorial Health Care Inc,Umass Memorial Medical Group,,,,,,
Otsuka America Inc,"Otsuka America, Inc.",,,,,,
Direct Marketing Assn,Direct Marketing Assn.,"1615 L St., NW, Suite 1100, Washington, DC 20036","1615 L St., NW, Suite 1100",Washington,DC,,
Ascensus Inc,"Ascensus, Inc.","200 Dryden road, Dresher, PA 19025",200 Dryden road,Dresher,PA,19025,
Park 'N Fly Inc,"Park 'N Fly (""PNF"")","3399 Peachtree Road, Atlanta, GA 30326",3399 Peachtree Road,Atlanta,GA,30326,
Cyberswim Inc,Cyberswim Inc.,,,,,,
Dare County ABC #4,Dare County ABC #4,,,,,,
Dinovite,Dinovite,,,,,,
Fabrick Shack Ecommerce,Fabrick Shack Ecommerce,,,,,,
Lokai Holdings LLC,Lokai,,,,,,
PPL RV Parts Superstore,PPL RV Parts Superstore,,,,,,
Sandpearl Resort,Sandpearl Resort,,,,,,
Staples Inc,Staples,,,,,,
Viator Tours and attractions,Viator Tours and attractions,,,,,,
Barbecue Renew Inc,"Barbecue Renew, Inc.",,,,,,
OppenheimerFunds Inc,Oppenheimer Funds Services,"P.O. Box 5270, Denver, CO  80217",P.O. Box 5270,Denver,CO,80217,
Piech Sales Company LLC,"Piech Slaes Company, LLC, d/b/a Value Pet Supplies","167 Industrial Park Cir, Livingston, TN 38570-6041",167 Industrial Park Cir,Livingston,TN,38570-6041,
#N/A,"Alin Machining Company, Inc. d/b/a Power Plant Services","3131 W. Soffel Ave, Melrose Park, IL 60160",3131 W. Soffel Ave,Melrose Park,IL,60160,
Heartland Credit Union,Heartland Credit Union,,,,,,
Aspire Indiana Inc,"Aspire Indiana, Inc.",,,,,,
Libbey Inc,"Libbey, Inc.",,,,,,
Art of Tea,Art of Tea,,,,,,
Fast Forward Academy LLC,"Fast Forward Academy, LLC",,,,,,
La Jolla Group Inc,"La Jolla Group, Inc.","14350 Myford Road, Irvine, CA 92606",14350 Myford Road,Irvine,CA,92606,
Lokai Holdings LLC,"Lokai Holdings, LLC","170 Varick Street, 12 Floor, NY, NY 10013","170 Varick Street, 12 Floor",New York,NY,10013,
Six Red Marbles LLC,"Six Red Marbles, LLC","10 City Square, Charlestown, MA 02129",10 City Square,Charlestown,MA,02129,
Azusa Pacific University,Azusa Pacific University,"901 East Alosta Ave., Azusa, CA  91702",901 East Alosta Ave.,Azusa,CA,91702,
Staples Inc,"Staples, Inc,",,,,,,
Quest Diagnostics Inc,Quest Diagnostics,"1290 Wall Street West, Lyndhurst, NJ 07071",1290 Wall Street West,Lyndhurst,NJ,07071,
ID Parts LLC,"ID Parts, LLC",,,,,,
Apalacian Brewing Co,Apalacian Brewing Company,,,,,,
BreyerHorses.com,BreyerHorses.com,,,,,,
Hosting Services Inc,"Hosting Services, Inc",,,,,,
Marty's Newton,Marty's Newton,,,,,,
MFJ Enterprises Inc,MFJ Enterprises Inc.,,,,,,
Nile,Nile,,,,,,
Pure Hockey Web,Pure Hockey Web,,,,,,
Sally Beauty Supply,Sally Beauty Supply,,,,,,
Sheplers,Sheplers,,,,,,
The Sea Pines Resort Hilton Head Island,The Sea Pines Resort Hilton Head Island,,,,,,
Willow Creek GRL SFO TRM 1,Willow Creek GRL SFO TRM 1,,,,,,
Yandy LLC,"Yandy, LLC",,,,,,
Valpast Supply Services Inc,"Valplast Supply Services, Inc.","200 Shames Drive, Westbury, NY 11590",200 Shames Drive,Westbury,NY,11590,
Novo Nordisk Inc,"Novo Nordisk, Inc.",,,,,,
Apple Leisure Group,Apple Leisure Group,"7 Campus Blvd, Suite 100, Newtown Square, PA  19073","7 Campus Blvd, Suite 100",Newtown Square,PA,19073,
Ascena Retail Group Inc,"AscenaRetail Group, Inc.",,,,,,
Mosaic Sales Solutions US Operating Co LLC,"Mosaic Sales Solutions US Operating Co., LLC",,,,,,
Sony Pictures Entertainment Inc,Sony Pictures Entertainment Inc.,"10202 W. Washington Blvd., Culver City, CA 90232",10202 W. Washington Blvd.,Culver City,CA,90232,
Sands Casino Resort Bethlehem,Sands Casino Resort Bethlehem,,,,,,
Bebe Stores Inc,"bebe stores, Inc., ",,,,,,
E-Conolight LLC,"E-Conolight, LLC","1501 96th Street, Sturtevant, WI 53177",1501 96th Street,Sturtevant,WI,53177,
#N/A,"American Residuals and Talent, Inc.","26 Gregs Way, Suite A, Tamworth, NH 03886","26 Gregs Way, Suite A",Tamworth,NH,03886,
Camden National Bank,Camden National Bank,,,,,,
Holiday Motel,Holiday Motel,"222 Hasting Hill, St. Johnsbury, VT 05819",222 Hasting Hill,St. Johnsbury,VT,05819,
Blue Mountain Community Foundation,Blue Mountain Community Foundation,,,,,,
Heywood Hospital,Highlands-Cashiers Hospital,,,,,,
Calypso St. Barth Inc,"Calypso St. Barth, Inc.","33-02 Skillman Avenue, Floor 5, Long Island City, NY 11101","33-02 Skillman Avenue, Floor 5",Long Island City,NY,11101,
Toronto-Dominion Bank,TD Bank,,,,,,
Simms Fishing Products LLC,Simms Fishing Products,,,,,,
Godiva Chocolatier Inc,"Godiva Chocolatier, Inc.","139 Mill Rock Road East, Old Saybrook, CT 06475",139 Mill Rock Road East,Old Saybrook,CT,06475,
Fidelity Investments,Fidelity Investments ,,,,,,
Visionworks Inc,Visionworks,,,,,,
Bartell Hotels,Bartell Hotels,,,,,,
Cowboys BBQ & Steak of FT Pierce,Cowboys BBQ & Steak of FT Pierce,,,,,,
Key West Crowne Plaza,Key West Crowne Plaza,,,,,,
Nomorerack.com,Nomorerack.com,,,,,,
PF Chang's China Bistro,PF Chang's China Bistro,,,,,,
PHE Inc Sinclir Institute,PHE Inc Sinclir Institute,,,,,,
Sourcebooks Inc,"Sourcebooks, Inc., ",,,,,,
Stay 123.com,Stay 123.com,,,,,,
MemberClicks Inc,"MemberClicks, Inc., d/b/a Moolah Payments",,,,,,
Fairway Independent Mortgage Corp,Fairway Independent Mortgage Corporation,,,,,,
LA Leasing Inc,"LA Leasing, Inc., d/b/a Sedona Staffing",,,,,,
EZ Prints Inc,EZ Prints,,,,,,
Evolution Nature Corp,"Evolution Nature Corp., d/b/a The Evolution Store",,,,,,
Nova Southeastern University,Nova Southeastern University,,,,,,
St Mary's Bank,St. Mary's Bank (Supplement),,,,,,
West Publishing Corp,West Publishing Corp.,,,,,,
One Love Organics Inc,"One Love Organics, Inc.",,,,,,
MetLife Inc,Metropolitan Life Insurance Company,,,,,,
Camp Bow Wow Franchising Inc,"Camp Bow Wow Franchising, Inc.",,,,,,
Delaware River & Bay Authority,Delaware River & Bay Authority,"PO Box 71, New Castle, Delaware 19720",PO Box 71,New Castle,DE,19720,
Green Energy Training Academy,Green Energy Training Academy,,,,,,
St Mary's Bank,St. Mary's Bank,,,,,,
US Investigations Services LLC,"US Investigations Services, LLC",,,,,,
#N/A,"Alliance Workplace Solutions, LLC ",,,,,,
Duluth Pack,Duluth Pack,,,,,,
Reeves International Inc,"Reeves International, Inc. (operator of Breyer Horses website)",,,,,,
Townsend Enterprises Inc,"Townsend Enterprises, Inc., d/b/a The Sinclair Institute",,,,,,
Columbia Southern University,Columbia Southern University,,,,,,
Hampton Inn Revere,Hampton Inn Revere,,,,,,
Neiman Marcus Group Inc,Neiman Marcus,,,,,,
The Natural Online,The Natural Online,,,,,,
Cyberswim Inc,"Cyberswim, Inc.",,,,,,
Asset Marketing Services LLC,"Asset Marketing Services, LLC",,,,,,
International Dairy Queen Inc,"International Dairy Queen, Inc.",,,,,,
#N/A,"Advanced Data Processing , Inc. and its clients, City of Alexandria, Virginia and City of Alexandria Fire Dept.",,,,,,
MDU Resources Group Inc,"MDU Resources Group, Inc.",,,,,,
UIL Holdings Corp,UIL Holdings Corporation,,,,,,
UPS Store Inc,"The UPS Store, Inc.",,,,,,
#N/A,"AB Acquisition LLC, parent company of New Albertson's Inc.  (21 stores under the Shaw's banner in Maine)",,,,,,
RB Portland LLC,RB Portalnd LLC,,,,,,
"Dworken, Hillman, LaMorte & Sterczala PC","Dworken, Hillman, LaMorte & Sterczala, P.C.",,,,,,
USAA Federal Savings Bank,USAA Federal Savings Bank (The UPS Store),,,,,,
Jimmy John's Franchise LLC,Jimmy John's Franchises LLC,,,,,,
Michaels Arron Brothers Stores,Michaels Arron Brothers Stores,,,,,,
Wideners Reloading,Wideners Reloading,,,,,,
Viator Inc,Viator,,,,,,
CareCentrix Inc,Carecentrix,,,,,,
QVC Inc,"QVC, Inc.",,,,,,
Tremec,Tremec,,,,,,
Miami Beach Healthcare Group  Ltd,"Miami Beach Healthcare Group, Ltd., d/b/a Aventura Hospital & Medical Center",,,,,,
The Home Depot Inc,"The Home Depot, Inc., ",,,,,,
Yandy LLC,Yandy.com,,,,,,
California State University East Bay,"California State University, East Bay",,,,,,
Cogent Healthcare Inc,Cogent Healthcare,,,,,,
LPL Financial Holdings Inc,LPL Financial LLC,,,,,,
Clam Case LLC,ClamCase LLC,,,,,,
The Dreslyn,The Dreslyn,,,,,,
Imhoff & Associates PC,"Imhoff & Associates, P.C.",,,,,,
Ghirardelli #109,Ghirardelli #109,,,,,,
My Computer Works,My Computer Works,,,,,,
Ticher BMW Porche,Ticher BMW Porche,,,,,,
Otto Pizza,Otto Pizza,,,,,,
Geekface LLC,Geekface LLC,,,,,,
#N/A,AB Acquisition LLC,,,,,,
Harry Barker Inc,Harry Barker ,,,,,,
Freedom Management Group LLC,"Freedom Management Group, LLC d/b/a The Natural",,,,,,
Polish Falcons of America,Polish Falcons of America,,,,,,
Crothall Services Group,Crothall Services Group,,,,,,
Omega Net Inc,"Omega Net, Inc.",,,,,,
Mass General Hospital,Massachusetts General Hospital,,,,,,
Test Effects LLC,"Test Effects, LLC",,,,,,
OppenheimerFunds Inc,Oppenheimer Funds Services,,,,,,
Lasko Group Inc,"Lasko Group, Inc. (Lasko)",,,,,,
Chicago Yacht Club,Chicago Yacht Club,,,,,,
United Services Automobile Association,USAA ,,,,,,
Northern Trust Co,The Northern Trust Co.,,,,,,
Source Media Inc,"Source Media, Inc.",,,,,,
Backcountry Gear,Backcountry Gear ,,,,,,
Self Regional Healthcare,Self Regional Healthcare,,,,,,
USAA Federal Savings Bank,USAA Federal Savings Bank,,,,,,
Kaplan University,"Kaplan University,",,,,,,
Seattle University,Seattle University,,,,,,
Boomerang Tags,Boomerang Tags,,,,,,
Discount Party Supplies,Discount Party Supplies,,,,,,
Stag Arms LLC,Stag Arm LLC,,,,,,
White Lodging Services Corp,White Lodging  ,,,,,,
Vendors Exchange International,Vendors Exchange International,,,,,,
Freshology Inc,"Freshology, Inc.",,,,,,
Auburn University,"Auburn University, Auburn, AL 36849",,,,,,
Invulu Inc,"Invulu, Inc.",,,,,,
#N/A,Aecom Technology Corp,,,,,,
EndNote,EndNote,,,,,,
TotalBank,Total Bank ,,,,,,
Waynesburg University,Waynesburg University,,,,,,
Paytime Inc,"Paytime Harrisburg, Inc., d/b/a Paytime, Inc.",,,,,,
Dennis East International LLC,"Dennis East International, LLC",,,,,,
Atlantic Automotive Corp,"Atlantic Automotive Corp., d/b/a MileOne Automotive",,,,,,
Legal Sea Foods LLC,"Legal Sea Foods, LLC",,,,,,
Benjamin F. Edward & Co,Benjamin F. Edwards & Co.(BFE),,,,,,
Sterne Agee & Leach Inc,"Sterne, Agee & Leach, Inc.",,,,,,
Butler University,Butler University,,,,,,
Cowboys BBQ & Steak Co,Cowboys BBQ & Steak Co.,,,,,,
Target Corp,Target,,,,,,
Metropolitan Regional Information Systems Inc,"Metropolitan Regional Information Systems, Inc.",,,,,,
Record Assist LLC,"Record Assist, LLC",,,,,,
Montana Department of Public Health and Human Services,Montana Dept. of Public Health & Human Services; www.dphhs.mt.gov ,,,,,,
Metropolitan Companies Inc,"The Metropolitan Companies, Inc.",,,,,,
AT&T,AT&T,,,,,,
Herbaria,Herbaria,,,,,,
National Credit Adjusters LLC,National Credit Adjusters,,,,,,
Giant  Eagle Inc,"Giant Eagle, Inc.",,,,,,
Rowan Companies PLC,Rowan Companies PLC,,,,,,
AutoNation Inc,AutoNation,,,,,,
Paytime Inc,"Paytime, Inc.",,,,,,
Lowe's Companies Inc,Lowe's ,,,,,,
#N/A,Affinity Gaming,,,,,,
Precision Planting LLC,"Precision Planting, LLC",,,,,,
TechMedia Network,Techmedia Network,,,,,,
URM Stores,URM Stores,,,,,,
#N/A,American Dental Association,,,,,,
Entercom Portland LLC,"Entercom Portland, LLC",,,,,,
Gingerbread Shed Corp,Gingerbread Shed Corporation,,,,,,
UMass Memorial Health Care Inc,Umass Memorial Medical Center,,,,,,
JCM Partners LLC,"JCM Partners, LLC",,,,,,
Central City Concern,Central City Concern,,,,,,
L Brands Inc,"L. Brands, Inc. (Victoria's Secret Store)",,,,,,
NCO Financial Systems Inc,"NCO Financial Systems, Inc.",,,,,,
QVC Inc,"QVC, Inc., ",,,,,,
John Hopkins University,John Hopkins University,,,,,,
Snelling Staffing LLC,"Snelling Staffing, LLC",,,,,,
Willis North America Inc,Willis North America Inc.,,,,,,
Larsen Dental Care LLC,Larsen Dental Care,,,,,,
Michaels Stores Inc,"Michael's Stores, Inc. (including Aaron Brothers) UPDATE from 1/27/14 notice",,,,,,
Guys American Kitchen and Bar,Guys American Kitchen and Bar,,,,,,
Heartland Brewery,Heartland Brewery,,,,,,
Outdoor Network LLC,Outdoor Network LLC,,,,,,
The Clevelander Restaurant,The Clevelander Restaurant,,,,,,
LaCie USA,LaCie USA,,,,,,
Deltek Inc,"Deltek, Inc.",,,,,,
UMS,UMS,,,,,,
Cole Taylor Bank,ColeTaylorBank,,,,,,
Santander Bank NA,Santander Bank,,,,,,
RK Internet LLC,"RK Internet, LLC (Rural King)",,,,,,
RBS Citizens Financial Group Inc,"RBS Citizens Financial Group, Inc.",,,,,,
Sorenson Communications,Sorenson Communications,,,,,,
Ithaka,Ithaka,,,,,,
Human Resource Advantage,Human Resource Advantage,,,,,,
Wolf and Co PC,"Wolf and Co., P.C.",,,,,,
Auburn University,Auburn University,,,,,,
Target Corp,Target ,,,,,,
Shipyard Brewhaus II LLC,Shipyard Brewhaus II LLC,,,,,,
Oak Associates Funds,Oak Associates Funds,,,,,,
Neiman Marcus Group Inc,Neiman Marcus Group,,,,,,
Hilton Worldwide Holding Inc,Embassy Suites,,,,,,
McKenna Long & Aldrige LLP,"McKenna, Long & Aldridge, LLP",,,,,,
Maricopa County Community College District,Maricopa County Community Colleges,,,,,,
Assisted Living Concepts LLC,"Assisted Living Concepts, LLC",,,,,,
Toronto-Dominion Bank,"TD Bank, N.A.",,,,,,
Harbor Freight Tools USA Inc,Harbor Freight Tools,,,,,,
#N/A,Agon Sports,,,,,,
Comfort Direct/Thor-Lo,Comfort Direct/Thor-Lo,,,,,,
Syber Roboform Goodsync,Syber Roboform Goodsync,,,,,,
Xpres LLC,Xpress Bill Pay,,,,,,
Zevin Asset Management LLC,"Zevin Asset Management, LLC.",,,,,,
The Home Depot Inc,The Home Depot  (Update dated 3/14/14 bringing # of affected Maine residents from 40 up to 54),,,,,,
Freeman,Freeman,,,,,,
White Lodging Services Corp,"White Lodging Services Corp. (""White Lodging"")",,,,,,
Bank of the West,Bank of the West,,,,,,
#N/A,"80sTees.com, Inc. UPDATE",,,,,,
St Joseph Health System,St. Joseph Health System,,,,,,
Hospital for Special Surgery,Hospital for Special Surgery,,,,,,
State Industrial Products Corp,State Industrial,,,,,,
Michaels Stores Inc,"Michael's Stores, Inc.",,,,,,
Coca-Cola Co,The Coca Cola Company,,,,,,
Discountmugs.com,Discountmugs.com Belusa,,,,,,
Elightbulbs,Elightbulbs,,,,,,
Golf 18,Golf 18,,,,,,
Specs Liquor,Specs Liquor,,,,,,
Easton-Bell Sports Inc,"Easton-Bell Sports, Inc.",,,,,,
Update Legal,Update Legal,,,,,,
Straight Dope LLC,"Straight Dope, LLC",,,,,,
US Fund for UNICEF,U.S. Fund for UNICEF,,,,,,
T-Mobile USA Inc,T-Mobile,,,,,,
RegistratioNATION,RegistratioNATION,,,,,,
Orient-Express Hotels Ltd,"Orient Express Hotels, Ltd.",,,,,,
Tech Media,Tech Media,,,,,,
Combat Sports,Combat Sports,,,,,,
Danner,Danner,,,,,,
Classic Industries,Classic Industries,,,,,,
Long Beach Pharacy,Long Beach Pharacy,,,,,,
Sachi Japanese Steakhouse,Sachi Japanese Steakhouse,,,,,,
Smart Cover Cosmetics,Smart Cover Cosmetics,,,,,,
Massachusetts Mutual Life Insurance Co,MassMutual Financial Group,,,,,,
Hootsuite,Hootsuite,,,,,,
Mannix Marketing,"Mannix Marketing (maintains data for Saratoga Sweets, Barkeater Chocolates, Olde Bryan Inn and Coffee Planet",,,,,,
DecisionDesk Inc,"DecisionDesk, Inc.",,,,,,
EZ Yield,EZYield,,,,,,
CITGO Petroleum Corp,Citgo,,,,,,
Horizon Healthcare Services Inc,"Horizon Healthcare Services, Inc. d/b/a Horizon Blue Cross Blue Shield of NJ",,,,,,
JPMorgan Chase & Co,JPMorgan Chase & Co.,,,,,,
HSBC Bank USA NA,HSBC Bank USA N.A.,,,,,,
Maricopa County Community College District,Maricopa County Community College District,,,,,,
First Niagra,First Niagra,,,,,,
Kroll Background America Inc,"Kroll Background America, Inc. (Background checks for Marsh& McLennan Companies",,,,,,
Naito Corp,Naito Corporation,,,,,,
Drew University,Drew University,,,,,,
Branch Banking & Trust Co,Branch Banking & Trust Co.,,,,,,
Kroll Background America Inc,"Kroll Background America, Inc.",,,,,,
#N/A,101INK.COM,,,,,,
#N/A,AMAZING CLUBS,,,,,,
BLADE TECH #2,BLADE TECH #2,,,,,,
Chateau Elan Resort,CHATEAU ELAN RESORT,,,,,,
PGA NATIONAL RESORT & SPA,PGA NATIONAL RESORT & SPA,,,,,,
RUDEE TOURS,RUDEE TOURS,,,,,,
Union Township School Corp,UNIQUE VINTAGE,,,,,,
Crown Castle International Corp,Crown Castle,,,,,,
Cruises Inc,"Cruises, Inc.",,,,,,
#N/A,AHW LLC,,,,,,
DaVita HealthCare Partners Inc,DaVita HealthCare Partners,,,,,,
Maine Historical Society,Maine Historical Society,,,,,,
Harbor Freight Tools USA Inc,"Harbor Freight Tools USA, Inc.",,,,,,
Western Union Co,Western Union,,,,,,
Greene Consulting Associates LLC,"Greene Consulting Associates, LLC",,,,,,
Scotts Company LLC,"The Scotts Company, LLC / Datapak Services Corporation",,,,,,
Thrivent Financial for Lutherans,Thrivent Financial for Lutherans,,,,,,
Dun & Bradstreet Corp,Dun & Bradstreet,,,,,,
Rotech Healthcare Inc,"Rotech Healthcare, Inc.",,,,,,
Crystal & Co,Crystal & Company,,,,,,
Ouidad,Ouidad,,,,,,
Hudson Valley Community College,"Hudson Valley Community College (""HVCC"")",,,,,,
Discountmugs.com,Discountmugs.com,,,,,,
Famous Smoke Shop,Famous Smoke Shop,,,,,,
MW Online Beer & Wine,MW Online Beer & Wine,,,,,,
NBC Sports Group,NBC Sports Group,,,,,,
Holy Cross Hospital,Holy Cross Hospital,,,,,,
CSX Transportation,CSX Transportation,,,,,,
#N/A,Adobe Systems Incorp,,,,,,
Datapak Services Corp,Datapak Services Corporation,,,,,,
RT Jones Capital Equities Management Inc,"R.T. Jones Capital Equities Management, Inc.",,,,,,
Petrochem Insulation Inc,"Petrochem Insulation, Inc.",,,,,,
Total System Services Inc,"Total System Services, Inc.",,,,,,
#N/A,"Altius Education, Inc. ",,,,,,
Windhaven Investment Management Inc,Windhaven Investment Management,,,,,,
The New Teacher Project,The New Teacher Project,,,,,,
Blackwing Ostrich Meat,Blackwing Ostrich Meat,,,,,,
Powder Blue Productions,Powder Blue Productions,,,,,,
Restaurant Depot Indianapolis,Restaurant Depot Indianapolis,,,,,,
Vitamin Life 4,Vitamin Life 4,,,,,,
MFS Service Center Inc,"MFS Service Center, Inc, a subsidiary  of Mass Financial Services Co.",,,,,,
Bel USA LLC,Bel USA LLC,,,,,,
Blackhawk Consulting Group,Blackhawk Consulting Group (Provides billing services for Advocate Medical Group and Dreyer Medical Clinic,,,,,,
ODN,"ODN, ",,,,,,
Equifax Mortgage Services,"Equifax, Inc.",,,,,,
QVC Inc,QVC,,,,,,
PayJunction Inc,"PayJunction, Inc.",,,,,,
Inter-Continental Hotels Corp,Inter-Continental Hotels Corporation (ICHC),,,,,,
Midwest Supplies LLC,"Midwest Supplies, LLC",,,,,,
Osprey Packs Inc,"Osprey Packs, Inc.",,,,,,
Republic Services,Republic Services,,,,,,
#N/A,80sTees.com,,,,,,
Callaway Gardens,Callaway,,,,,,
US Concealed Carry,US Concealed Carry,,,,,,
Washington Plaza Hotel,Washington Plaza Hotel,,,,,,
#N/A,"Advoate Medical Group (""AMG"")",,,,,,
#N/A,"Ameriprise Financial, Inc",,,,,,
Shore Mortgage,Shore Mortgage,,,,,,
Exelixis Inc,"Exelixis, Inc.",,,,,,
Ferris State University,Ferris State University,,,,,,
Argotec,Argotec,,,,,,
Foundations Recovery Network LLC,Foundations Recovery Network,,,,,,
McKesson Corp,"McKesson Corporation (payroll vendor, ADP)",,,,,,
Bell Helicopter's Training Academy,Bell Helicopter (Training Academy),,,,,,
Smartphone Experts,Smartphone Experts,,,,,,
F.C. Tucker Co Inc,"F.C. Tucker Co., Inc. (Real Estate Agency in Indiana)",,,,,,
US Airways Inc,US Airways,,,,,,
Fidelity Investments,"Fidelity Investments, William Duserick, Chief Privacy Officer, 617-392-1224 (o/b/o Oracle Corporation)",,,,,,
Ruby Tuesday Inc,"Ruby Tuesday, Inc.",,,,,,
Hungtington's Disease Society of America,"Huntington's Disease Society of America (""HDSA"")",,,,,,
Automatic Data Processing Inc,US Airways third-party vendor (ADP),,,,,,
Google Inc,Go-Part.com,,,,,,
Paradise Cove Beach Café,Paradise Cove Beach Cafe,,,,,,
Schnuck Markets Inc,Schnucks #117,,,,,,
Schnuck Markets Inc,Schnucks #177,,,,,,
Schnuck Markets Inc,Schnucks #188,,,,,,
Schnuck Markets Inc,Schnucks #717,,,,,,
NYC Bike Share LLC,"NYC Bike Share, LLC",,,,,,
Sentry Insurance a Mutual Insurance Co,Sentry Insurance,,,,,,
Hyundai Motor America,Hyundai Motor America,,,,,,
Suffolk University,"Suffolk University, via its vendor Vendini, Inc.",,,,,,
Primedia Inc,"Primedia, Inc.",,,,,,
Bridgewater Associates LP,Bridgewater,,,,,,
United Parcel Service,United Parcel Service (UPS),,,,,,
Quayside Publishing Group,"Quayside Publishing Group (Qbookshop.com, Qbookshop.net, Motorbooks.com and WalterFoster.com)           .",,,,,,
Zehnders of Frankenmuth,Zehnders of Frankenmuth,,,,,,
MAPCO Express Inc / Delek US Holdings Inc,Mapco,,,,,,
Stag Arms LLC,Stag Arms LLC,,,,,,
Willie TS,Willie TS,,,,,,
Montana State University,Montana Ste University(MSU),,,,,,
Great Lakes Dredge & Dock Co,Great Lakes Dredge & Dock Co. (GLDD),,,,,,
Polaris Industries Inc,Polaris,,,,,,
Harmonix Music Systems Inc,Harmonix,,,,,,
VYC Tires Inc,"VYC Tires, Inc., d/b/a bestusedtires.com",,,,,,
#N/A,ADP (Automatic Data Processing,,,,,,
Primedia Inc,"Primedia, Inc., k/n/a RentPath, Inc.(""Primedia"")",,,,,,
Goldner Associates Inc,"Goldner Associates, Inc.",,,,,,
#N/A,3balls.com,,,,,,
Champlain College,Champlain College,,,,,,
Rosewood Hotels and Resorts LLC,"Rosewood Hotels and Resorts, LLC, Management Co. for Aansazi Hotel, LLC",,,,,,
TJG Inc,"TJG, Inc. d/b/a Target Marketing",,,,,,
Shumsky Promotional Agency,Shumsky Promotional Agency,,,,,,
Piedmont HealthCare PA,"Piedmont healthCare, P.A.",,,,,,
Bashas' Family of Stores,Bashas 015,,,,,,
Bashas' Family of Stores,Bashas 016,,,,,,
Bashas' Family of Stores,Bashas 037,,,,,,
Bashas' Family of Stores,Bashas SW #151,,,,,,
DAK 2000,DAK 2000,,,,,,
Food City #108,Food City #108,,,,,,
Haagen-Dazs #1123,Haagen-Dazs #1123,,,,,,
Laughstub LLC,Laughstub LLC,,,,,,
Mamacitas San Antonio,Mamacitas San Antonio,,,,,,
Shoplet.com,Shoplet.com,,,,,,
Stethescope.com LLC,Stethoscope.com,,,,,,
webstarts,webstarts,,,,,,
Vendini Inc,"Vendini, Inc.",,,,,,
Edgewood Centre,The Edgewood Centre,,,,,,
Knology,Knology,,,,,,
YourTel America Inc,"YourTel America, Inc.",,,,,,
PHH Corp,PHH Corporation,,,,,,
LPL Financial Holdings Inc,LPL Financial,,,,,,
HIS Inc,HIS,,,,,,
ThyssenKrupp OnlineMetals LLC,"ThyssenKrupp OnlineMetals, LLC",,,,,,
#N/A,1st National Bank of Southern California,,,,,,
WorldVentures Marketing LLC,"WorldVentures Marketing, LLC",,,,,,
"Revana, Inc & TeleTech Services, Corp.","Revana, Inc & TeleTech Services, Corp.",,,,,,
Pearl Izumi,Pearl Izumi,,,,,,
Living Social Inc,"Living Social, Inc.",,,,,,
Iron Horse Bicycle Classic,Iron Horse Bicycle Classic,,,,,,
#N/A,"Altria Group's payroll vendor (ADP, Inc.)",,,,,,
Fabric Depot Inc,Fabric Depot Inc,,,,,,
Sloppy Joes,Sloppy Joes,,,,,,
The Artists Club,The Artists Club,,,,,,
Iberdrola USA,Iberdrola USA,,,,,,
Stanley Black & Decker Inc,"Stanley Black & Decker, Inc.",,,,,,
Chapman University,Chapman University,,,,,,
Vanguard Group Inc,"The Vanguard Group, Inc.",,,,,,
Computer Sciences Corp,CSC (Computer Sciences Corporation),,,,,,
#N/A,"80sTees.com, Inc.",,,,,,
Ellison Systems Inc,"Ellison Systems, Inc. d/b/a Shoplet.com",,,,,,
Tradebe Environmental Services LLC,"Tradebe Environmental Services, LLC",,,,,,
Citigroup Inc,"Citi, Citigroup, Inc.",,,,,,
Rollins Inc,"Rollins, Inc.",,,,,,
Dead River Co,Dead River Co.,,,,,,
TLO LLC,TLO ,,,,,,
United Shore Financial Services LLC,"United Shore Financial Services, LLC",,,,,,
#N/A,"Anthem (Connextions, call center vendor for Anthem's Medicare business customer service)",,,,,,
Eighth Day Sound Systems Inc,Eighth Day Sound,,,,,,
#N/A,Access Inmate Package,,,,,,
#N/A,Applebees Clovis,,,,,,
Kor Water Inc,Kor Water Inc,,,,,,
Marthas Country Bakery,Marthas Country Bakery,,,,,,
Thread Pit Inc,Thread Pit Inc,,,,,,
Wilton Industries,Wilton Industries,,,,,,
Finish Line Inc,Finish Line,,,,,,
UConn Health,University of Connecticut Health Center,,,,,,
Innovative Beauty Inc,"Innovative Beauty Inc., the company behind French Tip Dip",,,,,,
Inova Health System,Inova Health System,,,,,,
Frontier Natural Products Co-op,Frontier Natural Products Co-op,,,,,,
Massachusetts Mutual Life Insurance Co,"MassMutual Financial Group (3rd party service provider, Convey Compliance Solutions)",,,,,,
Lyons & Lyons PC,Lyons & Lyons PC (tax preparation company),,,,,,
Rhode Island College,Rhode Island College,,,,,,
Tim Hortons Inc,Tim Hortons (one of their service providers--Computershare Trust Company of Canada),,,,,,
Cresent Healthcare Inc,"Crescent Healthcare, Inc. (A Walgreens Company)",,,,,,
#N/A,Anthony Travel Inc.,,,,,,
CT Farm Country Valubilt,CT Farm Country Valubilt,,,,,,
Global Sugar Art,Global Sugar Art,,,,,,
Hoegger Suply Inc,Hoegger Suply Inc,,,,,,
King Street Blues,King Street Blues,,,,,,
Search Bug Inc,Search Bug Inc.,,,,,,
Spring Hill,Spring Hill ,,,,,,
Talk Fusion Inc,"Talk Fusion, Inc.",,,,,,
Republic Bank & Trust Co,Republic Bank & Trust Company,,,,,,
GoDaddy.com LLC,GoDaddy.com,,,,,,
The Hershey Co,The Hershey Company,,,,,,
Crafts Americana Group Inc,Crafts Americana Group,,,,,,
Thorlo Inc,"Thorlo, Inc.",,,,,,
The Howland-Hughes Co,The Howland-Hughes Company,,,,,,
Stethescope.com LLC,Stethescope.com LLC,,,,,,
Wilton Brands LLC,"Wilton Brands, LLC ",,,,,,
McGraw-Hill Co,McGraw-Hill Companies,,,,,,
RR Donnelley,RR Donnelley and its customer United Healthcare,,,,,,
Centric Group LLC,"Centric Group, LLC",,,,,,
Oldcastle APG Inc,"Oldcastle APG, Inc.",,,,,,
Irvine Scientific,Irvine Scientific,,,,,xx,
,,,,,,,
,,,,,,,
,,,,,,,
,,,,,,,
,,,,,,,
,,,,,,,
,,,,,,,
,,,,,,,
,,,,,,,
,,,,,,,
,,,,,,,
,,,,,,,
,,,,,,,
,,,,,,,
,,,,,,,
,,,,,,,
,,,,,,,
,,,,,,,
,,,,,,,
,,,,,,,
,,,,,,,
,,,,,,,
,,,,,,,
,,,,,,,
,,,,,,,
,,,,,,,
,,,,,,,
,,,,,,,
,,,,,,,
,,,,,,,
,,,,,,,
,,,,,,,
,,,,,,,
,,,,,,,
,,,,,,,
,,,,,,,
,,,,,,,
,,,,,,,
,,,,,,,
,,,,,,,
,,,,,,,
,,,,,,,
,,,,,,,
,,,,,,,
,,,,,,,
,,,,,,,
,,,,,,,
,,,,,,,
,,,,,,,
,,,,,,,
,,,,,,,
,,,,,,,
,,,,,,,
,,,,,,,
,,,,,,,
,,,,,,,
,,,,,,,
,,,,,,,
,,,,,,,
,,,,,,,
,,,,,,,
,,,,,,,
,,,,,,,
,,,,,,,
,,,,,,,
,,,,,,,
,,,,,,,
,,,,,,,
,,,,,,,
,,,,,,,
,,,,,,,
,,,,,,,
,,,,,,,
,,,,,,,
,,,,,,,
,,,,,,,
,,,,,,,
,,,,,,,
,,,,,,,
,,,,,,,
,,,,,,,
,,,,,,,
,,,,,,,
,,,,,,,
,,,,,,,
,,,,,,,
,,,,,,,
,,,,,,,
,,,,,,,
,,,,,,,
,,,,,,,
,,,,,,,
,,,,,,,
,,,,,,,
,,,,,,,
,,,,,,,
,,,,,,,
,,,,,,,
,,,,,,,
,,,,,,,
,,,,,,,
,,,,,,,
,,,,,,,
,,,,,,,
,,,,,,,
,,,,,,,
,,,,,,,
,,,,,,,
,,,,,,,
,,,,,,,
,,,,,,,
,,,,,,,
,,,,,,,
,,,,,,,
,,,,,,,
,,,,,,,
,,,,,,,
,,,,,,,
,,,,,,,
,,,,,,,
,,,,,,,
,,,,,,,
,,,,,,,
,,,,,,,
,,,,,,,
,,,,,,,
,,,,,,,
,,,,,,,
,,,,,,,
,,,,,,,
,,,,,,,
,,,,,,,
,,,,,,,
,,,,,,,
,,,,,,,
,,,,,,,
,,,,,,,
,,,,,,,
,,,,,,,
